{"place_id": "11491009", "place_name": "국립대관령자연휴양림", "like": ["Scenic beauty", "Quiet atmosphere", "Cleanliness", "Walking trails", "Snow activities"], "dislike": ["Lack of microwave", "Bring own towels", "Disabled parking misuse"]}
{"place_id": "13300191", "place_name": "경포도립공원", "like": ["Well-designed park", "Walking paths", "Clean environment", "Attractive sculptures", "Scenic beauty"], "dislike": []}
{"place_id": "15700020", "place_name": "제왕산", "like": ["Beginner-friendly", "Scenic views", "Easy hiking"], "dislike": ["Closed restrooms"]}
{"place_id": "1338629806", "place_name": "사근진해중공원 전망대", "like": ["Scenic views", "Photography opportunities", "Water activities", "Peaceful environment", "Unique attractions"], "dislike": ["Limited attractions"]}
{"place_id": "13491315", "place_name": "노인봉", "like": ["Restroom", "Easy hiking", "Scenic views", "Refreshments", "Free parking"], "dislike": ["Narrow paths", "Challenging hike", "Limited visibility", "Lack of washbasins", "Insects presence"]}
{"place_id": "19748069", "place_name": "단경골 휴양지", "like": [], "dislike": ["Poor communication", "Problem resolution", "Reservation issues", "Unprofessional staff"]}
{"place_id": "13491884", "place_name": "구룡폭포", "like": ["Scenic views"], "dislike": []}
{"place_id": "13491444", "place_name": "남항진해변", "like": ["Quiet atmosphere", "Family-friendly", "Scenic views", "Unique activities", "Ample facilities"], "dislike": ["Limited facilities"]}
{"place_id": "20065935", "place_name": "송정해변", "like": ["Scenic beauty", "Water activities", "Clean facilities", "Convenience store", "Parking availability"], "dislike": ["Restrictive policies", "Unfair rentals", "Noise issues", "Poor management"]}
{"place_id": "13491470", "place_name": "등명해변", "like": ["Relaxing atmosphere", "Scenic views", "Family-friendly", "Friendly staff", "Water activities"], "dislike": ["Poor facilities", "Lack of privacy", "Overcrowding"]}
{"place_id": "13491268", "place_name": "사천해변", "like": ["Scenic views", "Comfortable seating", "Quality coffee", "Pleasant atmosphere", "Fresh seafood"], "dislike": ["Expensive prices", "Coffee aroma"]}
{"place_id": "15699373", "place_name": "신사임당사친시비", "like": ["Scenic views", "Well-maintained restrooms", "Coffee truck"], "dislike": []}
{"place_id": "13491186", "place_name": "안인해변", "like": ["Quiet atmosphere", "Family-friendly", "Scenic views", "Clean water", "Abundant marine life"], "dislike": ["Poor facilities"]}
{"place_id": "13444336", "place_name": "연곡해변", "like": ["Scenic views", "Family-friendly", "Spacious beach", "Clean facilities", "Beach activities"], "dislike": ["Steep slope", "Strong waves", "Deep water"]}
{"place_id": "13491005", "place_name": "주문진해수욕장", "like": ["Cleanliness", "Family-friendly", "Scenic views", "Friendly service", "Water activities"], "dislike": []}
{"place_id": "13491494", "place_name": "남대천", "like": ["Scenic views", "Cherry blossoms", "Fountain display", "Walking paths", "Sports facilities"], "dislike": []}
{"place_id": "11663897", "place_name": "등명낙가사", "like": [], "dislike": []}
{"place_id": "11663898", "place_name": "보현사", "like": [], "dislike": []}
{"place_id": "15700882", "place_name": "강릉 굴산사지", "like": [], "dislike": []}
{"place_id": "37260285", "place_name": "강릉 금강사", "like": [], "dislike": []}
{"place_id": "11663849", "place_name": "강릉향교", "like": ["Cultural heritage", "Historical architecture", "Guided tours", "Photogenic views", "Cultural events"], "dislike": []}
{"place_id": "749351147", "place_name": "강릉 임영관 삼문", "like": ["Historical architecture", "Aesthetic design"], "dislike": []}
{"place_id": "1675156043", "place_name": "강릉 경포대", "like": ["Pet-friendly", "Scenic views", "Comfortable rooms", "Beach proximity", "Delicious breakfast"], "dislike": ["Noise", "Plastic cups", "Crowded"]}
{"place_id": "20103261", "place_name": "강릉 송담서원", "like": [], "dislike": []}
{"place_id": "11687693", "place_name": "강릉 선교장", "like": ["Cultural significance", "Scenic surroundings", "Historical preservation", "Peaceful atmosphere", "Convenient facilities"], "dislike": ["Inconvenient facilities", "High admission fee", "Humidity"]}
{"place_id": "12901526", "place_name": "부연동마을", "like": [], "dislike": []}
{"place_id": "15699044", "place_name": "강릉 대공산성", "like": [], "dislike": []}
{"place_id": "1955462654", "place_name": "강릉 통일공원", "like": [], "dislike": []}
{"place_id": "13491906", "place_name": "안목해변", "like": ["Scenic views", "Clean facilities", "Relaxing atmosphere", "Water activities", "Well-equipped restrooms"], "dislike": []}
{"place_id": "13491923", "place_name": "오대산 소금강계곡", "like": ["Scenic views", "Refreshing water", "No entrance fee", "Good for swimming", "Abundant wildlife"], "dislike": ["Insect nuisance"]}
{"place_id": "13491109", "place_name": "경포호", "like": ["Scenic views", "Walking paths", "Rest areas", "Wildlife observation", "Art installations"], "dislike": ["Ongoing construction"]}
{"place_id": "13444970", "place_name": "옥계해변", "like": ["Beautiful beach", "Quiet atmosphere", "Delicious food", "Surfing activities", "Restroom availability"], "dislike": ["Restrictive policies", "Lack of shade", "Poor signage", "Unwelcoming atmosphere"]}
{"place_id": "32960136", "place_name": "강릉 대기리마을", "like": [], "dislike": []}
{"place_id": "12390002", "place_name": "강릉 복사꽃마을", "like": ["Orchards", "Quiet atmosphere", "Fragrant peaches", "Scenic views", "Peach trees"], "dislike": []}
{"place_id": "1378194684", "place_name": "강릉 한울타리마을", "like": ["Comfortable accommodations", "Family-friendly environment", "Clean facilities", "Child safety", "Delicious food"], "dislike": []}
{"place_id": "11620713", "place_name": "모래시계공원", "like": ["Train museum", "Scenic views", "Unique exhibits", "Relaxing atmosphere", "Photo spot"], "dislike": ["Obstructive structures", "Crowded", "Limited attractions"]}
{"place_id": "13491515", "place_name": "칠성산", "like": [], "dislike": []}
{"place_id": "20108403", "place_name": "오봉서원", "like": [], "dislike": []}
{"place_id": "973348082", "place_name": "강릉 용연사", "like": [], "dislike": []}
{"place_id": "15371716", "place_name": "사근진해변", "like": ["Relaxing atmosphere", "Scenic beauty", "Water activities", "Nearby amenities", "Ample parking"], "dislike": ["Sparse flower fields"]}
{"place_id": "13491150", "place_name": "영진해변", "like": ["Cleanliness", "Scenic views", "Beach amenities", "Comfortable water", "Safety"], "dislike": ["Unfriendly staff", "Parasol restrictions"]}
{"place_id": "11491778", "place_name": "정동진해변", "like": ["Scenic views", "Clear water", "Clean sand", "Variety of attractions", "Peaceful atmosphere"], "dislike": []}
{"place_id": "12079976", "place_name": "경포해수욕장", "like": ["Cleanliness", "Scenic views", "Well-maintained facilities", "Free amenities", "Water activities"], "dislike": ["Closed facilities", "Deep water for children"]}
{"place_id": "20066249", "place_name": "강릉 수리골 고택", "like": ["Complimentary water", "Cold noodles", "Delicious food"], "dislike": []}
{"place_id": "474291808", "place_name": "썬크루즈 테마공원", "like": ["Scenic views", "Delicious food", "Tasty beverages", "Sunset experience", "Variety of dishes"], "dislike": ["Admission fee"]}
{"place_id": "20059236", "place_name": "주문리마을", "like": ["Friendly service"], "dislike": []}
{"place_id": "20054507", "place_name": "주문진 등대", "like": ["Scenic view", "Cultural significance", "Architectural heritage", "Interactive exhibits", "Photography"], "dislike": []}
{"place_id": "20054445", "place_name": "영진항", "like": ["Cultural significance", "Scenic views", "Variety of fish", "Unique landscape", "Peaceful atmosphere"], "dislike": []}
{"place_id": "15705568", "place_name": "강릉 해살이마을", "like": [], "dislike": []}
{"place_id": "1630903464", "place_name": "마암터마을", "like": [], "dislike": []}
{"place_id": "20066241", "place_name": "강릉 해운정", "like": [], "dislike": []}
{"place_id": "19501415", "place_name": "소돌아들바위공원", "like": ["Scenic beauty", "Photography opportunities", "Water activities", "Relaxing atmosphere", "Sunrise views"], "dislike": ["Crowded", "Restricted access"]}
{"place_id": "13490946", "place_name": "주문진항", "like": ["Friendly service", "Scenic views", "Fresh seafood", "Delicious food", "Affordable prices"], "dislike": []}
{"place_id": "13068554", "place_name": "임해자연휴양림", "like": ["Scenic views", "Well-maintained trails", "Relaxing atmosphere", "Equipped kitchen", "Clean air"], "dislike": ["Obstructed views", "Lack of amenities", "Small room size", "Limited smoking areas", "Low water pressure"]}
{"place_id": "15694642", "place_name": "솔바람다리", "like": [], "dislike": []}
{"place_id": "19564244", "place_name": "강릉 솔향수목원", "like": ["Children's activities", "Scenic views", "Free services", "Nature experience", "Well-maintained facilities"], "dislike": []}
{"place_id": "20947876", "place_name": "강릉커피거리", "like": ["Scenic views", "Variety of cafes", "High-quality coffee", "Relaxing atmosphere", "Photo spots"], "dislike": ["Limited meal options", "Loss of reputation"]}
{"place_id": "34958237", "place_name": "강릉 녹색도시체험센터", "like": [], "dislike": []}
{"place_id": "37031400", "place_name": "정감이마을", "like": ["Scenic beauty", "Engaging activities", "Excellent facilities", "Friendly staff"], "dislike": []}
{"place_id": "1287320440", "place_name": "강릉 월화거리", "like": ["Casual visits", "Small performances", "Scenic area", "Unique items", "Diverse food"], "dislike": ["Limited seating"]}
{"place_id": "269545324", "place_name": "국립대관령치유의숲", "like": ["Scenic views", "Well-maintained paths", "Healing atmosphere", "Equipment rental", "Peaceful environment"], "dislike": ["Limited deck availability", "Insufficient signage", "Limited rest areas"]}
{"place_id": "15685783", "place_name": "강릉 대도호부 관아", "like": ["Beautiful scenery", "Cultural value", "Variety of activities", "Well-maintained facilities", "Historical significance"], "dislike": []}
{"place_id": "20066218", "place_name": "허난설헌 생가터", "like": ["Scenic trails", "Guided tours", "Relaxing atmosphere", "Family-friendly", "Historical significance"], "dislike": []}
{"place_id": "15327430", "place_name": "허난설헌 솔숲", "like": [], "dislike": []}
{"place_id": "37090227", "place_name": "버드나무 브루어리", "like": ["Delicious food", "Craft beer", "Pleasant aroma", "Friendly staff", "Atmosphere"], "dislike": ["Limited bar seating", "High prices", "Misleading dish names"]}
{"place_id": "1249952785", "place_name": "강릉 명주동 거리", "like": ["Unique desserts", "Pleasant atmosphere", "Delicious ice cream", "Friendly service", "Variety of beverages"], "dislike": []}
{"place_id": "1154013651", "place_name": "주문진bts", "like": ["Scenic beauty", "Cultural significance", "Thematic decor", "Popularity", "International tourists"], "dislike": ["Crowdedness"]}
{"place_id": "1117620826", "place_name": "뒷뜨루관광농원", "like": ["Beautiful scenery", "Animal interaction", "Art exhibitions", "Family-friendly", "Well-maintained"], "dislike": []}
{"place_id": "31506191", "place_name": "초당순두부마을", "like": ["Quality food"], "dislike": ["Early closing time"]}
{"place_id": "37434460", "place_name": "경포 아쿠아리움", "like": ["Diverse marine life", "Family-friendly", "Interactive experiences", "Well-maintained facilities", "Cost-effective"], "dislike": ["Limited marine life", "Small size"]}
{"place_id": "15686003", "place_name": "강릉 오금집", "like": [], "dislike": []}
{"place_id": "939463951", "place_name": "강릉 안목해맞이공원", "like": ["Scenic views", "Clean beach", "Relaxing atmosphere", "Live music", "Well-maintained facilities"], "dislike": []}
{"place_id": "37081677", "place_name": "수상한마법학교", "like": ["Engaging performances", "Family-friendly", "Interactive experiences", "Educational value", "Photo opportunities"], "dislike": ["Short performance"]}
{"place_id": "15703995", "place_name": "석병산", "like": [], "dislike": []}
{"place_id": "15703348", "place_name": "옥계항", "like": [], "dislike": []}
{"place_id": "31044854", "place_name": "경포가시연습지", "like": ["Family-friendly", "Scenic beauty", "Lotus flowers", "Walking paths", "Relaxing atmosphere"], "dislike": ["Lack of flowers", "Lack of views"]}
{"place_id": "1940124735", "place_name": "강문솟대다리", "like": ["Scenic views", "Quiet atmosphere", "Unique experience", "Relaxing atmosphere", "Good for walking"], "dislike": []}
{"place_id": "1261782152", "place_name": "호린파크(경포대허브농장)", "like": ["Scenic views", "Aesthetic appeal", "Spaciousness", "Well-maintained facilities", "Photogenic spots"], "dislike": ["Limited space", "Poor coffee quality", "Limited attractions", "Wilted flowers", "Overpriced admission"]}
{"place_id": "15701885", "place_name": "안인항", "like": [], "dislike": []}
{"place_id": "15692195", "place_name": "강릉항", "like": ["Quiet atmosphere", "Walking paths", "Scenic views", "Leisure activities"], "dislike": ["Lack of nighttime atmosphere"]}
{"place_id": "1300520912", "place_name": "르꼬따쥬", "like": ["Friendly service", "Tasty beverages", "Pet-friendly", "Private atmosphere", "Beautiful space"], "dislike": ["Lack of privacy", "Intrusive staff", "Unprofessional management"]}
{"place_id": "1090516936", "place_name": "노암터널", "like": [], "dislike": []}
{"place_id": "1206536601", "place_name": "금진항(강릉)", "like": ["Friendly service", "Convenience", "Diverse products", "Trendy products", "Coffee machine"], "dislike": ["Expired product"]}
{"place_id": "15707204", "place_name": "부연약수", "like": [], "dislike": []}
{"place_id": "1130774967", "place_name": "허균·허난설헌 기념공원", "like": ["Scenic beauty", "Cultural significance", "Historical significance", "Family-friendly", "Well-maintained facilities"], "dislike": []}
{"place_id": "1063021154", "place_name": "경포플라워가든", "like": ["Lotus viewing", "Scenic walking area", "Flower garden"], "dislike": []}
{"place_id": "37869673", "place_name": "쌍둥이동물농장", "like": ["Animal variety", "Affordable admission", "Clean facilities", "Interactive feeding", "Family-friendly"], "dislike": ["Underfed cows"]}
{"place_id": "35372537", "place_name": "대관령아기동물농장", "like": ["Animal interaction", "Cleanliness", "Family-friendly", "Educational experience", "Friendly staff"], "dislike": ["Admission price"]}
{"place_id": "1550291849", "place_name": "강릉아트센터", "like": ["Coffee quality", "Pleasant aroma", "Quick drinks", "Art exhibition"], "dislike": ["Insufficient seating"]}
{"place_id": "13351605", "place_name": "정동진조각공원", "like": ["Scenic views", "Photography spots", "Relaxing atmosphere", "Walking-friendly", "Aesthetic appeal"], "dislike": ["Limited transportation", "Restricted access"]}
{"place_id": "1346656418", "place_name": "경포생태저류지", "like": ["Scenic views", "Tranquil atmosphere", "Accessibility", "Pet-friendly", "Wildlife observation"], "dislike": ["Construction disturbance", "Limited access", "Crowded atmosphere", "Sparse environment"]}
{"place_id": "38623679", "place_name": "명주예술마당", "like": ["Art exhibitions", "Magic show", "Outdoor pavilion", "Local artists", "Family-friendly"], "dislike": []}
{"place_id": "37783551", "place_name": "소돌항", "like": [], "dislike": []}
{"place_id": "20103328", "place_name": "순포해변", "like": ["Tranquil environment", "Scenic views", "Cleanliness", "Cool water", "Resting facilities"], "dislike": ["Sudden deep water", "Lack of facilities"]}
{"place_id": "13491657", "place_name": "소돌해수욕장", "like": ["Scenic views", "Tranquil atmosphere", "Child-friendly", "Clean water", "Seafood restaurants"], "dislike": ["Restricted access"]}
{"place_id": "1884028346", "place_name": "순포습지", "like": ["Tranquil environment", "Scenic views", "Natural surroundings", "Well-maintained paths", "Plant variety"], "dislike": ["Inadequate paths", "Limited attractions"]}
{"place_id": "1600054868", "place_name": "해피아워크루즈", "like": ["Family-friendly", "Scenic views", "Entertainment shows", "Pleasant atmosphere", "Magic shows"], "dislike": ["Limited performances"]}
{"place_id": "1848252796", "place_name": "강릉아기동물농장", "like": ["Animal interaction", "Cleanliness", "Friendly staff", "Complimentary gifts", "Affordable admission"], "dislike": ["Lack of cleanliness", "Inability to feed horses", "Small size"]}
{"place_id": "1338629806", "place_name": "사근진 해중공원 전망대", "like": ["Scenic views", "Photography opportunities", "Water activities", "Unique attractions", "Romantic atmosphere"], "dislike": ["Limited attractions"]}
{"place_id": "1775014582", "place_name": "리고엠", "like": ["Friendly service", "Beautiful products", "High-quality results", "Engaging activity", "Well-structured classes"], "dislike": []}
{"place_id": "1542622512", "place_name": "원더스카이", "like": ["Child-friendly", "Indoor activities", "Safety measures", "Clean environment", "Exciting attractions"], "dislike": ["High cost", "Long waiting time", "Lack of water facilities", "Time management issues", "Scary rides"]}
{"place_id": "1109407473", "place_name": "강릉안반데기관광농원", "like": ["Friendly staff", "Cleanliness"], "dislike": []}
{"place_id": "15698326", "place_name": "향호해변", "like": ["Iconic location", "Quiet atmosphere", "Clean environment", "Scenic forest", "Safe swimming"], "dislike": ["Restrictive regulations", "Inadequate management"]}
{"place_id": "1112785467", "place_name": "런닝맨 강릉점", "like": ["Family-friendly", "Variety of activities", "Challenging missions", "Interactive games", "Clean environment"], "dislike": ["Equipment issues", "Challenging for children", "Facility maintenance"]}
{"place_id": "15693581", "place_name": "강릉 남산공원", "like": ["Scenic beauty", "Spacious lawn", "Aerobic exercise", "Well-lit", "Peaceful atmosphere"], "dislike": ["Reduced activities"]}
{"place_id": "1918856809", "place_name": "강릉수월래", "like": [], "dislike": []}
{"place_id": "13126966", "place_name": "풍호마을", "like": ["Aquatic plants", "Lotus flowers", "Cultural festival", "Photo opportunities", "Scenic beauty"], "dislike": ["Limited lotus flowers"]}
{"place_id": "1243747688", "place_name": "병산 옹심이마을", "like": ["Convenience", "Friendly service", "Clean display"], "dislike": []}
{"place_id": "2145408639", "place_name": "강릉 방동리 무궁화", "like": ["Uncrowded", "Pleasant scent", "Scenic views", "Tranquil"], "dislike": []}
{"place_id": "35188457", "place_name": "애니멀스토리", "like": ["Interactive experiences", "Friendly service", "Informative explanations", "Well-maintained", "Family-friendly"], "dislike": ["Limited interaction"]}
{"place_id": "1412053208", "place_name": "처음처럼&새로 브랜드 체험관", "like": ["Luxurious lounge", "Interesting tour", "Unique experience"], "dislike": ["Poor service", "Commercialized atmosphere", "Rude staff", "Inadequate management"]}
{"place_id": "1298862753", "place_name": "강릉 한복 문화 창작소", "like": [], "dislike": []}
{"place_id": "472414455", "place_name": "경포호수광장", "like": ["Scenic views", "Walking trails", "Beautiful tulips", "Interactive booths", "Colorful lighting"], "dislike": ["No pet access"]}
{"place_id": "1881857549", "place_name": "강릉 메타버스 체험관", "like": ["Interactive experiences", "Family-friendly", "Good value", "VR experience", "Diverse programs"], "dislike": ["Unhelpful staff", "Strict time management", "Limited access", "Unwelcoming atmosphere", "Inefficient service"]}
{"place_id": "15698002", "place_name": "최선평 가옥", "like": [], "dislike": []}
{"place_id": "15707029", "place_name": "소금강", "like": ["Enjoyable foliage", "Short bridge", "Hiking opportunity", "Scenic views"], "dislike": ["Parking cost"]}
{"place_id": "15700923", "place_name": "굴산사지당간지주", "like": [], "dislike": []}
{"place_id": "13491183", "place_name": "강문해변", "like": ["Family-friendly", "Scenic views", "Relaxing atmosphere", "Variety of activities", "Nearby cafes"], "dislike": ["Cold showers", "Lack of shade", "Inadequate restrooms"]}
{"place_id": "15704900", "place_name": "사천진해변(사천뒷불해수욕장)", "like": ["Foot washing station", "Private beach access", "Moderate crowd", "Beach amenities"], "dislike": []}
{"place_id": "1800696554", "place_name": "하평해변(강릉)", "like": ["Product variety", "Friendly service", "Scenic view", "Cleanliness", "Spaciousness"], "dislike": []}
{"place_id": "13491745", "place_name": "순긋해변", "like": ["Scenic beauty", "Cleanliness", "Friendly service", "Relaxing environment", "Cozy atmosphere"], "dislike": ["Short flower height"]}
{"place_id": "15701732", "place_name": "염전해변", "like": ["Delicious seafood", "Scenic views"], "dislike": []}
{"place_id": "15703904", "place_name": "금진해변", "like": ["Surfing opportunities", "Quiet beach", "Scenic views", "Nearby facilities", "Safe environment"], "dislike": ["Jellyfish presence"]}
{"place_id": "15703402", "place_name": "도직해변", "like": ["Secluded beach", "Public restroom"], "dislike": ["No showers", "Few dining options"]}
{"place_id": "1145646712", "place_name": "대굴령마을", "like": [], "dislike": []}
{"place_id": "12200105", "place_name": "현덕사(강릉)", "like": [], "dislike": []}
{"place_id": "11626644", "place_name": "하슬라아트월드", "like": ["Scenic views", "Artistic installations", "Photo opportunities", "Family-friendly", "Variety of exhibitions"], "dislike": ["Unfriendly staff"]}
{"place_id": "11620702", "place_name": "강릉 오죽헌·시립박물관", "like": ["Informative exhibits", "Educational experience", "Beautiful scenery", "Interactive exhibits", "Helpful staff"], "dislike": []}
{"place_id": "12955259", "place_name": "단오타운전시관", "like": ["Small venue", "Intimate atmosphere"], "dislike": []}
{"place_id": "11535675", "place_name": "강릉문화원", "like": ["Friendly service", "Educational programs", "Engaging performances", "Family-friendly event", "Value for money"], "dislike": []}
{"place_id": "20107994", "place_name": "대관령박물관", "like": ["Beautiful surroundings", "Family-friendly", "Educational experience", "Traditional clothing", "Well-maintained facilities"], "dislike": []}
{"place_id": "12409858", "place_name": "참소리에디슨손성목영화박물관", "like": ["Educational experience", "Informative exhibits", "Knowledgeable guide", "Engaging exhibits", "Unique artifacts"], "dislike": ["Outdated facilities", "Poor arrangement"]}
{"place_id": "11780628", "place_name": "숲사랑홍보관", "like": [], "dislike": []}
{"place_id": "32794988", "place_name": "정동진시간박물관", "like": ["Family-friendly", "Educational exhibits", "Extensive collection", "Multimedia presentations", "Diverse exhibits"], "dislike": ["Limited space", "High admission fee", "Inaccessible pathways"]}
{"place_id": "19832807", "place_name": "강릉자수박물관", "like": ["Cultural insights", "Friendly staff", "Embroidery exhibits", "Family-friendly", "Interactive programs"], "dislike": ["Limited space"]}
{"place_id": "32268465", "place_name": "환희컵박물관", "like": ["Unique exhibits", "Informative tours", "Art exhibitions", "Interactive activities", "Quiet atmosphere"], "dislike": ["Malfunctioning equipment"]}
{"place_id": "21824426", "place_name": "강릉원주대학교 박물관", "like": ["Clean facilities", "Effective instruction", "Friendly service"], "dislike": []}
{"place_id": "13313746", "place_name": "강릉커피박물관", "like": ["Coffee quality", "Friendly service", "Relaxing atmosphere", "Scenic view", "Cultural exhibits"], "dislike": ["Restroom location", "Misleading attraction"]}
{"place_id": "12762639", "place_name": "강릉시립미술관 교동", "like": ["Art exhibition", "Family-friendly", "Scenic area", "Friendly service", "Cleanliness"], "dislike": []}
{"place_id": "15351692", "place_name": "매월당 김시습 기념관", "like": [], "dislike": []}
{"place_id": "33338520", "place_name": "김동명문학관", "like": [], "dislike": []}
{"place_id": "266717564", "place_name": "강릉자동차극장", "like": ["Quiet atmosphere", "Snack variety", "Friendly service", "Unique experience", "Drive-in theater"], "dislike": []}
{"place_id": "34818378", "place_name": "주문진해양박물관", "like": ["Souvenir shopping", "Educational exhibits", "Free admission", "Child-friendly", "Convenient parking"], "dislike": ["Outdated appearance", "Limited attractions"]}
{"place_id": "1357865119", "place_name": "고래책방", "like": ["Coffee and bakery", "Family-friendly", "Clean interior", "Spacious environment", "Variety of books"], "dislike": []}
{"place_id": "1090555407", "place_name": "아르떼뮤지엄 강릉", "like": ["Beautiful exhibits", "Immersive experience", "Diverse exhibitions", "Relaxing atmosphere", "Photography-friendly"], "dislike": ["Time-consuming", "Limited beverages", "Lack of restrooms"]}
{"place_id": "32777223", "place_name": "자연아놀자 체험학습박물관", "like": ["Animal interaction", "Engaging experiences", "Knowledgeable guides", "Family-friendly", "Well-maintained facilities"], "dislike": ["Limited space", "Separate fees", "Poor maintenance"]}
{"place_id": "1916991432", "place_name": "뮤지엄홀리데이", "like": [], "dislike": []}
{"place_id": "11592129", "place_name": "강릉교육문화관", "like": ["Spacious interior", "Well-equipped reading rooms"], "dislike": []}
{"place_id": "2062786512", "place_name": "강릉시립미술관 솔올", "like": ["Pleasant atmosphere", "Pomegranate ade"], "dislike": []}
{"place_id": "1211834959", "place_name": "강릉올림픽뮤지엄", "like": ["Interactive exhibits", "Educational content", "Olympic heritage", "Friendly staff", "Free admission"], "dislike": []}
{"place_id": "15374325", "place_name": "소금강 돌박물관", "like": [], "dislike": []}
{"place_id": "15704484", "place_name": "갈골한과체험전시관", "like": ["Traditional sweets", "Traditional snacks"], "dislike": []}
{"place_id": "13345873", "place_name": "강릉 중앙시장", "like": ["Affordable prices", "Variety of food", "Delicious specialties", "Abundant attractions", "Friendly service"], "dislike": ["Small portions"]}
{"place_id": "13345874", "place_name": "강릉 동부시장", "like": [], "dislike": ["Lack of attractions", "High cost"]}
{"place_id": "13345877", "place_name": "강릉 서부시장", "like": ["Value for money", "Cleanliness", "Spacious parking"], "dislike": ["Parking facilities"]}
