{"place_id": "37072842", "place_name": "옛날삼교리막국수", "like": ["Delicious food", "Refreshing noodles", "Tender meat", "Friendly service", "Affordable prices"], "dislike": ["Bibim taste", "Lack of spiciness"]}
{"place_id": "2047945388", "place_name": "삼교리옛날동치미막국수", "like": [], "dislike": []}
{"place_id": "1562186114", "place_name": "함지박", "like": [], "dislike": []}
{"place_id": "1133159525", "place_name": "강산푸드 정가미", "like": ["Taste", "Balanced sweetness", "Healthy bread"], "dislike": ["High price", "Deceptive presentation", "Small portion size", "Poor taste", "Limited variety"]}
{"place_id": "36541810", "place_name": "100년 소머리곰탕", "like": ["Delicious food", "High-quality ingredients", "Clean broth", "Friendly service", "Generous portions"], "dislike": []}
{"place_id": "1218080909", "place_name": "1300도씨짬뽕&떡볶이", "like": ["Delicious food", "Friendly service", "Generous portions", "Good value", "Spicy taste"], "dislike": ["Service quality"]}
{"place_id": "1945123119", "place_name": "13월의강릉 강릉본점", "like": ["Delicious food", "Clean facilities", "Variety of options", "Pet-friendly", "Good value"], "dislike": ["Expensive portions"]}
{"place_id": "1871280278", "place_name": "1974비래옥 강릉점", "like": ["Delicious food", "Unique dishes", "Generous portions", "Friendly service", "Reasonable pricing"], "dislike": []}
{"place_id": "1458958864", "place_name": "회포차1박2일", "like": ["Delicious food", "Friendly service", "Fresh seafood", "Great value", "Comfortable dining"], "dislike": []}
{"place_id": "15345030", "place_name": "24시기가막힌감자탕", "like": ["Delicious food", "Generous portions", "Friendly service", "Clean interior", "Variety of dishes"], "dislike": []}
{"place_id": "21733936", "place_name": "24시옥계장터국밥", "like": ["High-quality dishes", "Delicious food", "Rich flavor", "Friendly service", "Culinary skills"], "dislike": []}
{"place_id": "37638052", "place_name": "24시전주명가콩나물국밥 강릉점", "like": ["Delicious food", "Generous portions", "Affordable prices", "Quick service", "Friendly service"], "dislike": ["Poor service attitude"]}
{"place_id": "1096114647", "place_name": "24시전주콩향기콩나물국밥", "like": ["Family-friendly", "Delicious food", "Affordable prices", "Self-service options", "Spacious interior"], "dislike": ["Small portions", "Bland sauce", "Complicated parking"]}
{"place_id": "12909533", "place_name": "해녀직영횟집", "like": ["Fresh seafood", "Delicious broth", "Tasty side dishes", "Generous service", "Well-prepared food"], "dislike": ["Limited seafood variety", "Disappointing presentation", "Inadequate portions", "Unpleasant service", "Poor value"]}
{"place_id": "15351680", "place_name": "400년집초당순두부", "like": ["Traditional dishes", "Unique atmosphere", "Delicious flavors", "High-quality ingredients", "Quick service"], "dislike": ["Ordinary service", "Bland stew"]}
{"place_id": "1805805554", "place_name": "오구피자 주문진점", "like": ["Unique crust", "Delicious taste"], "dislike": []}
{"place_id": "1345031898", "place_name": "87닭강정 주문진점", "like": ["Delicious food", "Generous portions", "Fast service", "Friendly service", "Variety of flavors"], "dislike": ["Extra charge"]}
{"place_id": "1443724267", "place_name": "가곡막국수", "like": ["Delicious food", "Generous portions", "Refreshing taste", "Traditional atmosphere", "Clean flavor"], "dislike": ["Fishy taste", "Extra charge"]}
{"place_id": "1083519778", "place_name": "가누", "like": ["Delicious food", "Fresh ingredients", "Friendly service", "Authentic cuisine", "Cleanliness"], "dislike": ["Small portions", "Insufficient quantity"]}
{"place_id": "19729238", "place_name": "가람집옹심이", "like": ["Delicious food", "Generous portions", "Affordable prices", "Crispy texture", "Clean environment"], "dislike": []}
{"place_id": "1247735849", "place_name": "가마솥강릉설렁탕", "like": ["Delicious food", "Generous portions", "Flavorful seasoning", "Friendly service", "High-quality ingredients"], "dislike": ["Overpriced", "Ordinary food", "Limited side dishes"]}
{"place_id": "19567854", "place_name": "가마솥묵은지생삼겹", "like": [], "dislike": []}
{"place_id": "1874772103", "place_name": "가마솥순대국밥 강릉교동점", "like": ["Diverse menu", "Flavorful dishes", "Generous portions", "Friendly service", "Clean environment"], "dislike": []}
{"place_id": "20665635", "place_name": "가마솥쌈밥", "like": ["Delicious food", "Good side dishes", "Generous portions", "Good value", "Fresh fish"], "dislike": ["Portion size", "Dirty container", "Rice texture"]}
{"place_id": "1874304021", "place_name": "가마솥흑염소", "like": ["Delicious food", "Cleanliness", "Pleasant atmosphere", "Friendly service"], "dislike": []}
{"place_id": "15332519", "place_name": "가보래손칼국수", "like": ["Delicious food", "Handmade noodles", "Generous portion", "Memorable taste", "Thoughtful service"], "dislike": ["Portion size", "Uncomfortable temperature"]}
{"place_id": "37370900", "place_name": "가보자땡초족발보쌈 강릉점", "like": ["Delicious food", "Cleanliness", "Friendly service", "Fresh ingredients", "Good value"], "dislike": []}
{"place_id": "1330726128", "place_name": "가시버시", "like": ["Tasty food", "Generous portions", "Friendly service", "Clean atmosphere"], "dislike": []}
{"place_id": "1525748684", "place_name": "가자골식당", "like": ["Affordable prices", "Friendly service", "Generous portions", "Delicious taste"], "dislike": []}
{"place_id": "11578368", "place_name": "가작다리 가든", "like": ["Healthy food", "Delicious taste"], "dislike": ["Low food quality"]}
{"place_id": "37552291", "place_name": "족과의동침 강릉점", "like": ["Tasty food", "Friendly service", "Group gatherings"], "dislike": ["Poor food quality"]}
{"place_id": "1100806567", "place_name": "감동육개장", "like": ["Delicious food", "Generous portions", "Clean environment", "Flavorful dishes", "Friendly service"], "dislike": []}
{"place_id": "15299914", "place_name": "감자바우 장칼국수", "like": ["Good value", "Delicious food", "Variety of options", "Fast service", "Rich flavor"], "dislike": ["Bland taste", "Long wait", "Ordering errors", "Mixed preferences"]}
{"place_id": "1811956729", "place_name": "감자유원지", "like": ["Delicious food", "Unique flavors", "Quick service", "Cozy atmosphere", "Good value"], "dislike": ["High price", "Long wait", "Limited menu"]}
{"place_id": "15349260", "place_name": "감자적본부", "like": ["Delicious food", "Attentive staff", "Variety of dishes", "Pleasant atmosphere", "Quick service"], "dislike": ["Long wait time", "Unimpressive dish"]}
{"place_id": "11859569", "place_name": "감천골", "like": ["Friendly service", "Delicious food", "Generous portions", "Complimentary tea", "Healthy options"], "dislike": []}
{"place_id": "15304106", "place_name": "감초식당", "like": [], "dislike": []}
{"place_id": "15362879", "place_name": "감칠맛회국수", "like": ["Delicious food", "High-quality seasoning", "Friendly service", "Generous portions", "Fresh ingredients"], "dislike": []}
{"place_id": "1371192904", "place_name": "갑진정식", "like": ["Affordable prices", "Delicious food", "Clean environment", "Friendly service", "Variety of side dishes"], "dislike": ["Expensive fish", "Cramped space", "Inaccessible for strollers", "Fish odor", "Poor value"]}
{"place_id": "34793040", "place_name": "강남촌닭", "like": [], "dislike": []}
{"place_id": "32380505", "place_name": "강남칼국수", "like": ["Delicious food", "Authentic taste", "Affordable prices", "Balanced spiciness", "Chewy texture"], "dislike": ["Mediocre taste"]}
{"place_id": "1434030213", "place_name": "강남흑염소전문점", "like": ["Delicious food", "Generous portions", "Affordable prices", "Clean facilities", "Friendly staff"], "dislike": []}
{"place_id": "37360894", "place_name": "강릉 본가족발", "like": ["Traditional dish", "Thoughtful service", "Delicious food", "Quick service"], "dislike": ["Average side dish"]}
{"place_id": "1710211402", "place_name": "강릉79막회", "like": ["Fresh seafood", "Delicious food", "Attentive staff", "Good value", "Friendly service"], "dislike": []}
{"place_id": "19901360", "place_name": "강릉진국가마솥설렁탕", "like": ["Traditional cooking", "Tasty dishes", "Satisfying meals", "Rich broth", "Authentic experience"], "dislike": []}
{"place_id": "15387289", "place_name": "가마솥인삼곰탕집", "like": ["Delicious taste", "Friendly service", "Generous portions", "Affordable prices", "Rich broth"], "dislike": []}
{"place_id": "1818364829", "place_name": "강릉가마솥설렁탕 1호점", "like": ["Delicious broth", "Tasty side dishes", "Friendly service", "Generous portions", "Good takeout quality"], "dislike": ["High prices", "Small portions"]}
{"place_id": "1961675235", "place_name": "곱창미지수", "like": ["Delicious food", "Generous portions", "High-quality ingredients", "Friendly service", "Unique flavor"], "dislike": []}
{"place_id": "15297087", "place_name": "곱창집", "like": ["Good value", "Tasty food", "Generous portions", "Authentic taste", "Accommodating service"], "dislike": ["Tough texture", "Limited menu", "Lack of sides"]}
{"place_id": "1453215530", "place_name": "조부자매운순대가 강릉점", "like": ["Delicious food", "Spicy soup", "Generous portions", "Friendly service", "Reasonable prices"], "dislike": []}
{"place_id": "1261902989", "place_name": "달구지막창 강릉1호점", "like": ["No odor", "Delicious food", "Lively atmosphere", "Generous portions", "Friendly service"], "dislike": []}
{"place_id": "12042486", "place_name": "밤마차 교동점", "like": ["Delicious food", "Unique experience", "Complements alcohol", "Flavorful broth", "Well-stuffed gopchang"], "dislike": ["Unfriendly service", "Bland noodles", "Stale kimchi", "Insufficient portions", "Poor quality"]}
{"place_id": "2089326220", "place_name": "병천청년순대국 강릉점", "like": [], "dislike": []}
{"place_id": "36508533", "place_name": "막창공장", "like": ["Delicious food", "Good value", "Friendly service", "Generous portions", "Cleanliness"], "dislike": ["Limited seating"]}
{"place_id": "12926106", "place_name": "병천황토방순대 교동점", "like": ["Tasty food", "Fresh ingredients", "Unique offering", "Consistent taste", "Satisfying portions"], "dislike": ["Over-fermented kimchi"]}
{"place_id": "1070243890", "place_name": "무단외박", "like": ["Delicious food", "Friendly service", "High-quality sashimi"], "dislike": []}
{"place_id": "2075106875", "place_name": "케이양한우곱창", "like": ["Clean environment", "Well-prepared dishes", "Generous portions", "Delicious food"], "dislike": []}
{"place_id": "1448847214", "place_name": "부산부산물센터", "like": ["Friendly service", "Delicious food"], "dislike": []}
{"place_id": "31424723", "place_name": "명곱창", "like": [], "dislike": []}
{"place_id": "1476032545", "place_name": "송은닭내장", "like": ["Delicious food", "Pleasant aroma", "Unique flavor", "Clean presentation", "Rich ingredients"], "dislike": ["Limited menu", "Lack of broth"]}
{"place_id": "12013574", "place_name": "홍돼지국밥 본점", "like": ["Delicious food", "Generous portions", "Rich broth", "Quick service", "Friendly service"], "dislike": ["High price", "Bland broth", "Fatty meat"]}
{"place_id": "1429179004", "place_name": "현대옥 강릉역점", "like": ["Delicious food", "Generous portions", "Clean environment", "Friendly service", "Traditional flavors"], "dislike": []}
{"place_id": "20099799", "place_name": "강릉현대장칼국수 본점", "like": ["Delicious food", "Spicy flavor", "Rich broth", "Quick service", "Tasty side dish"], "dislike": ["Cold dumplings", "Hard dumpling skin", "Strong broth smell"]}
{"place_id": "1065842255", "place_name": "강릉전복영양솥밥화덕생선구이", "like": ["Delicious food", "Friendly service", "Variety of side dishes", "Generous portions", "Fresh ingredients"], "dislike": ["Poor service", "Small portions", "Unresponsive staff", "Inadequate side dishes", "Missing food items"]}
{"place_id": "1190849182", "place_name": "능나도회냉면", "like": ["Tasty food", "Generous portions", "Spacious interior", "Friendly service", "Good value"], "dislike": ["Limited menu options"]}
{"place_id": "37927755", "place_name": "강릉꼬막비빔밥 풍호맛뜨락", "like": ["Delicious food", "Generous portions", "Child-friendly", "Spacious environment", "Good value"], "dislike": ["Limited menu options", "Discontinued item"]}
{"place_id": "1606537999", "place_name": "강릉꼬막집 독도네 본점", "like": ["Delicious food", "Fresh ingredients", "Attentive service", "Generous portions", "Variety of dishes"], "dislike": ["Small space"]}
{"place_id": "1615813973", "place_name": "꼬막포차", "like": ["Delicious food", "Friendly service", "Generous portions", "Authentic experience", "Good value"], "dislike": []}
{"place_id": "1839279712", "place_name": "강릉꽈배기&핫도그", "like": [], "dislike": ["Unprepared service"]}
{"place_id": "1972829280", "place_name": "근덕이삼척꽈배기 강릉입암점", "like": ["Addictive flavor", "Freshness", "Delicious food", "Friendly service", "Quick service"], "dislike": []}
{"place_id": "1574640686", "place_name": "쉐프윤찹쌀고로케 강릉점", "like": ["Recommended dishes", "Flavorful food", "Delicious food"], "dislike": []}
{"place_id": "1366693741", "place_name": "오늘도꽈배기", "like": [], "dislike": []}
{"place_id": "1557591875", "place_name": "부산조방낙지", "like": ["Delicious food", "Generous portions", "Fresh ingredients", "Friendly service", "Spicy aroma"], "dislike": []}
{"place_id": "1564940324", "place_name": "낙곱새녀석들주문진점", "like": [], "dislike": []}
{"place_id": "1981103755", "place_name": "정성집 곱도리탕 낙곱새 강릉점", "like": ["Fresh ingredients"], "dislike": []}
{"place_id": "15376107", "place_name": "강릉남매삼계탕", "like": ["Delicious food", "Generous portions", "Clean environment", "Tender meat", "Friendly service"], "dislike": ["Small parking"]}
{"place_id": "631054551", "place_name": "강릉 낭만게장&백숙", "like": ["Delicious food", "High-quality ingredients", "Friendly service", "Generous portions", "Good value"], "dislike": ["High price", "Limited menu", "Rice texture"]}
{"place_id": "1531992135", "place_name": "강릉닭갈비", "like": ["Delicious taste", "Friendly service", "Variety of menu", "Generous portions", "Fresh ingredients"], "dislike": ["Poor ventilation"]}
{"place_id": "1604871899", "place_name": "계륵장군 유천점", "like": ["Delicious food", "Generous portions", "Friendly service", "Cleanliness", "Authentic taste"], "dislike": ["Order mistakes", "Unfriendly staff", "Slow service"]}
{"place_id": "15378004", "place_name": "관동닭갈비", "like": ["Delicious seasoning", "Variety of dishes", "Affordable prices", "Friendly service", "Signature dish"], "dislike": []}
{"place_id": "15380143", "place_name": "춘천택지닭갈비", "like": ["Delicious food", "Pleasant interior", "Friendly service", "Fresh ingredients", "Clean environment"], "dislike": []}
{"place_id": "1977006302", "place_name": "강릉닭개장", "like": ["Diverse menu", "Delicious food", "Friendly service", "Tasty chicken soup", "Excellent pork belly"], "dislike": []}
{"place_id": "1798114957", "place_name": "강릉대관령감자옹심이", "like": ["Delicious food", "Unique dumplings", "Comfortable dining", "Friendly service", "High-quality ingredients"], "dislike": ["Bland taste", "Slow service", "Small portions"]}
{"place_id": "1574971436", "place_name": "강릉댁 아구찜", "like": ["Delicious food", "Generous portions", "Clean environment", "Friendly service", "Fresh ingredients"], "dislike": ["Limited availability", "Spicy food"]}
{"place_id": "37933178", "place_name": "도야족발 강릉교동점", "like": ["Delicious flavor", "Quick service", "Convenient delivery", "Quality food", "Packaging discount"], "dislike": ["Average taste", "Lukewarm temperature", "Seating arrangement"]}
{"place_id": "1138422210", "place_name": "도야족발 주문진점", "like": ["Delicious food", "Generous portions", "Quality side dishes", "Quick service", "Distinctive flavor"], "dislike": ["Unfriendly service", "Small portions", "Unpleasant odor"]}
{"place_id": "1052597089", "place_name": "도야족발 포남점", "like": ["Delicious food", "Spicy taste", "Generous portions", "Friendly service", "Flavorful taste"], "dislike": ["Salty food"]}
{"place_id": "1169873489", "place_name": "강릉두부마을", "like": ["Delicious food", "Tofu dishes", "Healthy options", "Clean facilities", "Friendly service"], "dislike": []}
{"place_id": "12031474", "place_name": "농촌순두부", "like": ["Delicious food", "Generous portions", "Rich broth", "Fresh ingredients", "Friendly service"], "dislike": []}
{"place_id": "35664675", "place_name": "진영두부마을", "like": ["Delicious food", "Friendly service", "Generous portions", "Good value", "Clean facilities"], "dislike": []}
{"place_id": "2015959379", "place_name": "구정순두부마을", "like": ["Delicious food", "Soft tofu", "Friendly service", "Nutritious meal", "Flavorful broth"], "dislike": []}
{"place_id": "36660889", "place_name": "강릉본가뒷고기", "like": ["Delicious kimchi stew", "Fresh meat", "Generous portions", "Friendly service", "Complimentary side dish"], "dislike": []}
{"place_id": "21679370", "place_name": "마포주먹고기", "like": ["Delicious food", "Friendly service", "Unique dishes", "Fresh ingredients", "Spacious and comfortable"], "dislike": []}
{"place_id": "1236919265", "place_name": "고깃집", "like": ["Delicious food", "Generous portions", "Family-friendly atmosphere", "Local cuisine", "Clean environment"], "dislike": []}
{"place_id": "1920437123", "place_name": "그고깃집", "like": ["Delicious food", "Variety of options", "Affordable prices", "Clean facilities", "Friendly service"], "dislike": []}
{"place_id": "1824668746", "place_name": "초당꼬마김밥 강릉점", "like": ["Delicious food", "Excellent packaging", "Generous portions", "Unique flavors", "Family-friendly"], "dislike": []}
{"place_id": "1358347533", "place_name": "솔담편백찜 강릉교동점", "like": ["Variety of options", "Generous portions", "Fresh ingredients", "Spacious environment", "Friendly service"], "dislike": ["Cold dishes", "Repetitive music"]}
{"place_id": "1836613079", "place_name": "금화왕돈까스 강릉교동점", "like": ["Delicious food", "Generous portions", "Complimentary items", "Friendly service", "Clean atmosphere"], "dislike": ["Thin meat"]}
{"place_id": "38017562", "place_name": "얌샘김밥 강릉교동점", "like": ["Diverse menu", "Flavorful sauce", "Delicious food", "Cleanliness", "Friendly service"], "dislike": ["Portion size", "Stale food", "Ingredient distribution", "Lack of seasoning", "Price"]}
{"place_id": "37668482", "place_name": "고봉민김밥인 강릉문화의거리점", "like": ["Delicious food", "Cleanliness", "Aesthetic decor", "Generous portions", "Quick service"], "dislike": ["Incomplete order"]}
{"place_id": "1584886451", "place_name": "BHC치킨 성덕점", "like": ["Delicious food", "Quick service", "High-quality ingredients"], "dislike": []}
{"place_id": "801470123", "place_name": "바른치킨 강릉단오점", "like": ["Delicious food", "Cleanliness", "Friendly service", "Outdoor seating", "Nutty flavor"], "dislike": []}
{"place_id": "31267215", "place_name": "강릉뚝배기", "like": ["Spacious", "Delicious food", "Affordable", "Generous portions", "Comforting experience"], "dislike": ["Thin meat slices", "Poor value", "Salty soup", "Small portions"]}
{"place_id": "1463670736", "place_name": "옥이네 푸줏간", "like": ["Delicious food", "Generous portions", "Friendly service", "High-quality meat", "Excellent dining experience"], "dislike": []}
{"place_id": "1025642664", "place_name": "팔도전복해물뚝배기", "like": ["Delicious food", "Fresh seafood", "Friendly service", "Flavorful broth", "Generous portions"], "dislike": ["Mediocre noodles"]}
{"place_id": "33133830", "place_name": "초당고부순두부", "like": ["Clean environment", "Delicious food", "Traditional atmosphere", "Friendly service", "Convenient refills"], "dislike": ["Poor service", "Rigid policy", "Mediocre quality", "Unpleasant atmosphere"]}
{"place_id": "1671949806", "place_name": "회산칼국수", "like": ["Fresh seafood", "Tasty side dishes", "Flavorful noodles", "Friendly service", "Healthy taste"], "dislike": ["Limited seafood"]}
{"place_id": "1681518999", "place_name": "초당순두부당", "like": ["Delicious food", "Clean interior", "Friendly service", "Tasty side dishes", "Good value"], "dislike": []}
{"place_id": "15369449", "place_name": "옥계뚝배기", "like": [], "dislike": []}
{"place_id": "21749233", "place_name": "뚝배기실내마차", "like": [], "dislike": []}
{"place_id": "1811935710", "place_name": "뚝배기양평해장국 포남점", "like": ["Variety of dishes", "Spicy broth", "Healthy options", "Hangover relief", "Clean environment"], "dislike": []}
{"place_id": "36543472", "place_name": "강릉한우만", "like": ["Delicious food", "Tender meat", "Complimentary dishes", "High-quality beef", "Good value"], "dislike": []}
{"place_id": "2031941952", "place_name": "초우당막국수", "like": ["Delicious food", "Flavorful sauces", "Pleasant atmosphere", "Unique menu", "Friendly service"], "dislike": ["Slightly salty", "Personal preference"]}
{"place_id": "2079856053", "place_name": "라면먹고갈래 관동별곡", "like": ["Delicious food", "Cozy atmosphere", "Generous portions", "Friendly service", "Unique concept"], "dislike": ["Limited seafood availability"]}
{"place_id": "2063354876", "place_name": "강릉한정식강릉밥상 오죽헌본점", "like": ["Delicious food", "Excellent service", "Spacious environment", "Fresh ingredients", "Reasonable pricing"], "dislike": ["Poor service", "Unsatisfactory quality", "Poor value"]}
{"place_id": "2099491822", "place_name": "강릉감자닭강정", "like": ["Delicious food", "Generous portions", "Unique presentation", "Spicy seasoning", "Good value"], "dislike": ["Overly sweet"]}
{"place_id": "2041883893", "place_name": "아라시", "like": ["Delicious food", "Thoughtful service", "Pleasant atmosphere", "Quality ingredients", "Variety of options"], "dislike": ["Thin sushi rolls"]}
{"place_id": "2041829875", "place_name": "유천가든 강릉직영점", "like": ["Family-friendly", "Delicious food", "Clean environment", "Scenic view", "Spacious interior"], "dislike": ["Small portions", "Salad bar maintenance"]}
{"place_id": "1495644418", "place_name": "다이닝원 강릉점", "like": ["Delicious food", "Varied menu", "Pleasant atmosphere", "Attentive service", "Good value"], "dislike": ["Lack of service", "Slow clearing", "Slow replenishment"]}
{"place_id": "2018462147", "place_name": "가온", "like": ["Delicious food", "Generous portions", "Clean environment", "Pet-friendly", "Quick service"], "dislike": ["Disposable dishes"]}
{"place_id": "2098103072", "place_name": "만야수산 경포대본점", "like": ["Delicious food", "Exceptional atmosphere", "Generous portions", "Excellent service", "Cleanliness"], "dislike": []}
{"place_id": "1953548649", "place_name": "샤브올데이 강릉송정점", "like": ["Variety of options", "Unlimited refills", "Family-friendly atmosphere", "Quality ingredients", "Attentive service"], "dislike": []}
{"place_id": "1822153122", "place_name": "육고집 강릉점", "like": ["Delicious food", "Variety of dishes", "Friendly service", "Good value", "Comfortable environment"], "dislike": ["Incomplete service"]}
{"place_id": "1294147426", "place_name": "비빔상회 강릉본점", "like": ["Delicious food", "Generous portions", "Friendly service", "Clean atmosphere", "Family-friendly"], "dislike": []}
{"place_id": "66343890", "place_name": "강릉빵다방", "like": ["Delicious food", "Friendly service", "Variety of bread", "Comfortable space", "High-quality bread"], "dislike": ["Long wait", "Unavailable items", "Slow service"]}
{"place_id": "13495154", "place_name": "갤러리밥스", "like": ["Delicious food", "Popular atmosphere", "Rich coffee", "Quick service", "Ample seating"], "dislike": ["Crowded environment", "Small portions"]}
{"place_id": "1990844214", "place_name": "강릉고깃집 금돈", "like": ["Delicious food", "Friendly service", "Spacious environment", "High-quality meat", "Convenient reservation"], "dislike": ["Limited group seating"]}
{"place_id": "1273271246", "place_name": "평탄", "like": ["Delicious food", "Relaxing atmosphere", "Attentive service", "Unique drinks", "Healthy options"], "dislike": ["Limited seating"]}
{"place_id": "37093035", "place_name": "보사노바 커피로스터스 강릉점", "like": ["Reasonable price", "Scenic view", "Comfortable interior", "Delicious coffee", "Pet-friendly"], "dislike": ["Unfriendly service", "Limited seating", "Crowded seating"]}
{"place_id": "1693762102", "place_name": "서울양계", "like": ["Delicious flavor", "Generous portions", "High-quality ingredients", "Quick preparation", "Friendly staff"], "dislike": ["Hard texture", "Lack of spiciness", "Overly sweet"]}
{"place_id": "1085464055", "place_name": "강릉길감자", "like": ["Unique taste", "Delicious food", "Generous portions", "Friendly staff", "Quick service"], "dislike": ["Inconsistent sauces", "Lack of crispiness", "Long wait time", "Limited seating", "Greasy food"]}
{"place_id": "1571449721", "place_name": "쵸딩 초당옥수수 푸딩 카페 강릉본점", "like": ["Delicious desserts", "Unique flavors", "Pleasant atmosphere", "Attractive presentation", "Friendly staff"], "dislike": ["Limited seating", "Waiting time"]}
{"place_id": "15311333", "place_name": "강릉맛드린 순두부해장국&감자탕", "like": ["Diverse menu", "Delicious food", "Friendly service", "Spacious environment", "Family-friendly"], "dislike": []}
{"place_id": "1804546960", "place_name": "강문가", "like": ["Family-friendly", "Generous portions", "Affordable prices", "Fresh seafood", "Excellent service"], "dislike": []}
{"place_id": "1949567929", "place_name": "화니조개구이", "like": ["Fresh seafood", "Pleasant atmosphere", "Customizable menu", "Scenic view", "Friendly service"], "dislike": []}
{"place_id": "1660045304", "place_name": "최씨장칼국수", "like": ["Delicious food", "Authentic taste", "Accommodating service", "Unique menu", "Good value"], "dislike": ["Minimum order", "Disposable items"]}
{"place_id": "1488381938", "place_name": "강릉 교동식당", "like": ["Tasty food", "Variety of dishes", "Friendly service", "Generous portions", "Clean facilities"], "dislike": ["None", "Presentation"]}
{"place_id": "1921017060", "place_name": "강릉명가", "like": ["Delicious food", "Generous portions", "Friendly service", "Pleasant atmosphere", "Nutritious meals"], "dislike": ["Complicated review process"]}
{"place_id": "1269352444", "place_name": "김사부의곱창명가 강릉점", "like": [], "dislike": []}
{"place_id": "1942798567", "place_name": "명가", "like": [], "dislike": []}
{"place_id": "1405926737", "place_name": "강릉모카번", "like": ["Delicious food", "Good coffee", "Friendly service", "Generous portions", "Pleasant aroma"], "dislike": []}
{"place_id": "1410167686", "place_name": "강릉밥선생", "like": ["Tasty food", "Flavorful sauces", "Friendly service", "Fresh ingredients", "Portion size"], "dislike": ["Insufficient meat", "Limited side dishes", "Average taste", "Price issues"]}
{"place_id": "1918745786", "place_name": "집밥이선생", "like": ["Delicious food", "Generous portions", "Unique menu", "Tasty side dishes", "Extended hours"], "dislike": []}
{"place_id": "1075857630", "place_name": "연자네보리밥", "like": ["Delicious food", "Value for money", "Friendly service", "Generous portions", "Authentic flavors"], "dislike": []}
{"place_id": "15373850", "place_name": "연곡보리밥집", "like": ["Delicious food", "Traditional atmosphere", "Clean presentation", "Friendly service", "Rich flavors"], "dislike": []}
{"place_id": "15302428", "place_name": "사계절쌈밥보리밥", "like": ["Delicious food", "Generous portions", "Tasty barley rice", "Excellent side dishes", "Consistent quality"], "dislike": ["High price", "Limited ingredients"]}
{"place_id": "1017579805", "place_name": "한송정애한끼", "like": ["Seaweed dish", "Corn dish"], "dislike": []}
{"place_id": "2064114365", "place_name": "자래유보리밥", "like": [], "dislike": []}
{"place_id": "1048928439", "place_name": "강릉본가막국수", "like": ["Delicious food", "Diverse menu", "Friendly service", "Spacious interior", "Quality ingredients"], "dislike": ["Store-bought dumplings"]}
{"place_id": "1190316988", "place_name": "은화식당", "like": ["Delicious food", "Friendly service", "Clean environment", "Family-friendly", "Affordable prices"], "dislike": []}
{"place_id": "37917721", "place_name": "장군시오야끼 교동직영점", "like": ["Delicious food", "Generous portions", "Customizable service", "Tasty fried rice", "Unique dishes"], "dislike": ["Salty seasoning"]}
{"place_id": "36266633", "place_name": "강릉불향쭈꾸미", "like": ["Delicious food", "Generous portions", "Friendly service", "Tasty side dishes", "Satisfying experience"], "dislike": ["High price", "Increasing prices"]}
{"place_id": "1651613690", "place_name": "강릉사임당술빵", "like": ["Delicious food", "Rich flavor", "Freshly made", "Large portions", "Convenient ordering"], "dislike": ["Not freshly made"]}
{"place_id": "38001155", "place_name": "강릉새우", "like": ["Delicious food", "Generous portions", "Fresh ingredients", "Quick service", "Friendly service"], "dislike": ["Limited seating", "Long wait time", "Insufficient staff"]}
{"place_id": "11824654", "place_name": "롯데리아강릉교동점", "like": ["Delicious food", "Cleanliness", "Friendly service", "Spacious interior"], "dislike": []}
{"place_id": "11824656", "place_name": "롯데리아 강릉터미날점", "like": ["Solo dining", "Delicious food", "Shrimp burger", "Generous portions", "Fresh potatoes"], "dislike": ["Additional costs", "Unclean facilities", "Missing condiments"]}
{"place_id": "1347619457", "place_name": "송정불향쭈꾸미", "like": ["Delicious food", "Convenient location", "Pleasant atmosphere", "Quick service", "Friendly service"], "dislike": []}
{"place_id": "1594288352", "place_name": "현아네식당", "like": ["Delicious food", "Quality seafood", "Fresh ingredients", "Variety of dishes", "Good service"], "dislike": ["Poor service", "Overcharging"]}
{"place_id": "1397232337", "place_name": "노미타이칸지", "like": ["Tasty food", "Friendly service", "Enjoyable experience"], "dislike": []}
{"place_id": "1005162827", "place_name": "피셔맨웍스", "like": ["Delicious food", "Pleasant interior", "Unique decor", "Tasty burgers", "Enjoyable music"], "dislike": []}
{"place_id": "1772252227", "place_name": "쯩라이", "like": ["Delicious food", "Enjoyable atmosphere", "Quick service", "Variety of dishes", "Reasonable prices"], "dislike": ["Salty dish", "Greasy texture", "Small portions"]}
{"place_id": "1862735111", "place_name": "차차동", "like": ["Delicious food", "Generous portions", "Authentic atmosphere", "Friendly service", "Diverse menu"], "dislike": ["Limited menu", "Fish freshness", "Small portions"]}
{"place_id": "1120563558", "place_name": "태하푸드", "like": [], "dislike": []}
{"place_id": "1904814124", "place_name": "오복수산", "like": ["Delicious taste", "Fresh ingredients", "Friendly service", "Generous portions", "Good value"], "dislike": ["High price"]}
{"place_id": "19782934", "place_name": "회빈장", "like": ["Delicious food", "Variety of dishes", "Good service", "Fresh ingredients", "Value for money"], "dislike": ["Average dishes", "Hygiene issues", "Limited menu"]}
{"place_id": "1252855803", "place_name": "거평 패밀리", "like": ["Delicious food", "Friendly service", "Affordable prices", "Freshness"], "dislike": ["Small portions"]}
{"place_id": "1896195486", "place_name": "강릉순두부장칼국수", "like": ["Spicy flavor", "Delicious food", "Convenient location", "Generous portions", "Efficient service"], "dislike": ["Inconsistent service", "Poor waiting system"]}
{"place_id": "1087147744", "place_name": "강문칼국수", "like": ["Flavorful dishes", "Generous portions", "Crispy pancakes", "Child-friendly menu", "Spicy broth"], "dislike": ["Thick pancake", "Forced purchase", "Difficult noodles"]}
{"place_id": "37691425", "place_name": "송여사 숯불 왕꼼장어 강릉본점", "like": ["Fresh seafood", "Cozy atmosphere", "Delicious food", "Friendly service", "Generous portions"], "dislike": ["Poor hygiene", "Unpleasant taste", "Overcooked food", "Untrained staff", "Poor food quality"]}
{"place_id": "1955612988", "place_name": "팔당참숯민물장어", "like": ["Delicious food", "Quality seafood", "Friendly service", "Generous portions", "Family-friendly"], "dislike": []}
{"place_id": "1635365791", "place_name": "팔도숯불조개구이", "like": ["Variety of seafood", "Live entertainment", "Delicious food"], "dislike": ["Overpriced", "Bland taste", "Poor food quality", "Unpleasant service", "Chaotic atmosphere"]}
{"place_id": "1993722803", "place_name": "강릉시니어클럽 한송정밥상", "like": ["Affordable pricing", "Tasty food", "Generous portions", "Convenient location", "Pleasant environment"], "dislike": ["Salty sauce", "Small portions"]}
{"place_id": "1815684142", "place_name": "실비생선구이 본점 큰집", "like": ["Delicious grilled fish", "Generous portions", "Unique side dishes", "Friendly service", "Pleasant atmosphere"], "dislike": ["Expensive pricing", "Limited fish variety", "Cold food", "Poor value", "Ordinary atmosphere"]}
{"place_id": "32038666", "place_name": "황소실비", "like": ["Delicious food", "High-quality meat", "Generous portions", "Friendly service", "Clean environment"], "dislike": []}
{"place_id": "1748594252", "place_name": "팔도실비집 강릉교동점", "like": ["Good value", "Delicious food"], "dislike": ["Unclean environment", "Limited refill"]}
{"place_id": "1740512409", "place_name": "장수루양꼬치 강릉점", "like": ["Delicious food", "Authentic flavors", "Good value", "Efficient service", "Variety of dishes"], "dislike": ["Unfriendly service", "Slow cooking", "Poor cleanliness", "Spicy food"]}
{"place_id": "1266569658", "place_name": "중국미도", "like": ["Flavorful dishes", "Diverse menu", "Delicious food", "Good lamb skewers", "Affordable prices"], "dislike": ["Lack of bold flavors"]}
{"place_id": "1841743441", "place_name": "대관령양꼬치", "like": ["Authentic vibe", "Tasty meat", "Delicious food", "Friendly service", "Spacious for groups"], "dislike": []}
{"place_id": "2140078078", "place_name": "진미양꼬치 본점", "like": ["Affordable pricing", "Pleasant atmosphere", "Delicious food"], "dislike": []}
{"place_id": "1093428366", "place_name": "연길양꼬치", "like": ["Delicious food", "Friendly service", "Generous portions", "Clean facilities", "Unique flavors"], "dislike": ["Price increase"]}
{"place_id": "1354186603", "place_name": "청도양꼬치", "like": ["Tasty food", "Generous portions", "Friendly service", "Family-friendly", "Comfortable atmosphere"], "dislike": ["Small portions"]}
{"place_id": "2011642336", "place_name": "육꿉당", "like": ["Delicious food", "Tasty side dishes", "Generous portions", "Friendly service", "Refreshing atmosphere"], "dislike": []}
{"place_id": "38336581", "place_name": "칭따오양꼬치", "like": [], "dislike": []}
{"place_id": "15305467", "place_name": "엄지네포장마차 본점", "like": ["Delicious food", "Fresh ingredients", "Generous portions", "Quick service", "Professional service"], "dislike": ["Long wait time", "Strong sweetness"]}
{"place_id": "1175205136", "place_name": "강릉엄지네꼬막집 1호점", "like": ["Delicious food", "Generous portions", "Authentic flavor", "Diverse menu", "Quick service"], "dislike": ["Salty food", "Uncomfortable facilities"]}
{"place_id": "1948103019", "place_name": "강릉엄지네꼬막집 2호점", "like": ["Delicious food", "Generous portions", "Friendly service", "Fresh ingredients", "Quick seating"], "dislike": ["High prices", "Limited side dishes"]}
{"place_id": "1929924200", "place_name": "강릉역옹막 안목점", "like": ["Delicious food", "Friendly service", "Diverse menu", "Clean atmosphere", "Spacious parking"], "dislike": ["Unfamiliar texture", "Mediocre dumplings", "Small portions", "Pre-packaged rice"]}
{"place_id": "1337206643", "place_name": "강릉염전조개구이", "like": ["Delicious food", "Excellent service", "Fresh seafood", "Great value", "Unlimited cheese"], "dislike": ["Uncomfortable temperature"]}
{"place_id": "1190765060", "place_name": "강릉오겹살", "like": ["Fresh meat", "Delicious food", "Efficient service", "Generous portions", "Unlimited refills"], "dislike": ["Slow service"]}
{"place_id": "1298661690", "place_name": "가브리살", "like": ["Delicious food", "High-quality meat", "Excellent service", "Good value", "Enjoyable side dishes"], "dislike": ["Crowded space", "Limited seating"]}
{"place_id": "35650206", "place_name": "옥천오겹살", "like": ["Delicious food", "Generous portions", "Quality side dishes", "Exceptional kimchi", "Reasonable price"], "dislike": ["Lack of cleanliness", "Limited menu options"]}
{"place_id": "1318550746", "place_name": "돈주세요", "like": ["Delicious food", "Exceptional quality", "Friendly service", "Generous portions", "Affordable prices"], "dislike": []}
{"place_id": "2004254337", "place_name": "갓포 츠키요와 신라모노그램 강릉", "like": ["Delicious food", "Friendly service", "Clean facilities", "Comfortable dining", "Good value"], "dislike": ["Unseasoned eel"]}
{"place_id": "1333300547", "place_name": "강릉옥", "like": ["Delicious food", "Traditional atmosphere", "Friendly service", "Cleanliness", "High-quality meat"], "dislike": []}
{"place_id": "1043586683", "place_name": "내촌옥", "like": ["Delicious food", "Clean facilities", "Fresh ingredients", "Friendly service", "Good value"], "dislike": []}
{"place_id": "32039116", "place_name": "우래옥", "like": [], "dislike": []}
{"place_id": "1712038558", "place_name": "옥시기농장", "like": ["Delicious food", "Clean space", "Pleasant atmosphere", "Unique design", "Friendly service"], "dislike": ["Average taste", "Long wait time"]}
{"place_id": "1049679070", "place_name": "옥거리마을관리사회적협동조합", "like": ["Delicious beverages", "Friendly service"], "dislike": []}
{"place_id": "1419683252", "place_name": "강릉역 옹막", "like": ["Delicious food", "Friendly service", "Clean facilities", "Quick service", "Scenic seating"], "dislike": ["Limited seating choice", "Spicy for some", "Long wait", "Bland noodles", "Overseasoned noodles"]}
{"place_id": "1209251346", "place_name": "옹막상회", "like": ["Cozy atmosphere", "Delicious food", "Unique menu", "Interactive experience", "Friendly service"], "dislike": ["Ordinary Americano"]}
{"place_id": "1096761497", "place_name": "강릉유환식당", "like": ["Delicious food", "Generous portions", "High-quality coffee", "Fresh ingredients", "Friendly staff"], "dislike": ["Market price"]}
{"place_id": "1942707488", "place_name": "월화칼국수", "like": ["Delicious food", "Tasty side dishes", "Friendly service", "Enjoyable atmosphere", "Clean flavors"], "dislike": ["Clams in noodles"]}
{"place_id": "1142180301", "place_name": "강릉장칼국수 본점", "like": ["Family-friendly", "Delicious food", "Chewy texture", "Cleanliness", "Friendly service"], "dislike": []}
{"place_id": "20511455", "place_name": "회산장칼국수", "like": ["Delicious food", "Generous portions", "Clean environment", "Unique flavors", "Friendly service"], "dislike": []}
{"place_id": "15385027", "place_name": "청송장칼국수", "like": ["Thick noodles", "Rich broth", "Generous portions", "Delicious dumplings", "Friendly service"], "dislike": ["Average dumplings"]}
{"place_id": "15323231", "place_name": "기동이네장칼국수", "like": ["Delicious food", "Authentic experience", "Generous portions", "Friendly service", "Healthy options"], "dislike": ["Overly salty", "Limited parking"]}
{"place_id": "36643281", "place_name": "강릉전복해물뚝배기 강릉", "like": ["Delicious food", "Generous portions", "Family-friendly", "Friendly service", "Flavorful broth"], "dislike": ["Unfriendly service", "Rigid policy", "Average taste"]}
{"place_id": "58248179", "place_name": "강릉전집", "like": ["Delicious food", "Generous portions", "Local authenticity", "Consistent quality", "Enjoyable experience"], "dislike": []}
{"place_id": "35852302", "place_name": "도전", "like": ["Delicious food", "Unique dishes", "Variety of drinks", "Artistic presentation", "Fresh ingredients"], "dislike": ["Slow service", "Small portions"]}
{"place_id": "1293869986", "place_name": "부영메밀전", "like": ["Friendly service", "Delicious food"], "dislike": ["Lack of cleanliness"]}
{"place_id": "2086664989", "place_name": "죽방전집", "like": ["Tender texture", "Innovative dish", "Delicious taste"], "dislike": []}
{"place_id": "1249259296", "place_name": "아름이네 부침", "like": ["Tasty pancakes", "Delicious food", "Friendly service"], "dislike": ["Disappointing crepes"]}
{"place_id": "1478745700", "place_name": "성산감자전", "like": ["Home-cooked taste", "Delicious food", "Fresh ingredients"], "dislike": []}
{"place_id": "1770360235", "place_name": "찐전집", "like": ["Delicious food"], "dislike": []}
{"place_id": "1548890300", "place_name": "은혜의집", "like": [], "dislike": []}
{"place_id": "1278298701", "place_name": "대동집 강릉 교동점", "like": ["Delicious food", "Generous portions", "Friendly staff", "Attentive service", "Spacious seating"], "dislike": []}
{"place_id": "12035825", "place_name": "정선달참나무숯불구이", "like": ["Delicious food", "High-quality meat", "Rich flavor", "Good value", "Well-prepared dishes"], "dislike": ["Unfriendly service", "Order mistakes", "Poor hygiene", "Expensive prices", "Low-quality meat"]}
{"place_id": "1869523471", "place_name": "강릉 조개빵 강릉본점", "like": ["Delicious flavors", "Healthy ingredients", "Friendly service", "Pleasant atmosphere", "Attractive presentation"], "dislike": []}
{"place_id": "1086225708", "place_name": "강릉중앙분식", "like": ["Tasty food", "Traditional flavors", "Crispy fried items"], "dislike": ["Overcharging", "Lack of cleanliness", "Inflexible service", "Standardized taste", "Unfriendly staff"]}
{"place_id": "15297075", "place_name": "유성상회 강릉본점", "like": ["Fresh seafood", "Generous portions", "Clean facilities", "Friendly service", "Delicious taste"], "dislike": ["Value for money"]}
{"place_id": "15298411", "place_name": "진주식당", "like": ["Delicious food", "Variety of dishes", "Generous portions", "Fresh ingredients", "Friendly service"], "dislike": []}
{"place_id": "1479188834", "place_name": "청춘돌우럭&물회 강릉본점", "like": ["Delicious food", "Generous portions", "Fresh ingredients", "Friendly service", "Scenic view"], "dislike": ["Limited menu", "Tough vegetables", "Unpleasant fish taste", "Over-seasoned vegetables", "Misleading dish name"]}
{"place_id": "19891301", "place_name": "장안횟집", "like": ["Delicious food", "Fresh ingredients", "Clean facilities", "Efficient service", "Friendly staff"], "dislike": ["Expensive prices", "Polarizing dish"]}
{"place_id": "2064849699", "place_name": "호수정 한정식 강릉본점", "like": ["Delicious food", "Pleasant atmosphere", "Clean interior", "Generous portions", "High-quality ingredients"], "dislike": ["High price", "Limited side dishes", "Inconvenient restroom"]}
{"place_id": "2096131729", "place_name": "바담냉면 강릉본점", "like": ["Delicious food", "Pleasant atmosphere", "Generous portions", "Fresh ingredients", "Friendly staff"], "dislike": []}
{"place_id": "15320203", "place_name": "강릉짬뽕순두부 강릉본점", "like": ["Delicious food", "Quality side dishes", "Rich broth", "Friendly service", "Generous portions"], "dislike": ["Spicy food", "Limited menu", "Poor taste", "Unpleasant smell", "Lack of waiting system"]}
{"place_id": "11859878", "place_name": "강릉짬뽕순두부 동화가든 본점", "like": ["Delicious food", "Flavorful side dishes", "Unique flavors", "Quiet atmosphere", "Helpful service"], "dislike": ["High prices", "Unremarkable main dish", "Value for money"]}
{"place_id": "1880153847", "place_name": "강릉 하월당 초당짬뽕순두부", "like": ["Delicious food", "Clean environment", "Friendly service", "Unique flavors", "Quick service"], "dislike": []}
{"place_id": "15368440", "place_name": "정동진 정가네순두부 본점", "like": ["Delicious taste", "Spicy flavors", "Generous portions", "Friendly service", "Variety of options"], "dislike": ["Crowded atmosphere", "Insufficient tofu"]}
{"place_id": "15310710", "place_name": "강릉참치", "like": ["Generous portions", "Delicious food", "High-quality tuna", "Friendly service", "Clean environment"], "dislike": []}
{"place_id": "1131502371", "place_name": "후토", "like": ["Cozy atmosphere", "Delicious food", "Generous portions", "Family-friendly", "Unique menu"], "dislike": []}
{"place_id": "38324399", "place_name": "해루참치", "like": ["Delicious food", "Friendly service", "Fresh ingredients", "Authentic experience", "Generous portions"], "dislike": []}
{"place_id": "1471649400", "place_name": "우미아이", "like": ["Reasonable pricing", "Child-friendly", "Delicious food", "Fresh seafood", "Variety of sushi"], "dislike": ["Limited menu"]}
{"place_id": "33133925", "place_name": "해랑대게횟집", "like": ["Delicious food", "Fresh seafood", "Scenic view", "Affordable prices", "Friendly service"], "dislike": []}
{"place_id": "1418432224", "place_name": "스시카이토", "like": ["Delicious food", "Friendly service", "Clean environment", "Authentic taste", "Good value"], "dislike": []}
{"place_id": "1270795527", "place_name": "회바라기", "like": ["Delicious food", "Fresh ingredients", "Generous portions", "Diverse menu", "Thoughtful service"], "dislike": []}
{"place_id": "1535120123", "place_name": "교리단초밥", "like": ["Delicious food", "Fresh ingredients", "Friendly service", "Affordable prices", "Pleasant interior"], "dislike": ["Presence of flies", "Empty side dishes", "Salty soup"]}
{"place_id": "1503238465", "place_name": "바다로", "like": ["Fresh seafood", "Delicious food", "Friendly service", "Generous portions", "Diverse menu"], "dislike": ["Limited menu", "Fishy taste"]}
{"place_id": "1463664286", "place_name": "주문진호시", "like": ["Delicious food", "Generous portions", "Fresh ingredients", "Friendly service", "Good value"], "dislike": []}
{"place_id": "1295323849", "place_name": "백억다찌", "like": ["Delicious food", "Unique flavors", "Generous portions", "Attentive service", "High-quality ingredients"], "dislike": []}
{"place_id": "1229100783", "place_name": "인성참치유천점", "like": ["Delicious food", "Cozy atmosphere", "Friendly service", "Cleanliness", "Fresh ingredients"], "dislike": []}
{"place_id": "1246457673", "place_name": "나마참치", "like": ["High quality", "Fresh ingredients", "Cozy atmosphere", "Delicious food", "Friendly service"], "dislike": ["Unclear communication"]}
{"place_id": "1336883142", "place_name": "스시생", "like": ["Freshness", "Delicious taste", "Fresh ingredients", "Complimentary shrimp", "Clean presentation"], "dislike": ["Lack of craftsmanship", "Pre-packaged ingredients", "Bland noodles", "Fishy salmon"]}
{"place_id": "36767003", "place_name": "참치이야기", "like": ["Delicious food", "Popular with regulars", "Consistent taste", "Excellent tuna", "Post-drink dish"], "dislike": ["Reservation needed", "Limited seating", "Price increase"]}
{"place_id": "36258263", "place_name": "요로코비", "like": ["Good alcohol selection", "Variety of dishes", "Cozy atmosphere", "Delicious food", "Friendly service"], "dislike": []}
{"place_id": "1104583803", "place_name": "오산조은참치 강릉입암점", "like": ["Fresh seafood", "Delicious food", "Generous portions", "High-quality", "Great value"], "dislike": []}
{"place_id": "1473728783", "place_name": "토라스시", "like": ["Delicious food", "Fresh ingredients", "Friendly service", "Unique flavors", "Good value"], "dislike": ["Limited availability", "Bland taste", "Less flavorful takeout"]}
{"place_id": "1289555795", "place_name": "인성참치 입암점", "like": ["Delicious food", "Fresh ingredients", "Generous portions", "Friendly service", "Pleasant atmosphere"], "dislike": []}
{"place_id": "1972427573", "place_name": "파랑새김밥", "like": ["Local favorite", "Rich taste", "Friendly service", "Good value", "Clean side dishes"], "dislike": ["Food quality"]}
{"place_id": "1252274985", "place_name": "최정수산식품", "like": [], "dislike": []}
{"place_id": "1971811879", "place_name": "찌개세끼", "like": ["Generous portions", "Friendly service", "Traditional taste", "Variety of dishes", "Good value"], "dislike": []}
{"place_id": "1563178271", "place_name": "스시교코", "like": ["Delicious food", "Clean environment", "Generous portions", "Pleasant atmosphere", "Friendly service"], "dislike": []}
{"place_id": "1560905890", "place_name": "탑스텐 뷔페포세이돈", "like": ["Delicious food", "Diverse menu", "Friendly service", "Fresh ingredients", "Scenic view"], "dislike": ["Tough meat", "Slow service", "Stale dish"]}
{"place_id": "1862163840", "place_name": "강릉초당골짬뽕순두부 속초점", "like": ["Delicious food", "Generous portions", "Friendly service", "Unlimited refills", "Clean environment"], "dislike": []}
{"place_id": "1167584491", "place_name": "동해강릉초당짬뽕순두부 서창점", "like": ["Diverse menu", "Delicious food", "Generous portions", "Friendly service", "Family-friendly"], "dislike": ["Limited spicy options"]}
{"place_id": "1079543876", "place_name": "동해강릉초당짬뽕순두부 서초점", "like": ["Tasty food", "Generous portions", "Cleanliness", "Variety of flavors", "Friendly staff"], "dislike": ["Stale rice", "Cold rice"]}
{"place_id": "33582588", "place_name": "소반", "like": ["Delicious food", "Neat presentation", "Family-friendly", "Variety of menu options", "Friendly service"], "dislike": ["Cold side dishes"]}
{"place_id": "1292073957", "place_name": "초당명가 짬뽕순두부", "like": ["Delicious food", "Generous portions", "Fresh seafood", "Friendly service", "Comfortable atmosphere"], "dislike": []}
{"place_id": "37349949", "place_name": "소나무집초당순두부", "like": ["Delicious food", "Generous portions", "Fresh ingredients", "Unique menu", "Friendly service"], "dislike": ["Mediocre taste", "Questionable value"]}
{"place_id": "33152153", "place_name": "초당토박이할머니순두부", "like": ["Delicious tofu", "Generous portions", "Homestyle cooking", "Healthy broth", "Efficient staff"], "dislike": ["High price", "Noisy atmosphere", "Salty food", "Limited salad refill", "Foreign object in food"]}
{"place_id": "34439221", "place_name": "김우정초당짬뽕순두부", "like": ["Delicious food", "Spicy flavor", "Soft tofu", "Flavorful broth", "Friendly staff"], "dislike": []}
{"place_id": "2094272054", "place_name": "강릉짬뽕순두부마법사", "like": ["Delicious food", "Generous portions", "Clean environment", "Variety of dishes", "Friendly service"], "dislike": ["Sour soup"]}
{"place_id": "1962439120", "place_name": "해궁식당", "like": ["Delicious food", "Generous portions", "Quiet atmosphere", "Friendly service", "Comfortable environment"], "dislike": ["Bland taste", "Rushed service"]}
{"place_id": "1381183889", "place_name": "미송순두부짬뽕", "like": ["Generous portions", "Rich flavor", "Delicious food", "Quiet atmosphere", "Quick service"], "dislike": ["Poor management", "Insufficient staff", "Slow service", "Long waiting times"]}
{"place_id": "1951460203", "place_name": "은대봉", "like": ["Delicious food", "Clean environment", "Generous portions", "Quality ingredients", "Friendly service"], "dislike": ["Hygiene issues", "Improper utensil handling", "Expensive", "Slow service"]}
{"place_id": "1318087817", "place_name": "다송가든", "like": ["Delicious food", "Beautiful view", "Clean environment", "Pleasant atmosphere", "Attentive staff"], "dislike": ["Salty fish", "Small portions"]}
{"place_id": "1823778216", "place_name": "뚱할머니순두부 강릉본점", "like": ["Delicious food", "Generous portions", "Self-service bar", "Friendly service", "Tasty side dishes"], "dislike": ["Noisy atmosphere", "Service issues", "Long wait time", "Poor dishwashing", "Reused ingredients"]}
{"place_id": "12044816", "place_name": "원조민속초당순두부", "like": ["Authentic cuisine", "Delicious food", "Tasty tofu", "Friendly service", "Generous portions"], "dislike": ["Unfriendly service", "Overly sour kimchi", "Spicy stew"]}
{"place_id": "1671142700", "place_name": "시골순두부밥상", "like": ["Delicious food", "Vegan-friendly", "Cleanliness", "Menu variety", "Friendly service"], "dislike": ["Fixed menu"]}
{"place_id": "1412371235", "place_name": "초당젤라또", "like": ["Delicious taste", "Gelato variety", "Chewy texture", "Tasty beverages", "Delicious desserts"], "dislike": ["Small portion size", "Melting speed"]}
{"place_id": "1199383306", "place_name": "강릉초당두부 정동진본점", "like": ["Delicious food", "Generous portions", "Friendly staff", "Clean environment", "Quick service"], "dislike": ["High price", "Limited menu options", "Unremarkable side dishes", "Sour kimchi", "Unfriendly staff"]}
{"place_id": "810967001", "place_name": "강릉초당불향쭈꾸미", "like": ["Delicious food", "Generous portions", "Good value", "Friendly service", "Mild spiciness"], "dislike": ["Not unique", "Small portions", "Unavailable items", "Poor service"]}
{"place_id": "1485403345", "place_name": "강릉초당콩감자탕", "like": ["Delicious food", "Generous portions", "Unique flavors", "Friendly service", "Pleasant environment"], "dislike": []}
{"place_id": "34772784", "place_name": "강릉코다리찜", "like": ["Delicious food", "Variety of dishes", "Friendly service", "Flavorful seasoning", "Tasty potatoes"], "dislike": ["Mild seasoning"]}
{"place_id": "1249147044", "place_name": "강릉크로와상붕어빵", "like": ["Unique taste", "Hygienic environment", "Friendly service", "Variety of flavors", "Affordable prices"], "dislike": ["High price"]}
{"place_id": "1606609541", "place_name": "강릉파스타 아스따", "like": ["Fresh pasta", "Delicious food", "Generous portions", "Pleasant atmosphere", "Affordable pricing"], "dislike": []}
{"place_id": "1393397415", "place_name": "강릉한식도시락출장뷔페", "like": [], "dislike": []}
{"place_id": "2006495897", "place_name": "한식명가네", "like": ["Good taste", "Cleanliness", "Generous portions", "Fresh ingredients", "Variety of dishes"], "dislike": ["Lack of staples", "High price", "Limited variety"]}
{"place_id": "1040680073", "place_name": "건강밥상", "like": ["Affordable pricing", "Delicious food", "Varied side dishes", "Friendly service", "Varied menu"], "dislike": []}
{"place_id": "1017827824", "place_name": "강릉 한우원", "like": ["Delicious food", "High-quality meat", "Friendly service", "Pleasant atmosphere", "Private dining"], "dislike": []}
{"place_id": "1625048966", "place_name": "강릉한정식 하서주미역", "like": ["Delicious food", "Generous portions", "Fresh ingredients", "Friendly service", "Comfortable dining"], "dislike": ["High prices", "Inconsistent service", "Poor food quality", "Bland flavors", "Misleading menu"]}
{"place_id": "1344917614", "place_name": "강릉홍가네옹심이", "like": ["Authentic taste", "Chewy noodles", "Generous portions", "Flavorful dishes", "Friendly service"], "dislike": []}
{"place_id": "32294458", "place_name": "강문옛태광식당", "like": ["Delicious food", "Generous portions", "Clean presentation", "Tasty soups", "Friendly service"], "dislike": ["High price", "Limited fish pieces", "Inconsistent flavor", "Limited hours"]}
{"place_id": "1815335754", "place_name": "오봉이해물칼국수 강릉본점", "like": ["Delicious food", "Scenic view", "Generous portions", "Fresh seafood", "Friendly service"], "dislike": []}
{"place_id": "1717795976", "place_name": "강릉칼제비 강릉본점", "like": ["Delicious food", "Generous portions", "Spicy dishes", "Scenic view", "Friendly staff"], "dislike": ["Unfriendly service", "Limited menu options"]}
{"place_id": "1017688810", "place_name": "강보리밥", "like": ["Delicious food", "Friendly service", "Fresh ingredients", "Comfortable atmosphere", "Menu variety"], "dislike": ["Insufficient seafood", "Poor value"]}
{"place_id": "1822759725", "place_name": "강부맛나는닭갈비포남점", "like": ["Delicious food", "Friendly service", "Generous portions", "Welcoming atmosphere", "Local popularity"], "dislike": []}
{"place_id": "1974654226", "place_name": "강원도엄나무닭강정", "like": ["Delicious food", "Fresh ingredients", "Clean environment", "Friendly service", "Crispy texture"], "dislike": []}
{"place_id": "21226036", "place_name": "개두릅장칼국수", "like": ["Unique taste", "Chewy noodles", "Clean environment", "Friendly service", "Good value"], "dislike": []}
{"place_id": "33920318", "place_name": "여왕개미식당", "like": ["Delicious food", "Spicy flavor", "Generous portions", "Friendly service", "Unique texture"], "dislike": []}
{"place_id": "35074459", "place_name": "갯마을낙지", "like": ["Delicious food", "Generous portions", "Fresh seafood", "Friendly service", "Reasonable pricing"], "dislike": ["Bland taste", "Spiciness inconsistency", "Disappointing quality"]}
{"place_id": "1868103084", "place_name": "갯마을식당", "like": ["Delicious food", "Tasty side dishes", "Clean environment", "Friendly service", "Generous portions"], "dislike": []}
{"place_id": "1395796249", "place_name": "갯벌의조개 강릉점", "like": ["Delicious food", "Fresh seafood", "Friendly service", "Generous portions", "Self-service options"], "dislike": ["Poor seafood preparation", "Small portions", "Disorganized atmosphere"]}
{"place_id": "1653794749", "place_name": "갱스터분식카페", "like": ["Tasty kimbap", "Affordable pricing", "Variety of menu", "Unique sauce", "Food quality"], "dislike": ["Ordinary ramen"]}
{"place_id": "32185305", "place_name": "건강삼계탕", "like": ["Delicious food", "Reasonable prices", "Nostalgic atmosphere", "Friendly staff", "Pleasant taste"], "dislike": ["Limited menu options"]}
{"place_id": "12780466", "place_name": "경포가든", "like": ["Delicious food", "Quality meat", "Variety of side dishes", "Spacious atmosphere", "Popular with customers"], "dislike": []}
{"place_id": "1365555111", "place_name": "경포막국수", "like": ["Delicious food", "Friendly atmosphere", "Diverse menu", "Spacious parking", "Generous portions"], "dislike": ["Unpleasant taste", "Rude service", "Incorrect order handling", "Bland food", "Average taste"]}
{"place_id": "15352518", "place_name": "경포삼성관", "like": ["Delicious food", "Friendly service", "Generous portions", "Clean environment", "Freshly cooked"], "dislike": ["Unfriendly service", "Spoiled dishes", "Cold food", "Poor value"]}
{"place_id": "1853032344", "place_name": "다연경포밥집", "like": ["Delicious food", "Generous portions", "Friendly service", "Cleanliness", "Good value"], "dislike": ["Slow service", "Salty food", "Incomplete order", "Mediocre dishes", "Spoiled side dish"]}
{"place_id": "15695978", "place_name": "경포초당순두부식당", "like": ["Tasty food", "Generous service", "Authentic cuisine", "Fresh ingredients", "Friendly staff"], "dislike": ["Poor hygiene", "Low-quality ingredients", "Unappetizing presentation", "Unfriendly service", "Salty dishes"]}
{"place_id": "1070849638", "place_name": "경포엄마손식당", "like": ["Delicious food", "Generous portions", "Friendly service", "Authentic taste", "Good value"], "dislike": ["Outdated facilities", "Bland taste", "Salty squid"]}
{"place_id": "1090308210", "place_name": "경포왕만두", "like": ["Good taste", "Tasty food", "Delicious dumplings"], "dislike": ["Unfriendly service", "Small portions", "Misleading description", "Mediocre taste"]}
{"place_id": "19338559", "place_name": "경포전주식당", "like": ["Flavorful food", "Friendly service", "Good value", "Satisfying portions", "Consistent taste"], "dislike": ["Unfriendly service", "Incomplete menu", "Salty food", "Expensive prices", "Poor taste"]}
{"place_id": "1479763913", "place_name": "호해", "like": ["Delicious food", "Generous portions", "Fresh ingredients", "Unique local dishes", "Friendly service"], "dislike": ["Limited spicy options"]}
{"place_id": "1984828680", "place_name": "계곡민박식당", "like": [], "dislike": []}
{"place_id": "911136265", "place_name": "정동진 고기랑조개랑", "like": ["Clean environment", "Delicious food", "Friendly service", "Generous portions", "Fresh ingredients"], "dislike": ["Limited seating"]}
{"place_id": "1338714228", "place_name": "고기카페", "like": ["Flavorful stew", "Healthy ingredients", "Fresh vegetables", "Generous portions", "Variety of sides"], "dislike": []}
{"place_id": "1292550716", "place_name": "고단막국수", "like": ["Delicious food", "Friendly service", "Generous portions", "Home-style dishes", "High-quality texture"], "dislike": ["Strong flavors"]}
{"place_id": "1761659960", "place_name": "고단황금막국수", "like": ["Delicious food", "Friendly service", "Tender meat", "Good value", "Convenient parking"], "dislike": ["Decline in taste"]}
{"place_id": "1520374355", "place_name": "고담집", "like": ["Delicious food", "Home-cooked taste", "Generous portions", "Friendly staff", "Accommodating service"], "dislike": []}
{"place_id": "1464382785", "place_name": "고래등하우스", "like": [], "dislike": []}
{"place_id": "1143057643", "place_name": "고래밥한식뷔페", "like": ["Taste", "Fried dishes variety", "Korean buffet"], "dislike": []}
{"place_id": "15333554", "place_name": "고래섬", "like": ["Delicious fish", "Fresh seafood", "Generous portions", "Cleanliness", "Affordable prices"], "dislike": ["Unfriendly service", "Limited menu", "Spoiled side dish"]}
{"place_id": "15381763", "place_name": "고려원", "like": ["Delicious food", "Spicy noodles", "Rich broth", "Quick service"], "dislike": ["High price", "Small portions", "Poor seafood quality"]}
{"place_id": "1604061144", "place_name": "고메당 양갈비", "like": ["Delicious food", "Excellent service", "Clean environment", "High-quality lamb", "Fresh ingredients"], "dislike": []}
{"place_id": "15382101", "place_name": "고양골추어탕", "like": ["Delicious food", "Generous portions", "Affordable pricing"], "dislike": []}
{"place_id": "15367705", "place_name": "고을식당", "like": ["Healthy flavors", "Friendly service", "Fresh ingredients"], "dislike": []}
{"place_id": "15345035", "place_name": "고향감자탕", "like": ["Delicious food", "Friendly service", "Generous portions", "Fresh ingredients", "Skilled chef"], "dislike": []}
{"place_id": "1421217055", "place_name": "고향먹거리", "like": ["Delicious food", "Tasty dishes", "Affordable pricing", "Generous portions", "Quick service"], "dislike": ["Limited vegetables", "Small portions", "Limited menu options"]}
{"place_id": "15327157", "place_name": "고향산천초당순두부", "like": ["Delicious food", "Traditional atmosphere", "Generous portions", "Friendly service", "Local ingredients"], "dislike": ["Portion size"]}
{"place_id": "11601760", "place_name": "고향촌중화요리", "like": ["Delicious food", "Nostalgic atmosphere", "Quality ingredients", "Spicy dishes", "Signature dishes"], "dislike": ["Remove shoes policy", "Slow service"]}
{"place_id": "1567759390", "place_name": "곤지암할매소머리국밥 교동점", "like": ["Good taste", "Breakfast availability", "Local vibe", "Rich broth", "Local specialty"], "dislike": ["Unfriendly service", "Unresponsive staff", "Hygiene issues", "Poor presentation", "Unfavorable taste"]}
{"place_id": "1081209398", "place_name": "골든벨7080", "like": [], "dislike": []}
{"place_id": "37270644", "place_name": "곰돌이왕만두", "like": ["Generous portions", "High quality", "Freshly prepared", "Balanced flavors", "Traditional taste"], "dislike": ["Changed taste", "Thick dough", "Average taste"]}
{"place_id": "1359873731", "place_name": "곰치랑대구랑", "like": ["Delicious food", "Generous portions", "Affordable pricing", "Friendly service", "Fresh ingredients"], "dislike": ["Mediocre side dishes"]}
{"place_id": "1059361236", "place_name": "곱창백화점 주문진점", "like": ["Delicious food", "Generous portions", "Excellent taste", "Friendly service", "Clean side dishes"], "dislike": []}
{"place_id": "436974851", "place_name": "곱창전골명가도계물닭갈비", "like": ["Delicious food", "Generous portions", "Friendly service", "Family-friendly", "Cleanliness"], "dislike": []}
{"place_id": "36947611", "place_name": "공감", "like": ["Beautiful decor", "Complimentary snacks", "Affordable prices", "Delicious coffee", "Pleasant atmosphere"], "dislike": ["Crowded atmosphere", "Lack of desserts"]}
{"place_id": "21745380", "place_name": "공단분식", "like": ["Cleanliness", "Taste"], "dislike": []}
{"place_id": "1033772266", "place_name": "공원반점", "like": ["Flavorful dishes", "Nostalgic taste", "Traditional atmosphere", "Good value", "Generous portions"], "dislike": ["Small space", "Limited parking"]}
{"place_id": "1872904347", "place_name": "공주네", "like": ["Fresh seafood", "Delicious food", "Good service", "Generous portions", "Convenient seating"], "dislike": ["High cost", "Additional charges", "Food hygiene concerns", "Reuse of ingredients"]}
{"place_id": "20264800", "place_name": "곽가네시오야끼", "like": ["Flavorful food", "Friendly service", "Unique taste", "Clean environment", "Variety of dishes"], "dislike": []}
{"place_id": "1358794961", "place_name": "정동진관제탑해물탕", "like": ["Delicious food", "Friendly service", "Generous portions", "Clean facilities", "Reasonable prices"], "dislike": ["Poor food quality", "Inadequate service", "Overpriced dishes", "Small portions", "Unappetizing presentation"]}
{"place_id": "1216081294", "place_name": "광덕식당", "like": ["Delicious food", "Clean interior", "Tender meat", "Unique dishes", "Friendly service"], "dislike": []}
{"place_id": "15297320", "place_name": "광덕식당 중앙시장점", "like": ["Delicious food", "Authentic taste", "Friendly service", "Generous portions", "Quick service"], "dislike": []}
{"place_id": "1670442388", "place_name": "강릉역맛집 마키김밥 교동본점", "like": ["Delicious food", "Unique flavors", "Fresh ingredients", "Generous portions", "Friendly service"], "dislike": []}
{"place_id": "1221269927", "place_name": "교동동태탕", "like": ["Delicious food", "Fresh ingredients", "Good value", "Flavorful broth", "Suitable for solo dining"], "dislike": ["Unfriendly service", "Limited interaction", "Limited side dishes", "Imported ingredients", "Bland broth"]}
{"place_id": "1885373079", "place_name": "교동면옥식당", "like": ["Delicious food", "Tasty noodles", "Friendly service", "Fresh ingredients", "Homemade-style dumplings"], "dislike": ["Average taste"]}
{"place_id": "1346405445", "place_name": "교동소머리곰탕", "like": ["Delicious food", "Clean environment", "Friendly service", "High-quality meat", "Generous portions"], "dislike": []}
{"place_id": "1915717477", "place_name": "교동순대국밥", "like": ["Delicious food", "Friendly service", "Consistent quality", "Clean broth", "Attractive staff"], "dislike": ["Increased prices", "Smaller portions", "Mediocre food", "Unpleasant taste"]}
{"place_id": "1525974431", "place_name": "열정국밥 강릉교동점", "like": ["Delicious food", "Taste"], "dislike": []}
{"place_id": "1100692439", "place_name": "국밥생각 강릉교동점", "like": ["Delicious food", "Generous portions", "Unique flavor", "Variety of options", "High-quality ingredients"], "dislike": []}
{"place_id": "1878260166", "place_name": "교동시골밥상", "like": ["Delicious food", "Reasonable pricing", "Friendly service"], "dislike": ["Salty seasoning"]}
{"place_id": "1587726258", "place_name": "교동장칼국수", "like": ["Delicious food", "Friendly service", "Unique ingredients", "Healthy options", "Quick service"], "dislike": []}
{"place_id": "15040617", "place_name": "강릉집", "like": ["Delicious food", "Friendly staff", "Generous portions", "Pleasant atmosphere", "Complimentary dishes"], "dislike": []}
{"place_id": "21104491", "place_name": "교오복식당", "like": ["Delicious food", "Generous portions", "Friendly service", "Homely atmosphere", "Flavorful seasoning"], "dislike": []}
{"place_id": "12951301", "place_name": "교항면옥", "like": ["Delicious food", "Tender meat", "Flavorful broth", "Authentic atmosphere", "Friendly staff"], "dislike": []}
{"place_id": "15360439", "place_name": "남북면옥", "like": ["Delicious food", "Generous portions", "Unique flavor", "Flavorful seasoning", "Complimentary service"], "dislike": ["Strong soy sauce flavor", "Ordinary taste", "Polarizing taste"]}
{"place_id": "34268809", "place_name": "신리면옥 주문진점", "like": ["Affordable pricing", "Delicious food", "Hidden gem", "Broth flavor", "Dumplings"], "dislike": ["Bland noodles", "Hygiene standards", "Changed taste", "Broth authenticity", "Lack of customers"]}
{"place_id": "1240895948", "place_name": "주공면옥", "like": ["Flavorful dishes", "Generous portions", "Friendly service", "Delicious noodles", "Excellent dumplings"], "dislike": ["Poor hygiene", "Seasonal menu limitation"]}
{"place_id": "1067517919", "place_name": "교항식당", "like": ["Delicious food", "Cleanliness", "Pleasant atmosphere", "Good value"], "dislike": ["Spiciness"]}
{"place_id": "11799922", "place_name": "페리카나 도립대점", "like": ["Delicious food", "Crispy chicken", "Friendly service", "Cold draft beer", "Quick preparation"], "dislike": []}
{"place_id": "13281876", "place_name": "강릉최대게 본점", "like": ["Delicious crab", "Fresh ingredients", "Spacious interior", "Good value", "Friendly service"], "dislike": ["Uncertain value"]}
{"place_id": "318625076", "place_name": "주문진 상희네횟집 홍게무한리필", "like": ["Attentive staff", "Fresh seafood", "Delicious food", "Generous portions", "Scenic view"], "dislike": ["Miscommunication", "Lukewarm temperature", "Limited availability", "Inconsistent policy", "Commercial focus"]}
{"place_id": "15360393", "place_name": "현자네해물촌", "like": ["Delicious food", "Clean environment", "Generous portions", "Fresh seafood", "Pleasant experience"], "dislike": ["Inconvenient ordering", "Poor service", "Limited sauce options"]}
{"place_id": "38314569", "place_name": "주문진신짬뽕", "like": ["Delicious food", "Authentic flavor", "Efficient service", "Cleanliness", "Noodle quality"], "dislike": ["Spicy", "Limited seafood", "Unfriendly service", "Meat odor", "Poor value"]}
{"place_id": "1888740640", "place_name": "영진항", "like": ["Fresh seafood", "Delicious food", "Attentive service", "Generous portions", "Reasonable prices"], "dislike": []}
{"place_id": "31096902", "place_name": "원조칼국수", "like": ["Delicious food", "Family-friendly", "Tasty noodles", "Friendly service", "Pleasant atmosphere"], "dislike": []}
{"place_id": "1658810393", "place_name": "영진댁", "like": ["Delicious food", "Fresh ingredients", "Friendly service", "Pleasant atmosphere", "Good value"], "dislike": []}
{"place_id": "1104323584", "place_name": "감자마을", "like": ["Delicious food", "Crispy pancake", "Flavorful broth", "Spacious seating", "High-quality ingredients"], "dislike": ["Limited seating", "Overwhelming dumplings", "Ordinary noodle soup"]}
{"place_id": "1720905897", "place_name": "이맛에온다 본점", "like": ["Delicious stew", "Generous portions", "High-quality meat", "Unique pork cuts", "Memorable taste"], "dislike": ["Limited menu", "Long wait times", "Ordinary side dishes", "Inconvenient restroom"]}
{"place_id": "34632772", "place_name": "실비생선구이 본점 작은집", "like": ["Delicious food", "Friendly service", "Fresh ingredients", "Generous portions", "Unique beverages"], "dislike": ["Salty seasoning"]}
{"place_id": "2057775610", "place_name": "초록반상", "like": ["Cleanliness", "Delicious food", "Self-service bar", "Comfortable environment", "Friendly service"], "dislike": []}
{"place_id": "1303070508", "place_name": "문어랑 강릉주문진항점", "like": ["Family-friendly", "Fresh seafood", "Delicious food", "Tender texture", "Good value"], "dislike": []}
{"place_id": "15353642", "place_name": "복양춘", "like": ["Authentic cuisine", "Delicious food", "Cleanliness", "Spicy flavor", "Friendly service"], "dislike": []}
{"place_id": "2048194061", "place_name": "강릉한우한돈정육식당 소온주문진", "like": ["Delicious food", "High-quality meat", "Friendly service", "Family atmosphere", "Cleanliness"], "dislike": ["Staff attitude", "Meat quality"]}
{"place_id": "1485221897", "place_name": "구구족 강릉점", "like": ["Delicious food", "Friendly service", "Consistent quality", "Portion size", "Well-organized menu"], "dislike": ["Poor service", "Inconsistent preparation", "Microwaved food", "Food temperature"]}
{"place_id": "1376821892", "place_name": "구석", "like": ["Delicious food", "Generous portions", "Clean broth", "Comfortable environment", "Complimentary dishes"], "dislike": ["Small portions", "Overpricing", "Poor quality"]}
{"place_id": "15697787", "place_name": "구인당식당", "like": ["High-quality ingredients"], "dislike": []}
{"place_id": "1093799954", "place_name": "구정휴게소 구정반상", "like": ["Tasty food"], "dislike": []}
{"place_id": "1813413225", "place_name": "구정막국수 강릉점", "like": ["Delicious food", "Memorable experience", "Natural flavors", "Friendly service", "Good value"], "dislike": []}
{"place_id": "1124194019", "place_name": "구정쌈밥", "like": ["Delicious food", "Fresh ingredients", "Generous portions", "Friendly service", "Comfortable atmosphere"], "dislike": ["Strong seasoning", "Fishy taste", "Fish dish quality"]}
{"place_id": "1412551385", "place_name": "국민낙곱새 강릉점", "like": ["Delicious taste", "Friendly service", "Generous portions", "Simple preparation", "Flavorful seasoning"], "dislike": ["Small portions"]}
{"place_id": "1846817040", "place_name": "국밥가", "like": ["Delicious food", "Friendly service", "Rich broth", "Generous portions", "Beautiful view"], "dislike": []}
{"place_id": "1130433840", "place_name": "국밥 참 맛있는 집 강릉유천점", "like": ["Delicious food", "Flavorful broth", "Generous portions", "Extra vegetables"], "dislike": ["Small space"]}
{"place_id": "1287341137", "place_name": "국밥참맛있는집 강릉포남점", "like": ["Delicious food", "Generous portions", "Clean environment", "Family-friendly", "Good value"], "dislike": ["Inadequate parking"]}
{"place_id": "15302317", "place_name": "국보삼계탕 강릉점", "like": ["Tender chicken", "Delicious food", "Tasty side dishes", "Warm hospitality", "Cleanliness"], "dislike": []}
{"place_id": "1479747263", "place_name": "국수나루", "like": ["Good taste", "Cleanliness", "Complimentary dishes", "Friendly service", "Great value"], "dislike": []}
{"place_id": "21445327", "place_name": "국수나무 강릉교동점", "like": ["Delicious food", "Diverse menu", "Attentive service"], "dislike": []}
{"place_id": "1519233018", "place_name": "국수나무 강릉유천점", "like": ["Diverse menu", "Affordable pricing", "Delicious food", "Friendly service", "Good value"], "dislike": ["Large portions", "Self-service"]}
{"place_id": "1581548946", "place_name": "국수나무 주문진점", "like": ["Tasty food", "Generous portions", "Friendly service", "Fresh noodles", "Flavorful broth"], "dislike": ["Dry dumplings"]}
{"place_id": "1198421986", "place_name": "국수마니아", "like": ["Noodles texture", "Delicious food", "Friendly service", "Kimchi taste"], "dislike": ["Bland taste", "Broth temperature", "Overly spicy", "Negative experience", "Small portions"]}
{"place_id": "20368673", "place_name": "국수마을", "like": ["Delicious food", "Friendly service", "Generous portions", "Good value"], "dislike": []}
{"place_id": "15380022", "place_name": "국수와파전", "like": ["Delicious food", "Friendly service", "Generous portions", "Nostalgic taste", "Clean presentation"], "dislike": ["Mediocre experience"]}
{"place_id": "1756080989", "place_name": "강릉국시집", "like": ["Delicious food", "Generous portions", "Variety of options", "Friendly service", "Late-night availability"], "dislike": []}
{"place_id": "1285422816", "place_name": "굴다리돌솥밥", "like": ["Delicious food", "Homestyle cooking", "Generous portions", "Friendly service", "Clean establishment"], "dislike": ["Sweet side dishes", "Overly moist rice"]}
{"place_id": "11550609", "place_name": "굴사랑 교동택지점", "like": ["Good taste", "Healthy food", "Delicious food", "Friendly service"], "dislike": []}
{"place_id": "1237005752", "place_name": "궁전사우나 구내분식", "like": ["Good facilities", "Delicious food"], "dislike": []}
{"place_id": "212424953", "place_name": "권오복 분틀 메밀국수", "like": ["Authentic noodles", "Delicious flavor", "Fresh ingredients", "Unique decor", "Friendly service"], "dislike": ["Bland taste", "Slow service", "Did not meet expectations"]}
{"place_id": "1210141934", "place_name": "귀자네순대국밥", "like": ["Delicious food", "Spicy flavor", "Friendly service"], "dislike": ["Insufficient rice portion"]}
{"place_id": "1272262138", "place_name": "그리운바다성산포", "like": ["Cozy atmosphere", "Delicious food", "Generous portions", "Friendly service", "Unique experience"], "dislike": ["Owner's attitude", "Rude service", "Poor value"]}
{"place_id": "2000339764", "place_name": "그린피스모텔", "like": [], "dislike": []}
{"place_id": "1265044520", "place_name": "그옛날초당순두부", "like": ["Delicious food", "Cozy atmosphere", "Flavorful tofu", "Traditional side dishes", "Convenient food"], "dislike": ["Salty dishes"]}
{"place_id": "15372699", "place_name": "금강식당", "like": ["Savory flavors", "Quality ingredients", "Healthy food", "Authentic cuisine", "Friendly service"], "dislike": ["Lack of fresh kimchi"]}
{"place_id": "34642909", "place_name": "금광리소양가든", "like": ["Delicious food", "Variety of options", "Good value", "Comfortable atmosphere", "Authentic Korean buffet"], "dislike": ["Limited hours", "Declining quality"]}
{"place_id": "19354162", "place_name": "추억의금노다지", "like": ["Delicious food", "High-quality ingredients", "Friendly service", "Convenient location"], "dislike": []}
{"place_id": "15287658", "place_name": "금성해장국", "like": ["Delicious food", "Generous portions", "Affordable price", "Cleanliness", "Friendly service"], "dislike": ["Long wait times", "Limited parking"]}
{"place_id": "1793774479", "place_name": "금성회관 강릉교동점", "like": ["Delicious food", "Friendly service", "Family-friendly atmosphere", "Clean environment", "Generous portions"], "dislike": ["Lack of uniqueness", "No grilling service"]}
{"place_id": "1533958875", "place_name": "금진 향토식당", "like": ["Delicious food", "Generous portions", "Freshly cooked rice", "Rich flavor", "Homestyle cooking"], "dislike": ["High prices", "Strong seasoning", "Loud conversations", "Poor value", "Lukewarm rice"]}
{"place_id": "15315308", "place_name": "금천칼국수", "like": ["Tasty food", "Quick service", "Authentic taste", "High-quality ingredients", "Flavorful broth"], "dislike": ["Slow service", "Long wait", "Over-fermented kimchi"]}
{"place_id": "15372120", "place_name": "금학분식", "like": ["Tasty food", "Friendly service", "Relaxed atmosphere", "Generous portions", "Quality ingredients"], "dislike": []}
{"place_id": "20601583", "place_name": "여고시절 카레떡볶이", "like": ["Unique taste", "Delicious food", "Generous portions", "Friendly service", "Affordable prices"], "dislike": ["Overuse of seasoning", "Intense flavor", "Poor service", "Limited portions", "Long wait times"]}
{"place_id": "1771946366", "place_name": "배꼽시계", "like": ["Addictive flavor", "Affordable pricing", "Delicious food", "Spicy options", "Rich sauce"], "dislike": ["Thin broth", "Unpleasant service", "Reduced portions"]}
{"place_id": "15293749", "place_name": "옛빙그레", "like": ["Delicious food", "Rich flavors", "Generous portions", "Nostalgic atmosphere", "Thoughtful service"], "dislike": ["Disposable aprons", "Unsatisfactory taste", "Poor value", "Payment inconvenience", "Limited portions"]}
{"place_id": "1438330569", "place_name": "두끼 강릉점", "like": ["Delicious food", "Friendly service", "Spacious interior", "Generous portions", "Customizable options"], "dislike": ["Lack of cleanliness", "Unpleasant odor", "Poor service", "Limited seating", "Inconsistent policy"]}
{"place_id": "1130880606", "place_name": "월화의 부엌", "like": ["Unique menu", "Delicious food", "Friendly service", "Fresh ingredients", "Attractive decor"], "dislike": []}
{"place_id": "539519138", "place_name": "김밥나라 강릉본점", "like": ["Flavorful dishes", "Diverse menu", "Affordable pricing", "Generous portions", "Good texture"], "dislike": ["Small portions"]}
{"place_id": "1844878772", "place_name": "삼척풍물호떡", "like": ["Good taste", "Chewy texture", "Friendly service", "Traditional flavor", "Generous portion"], "dislike": ["High price"]}
{"place_id": "1495747568", "place_name": "뚜비두밥", "like": ["Delicious food", "Friendly service", "Charming decor", "Generous portions", "Great value"], "dislike": []}
{"place_id": "1524921997", "place_name": "이화김밥", "like": ["Good taste", "Late hours", "Delicious food"], "dislike": ["High prices"]}
{"place_id": "1821311733", "place_name": "강릉떡볶이", "like": ["Tasty food", "Generous portion", "Friendly service", "Quick service", "Sweet flavor"], "dislike": ["Inconsistent quality", "Unsatisfactory flavor"]}
{"place_id": "1859958211", "place_name": "쌀눈한입만두직영점", "like": [], "dislike": []}
{"place_id": "832676692", "place_name": "명랑핫도그 강릉대학로점", "like": ["Tasty food", "Convenience"], "dislike": ["Sauce consistency"]}
{"place_id": "15356407", "place_name": "금홍대게", "like": ["Delicious food", "Excellent service", "Fresh seafood", "High-quality ingredients", "Generous portions"], "dislike": []}
{"place_id": "1678255482", "place_name": "금화식당", "like": ["Delicious food", "Generous portions", "Clean environment", "Friendly service", "Variety of fish"], "dislike": ["Unfriendly service", "Poor communication", "Inconsistent treatment"]}
{"place_id": "21830287", "place_name": "기사문", "like": ["Delicious food", "Attentive service", "Pleasant atmosphere", "Unique flavors", "Fresh ingredients"], "dislike": ["Strong seasoning"]}
{"place_id": "1635128478", "place_name": "기와집닭칼국수", "like": ["Delicious food", "Clean broth", "Friendly service", "Spacious interior", "Welcoming atmosphere"], "dislike": ["Insufficient ingredients"]}
{"place_id": "1573050586", "place_name": "기와집흑염소", "like": ["Healthy taste", "Tasty food", "Spicy flavor", "Friendly staff"], "dislike": []}
{"place_id": "1364014336", "place_name": "길목푸드", "like": ["Nostalgic taste", "Delicious food", "Well-prepared dishes", "Spicy rice cakes"], "dislike": ["Spiciness", "Less crispy food"]}
{"place_id": "105450535", "place_name": "길손", "like": ["Delicious food", "Generous portions", "Friendly service", "Flavorful seafood", "Well-seasoned dishes"], "dislike": ["Strong seasoning"]}
{"place_id": "1545162347", "place_name": "김가네식당", "like": ["Delicious food", "Generous portions", "Good side dishes", "Consistent taste", "Mild flavor"], "dislike": ["Bland taste", "Poor soup quality", "Reused side dishes", "Insufficient ingredients", "Unpleasant experience"]}
{"place_id": "72020434", "place_name": "김명자낙지마당 강릉점", "like": ["Delicious food", "Flavorful seasoning", "Generous portions", "Clean environment", "Fresh ingredients"], "dislike": ["Inconsistent spiciness", "Limited reservations", "Slow service"]}
{"place_id": "1020078575", "place_name": "김밥나라 주문진점", "like": ["Friendly service"], "dislike": ["Inconsistent food quality", "Poor service", "Salty food", "Stale rice", "Incorrect order handling"]}
{"place_id": "1507071331", "place_name": "김밥천국 서지골점", "like": ["Generous portions", "Tasty food"], "dislike": ["Bland food", "Poor value"]}
{"place_id": "1670400618", "place_name": "김밥천국 임당점", "like": ["Tasty food", "Unique presentation", "Friendly service"], "dislike": ["Unfamiliar taste", "Unhygienic service", "Allergy concerns"]}
{"place_id": "36408866", "place_name": "김부자국밥", "like": ["Delicious food", "Friendly service", "Generous portions", "Spicy flavor", "Tasty takeout"], "dislike": ["Bland taste"]}
{"place_id": "1615844982", "place_name": "김여사네", "like": [], "dislike": []}
{"place_id": "20364475", "place_name": "김윤미전복삼계탕 강릉본점", "like": ["Delicious food", "Healthy options", "Friendly service", "Local cuisine", "Takeout option"], "dislike": ["Poor hygiene", "Inadequate service", "Unpleasant atmosphere", "Small portions", "Thick texture"]}
{"place_id": "804014354", "place_name": "까막장이야기", "like": ["Delicious food", "Unique dishes", "Generous portions", "Friendly service", "Affordable prices"], "dislike": []}
{"place_id": "15315322", "place_name": "까치칼국수 강릉역", "like": ["Clean environment", "Delicious food", "Friendly service", "Generous portions", "Diverse menu"], "dislike": []}
{"place_id": "1839877500", "place_name": "깐부네", "like": ["Personalized service", "Delicious food", "Generous portions", "Fresh ingredients", "Memorable experience"], "dislike": ["Disappointing ribeye steak"]}
{"place_id": "1723151586", "place_name": "깜상네야", "like": [], "dislike": []}
{"place_id": "13166281", "place_name": "꺽다리아줌마해장국", "like": ["Delicious food", "Excellent soup", "Affordable prices"], "dislike": ["Spiciness", "Bland taste"]}
{"place_id": "1441879525", "place_name": "꼬김꼬김", "like": ["Good value", "Delicious food", "Friendly service"], "dislike": []}
{"place_id": "1119936930", "place_name": "꼬지사께 강릉교동점", "like": ["Delicious food", "Authentic experience", "Wide drink selection", "Pleasant atmosphere", "Friendly service"], "dislike": ["Unusual taste"]}
{"place_id": "12038465", "place_name": "꼭지네식당", "like": ["Delicious food", "Refreshing noodles", "Tasty bulgogi", "Fresh ingredients", "Cleanliness"], "dislike": []}
{"place_id": "36195920", "place_name": "꼼지락", "like": ["Fresh seafood", "Delicious food", "Pleasant atmosphere", "Friendly service", "Good value"], "dislike": []}
{"place_id": "21382681", "place_name": "꽃보다소", "like": ["Delicious food", "Friendly staff", "Spacious for groups", "Good value", "Generous portions"], "dislike": []}
{"place_id": "1188604096", "place_name": "꿀꺽", "like": ["Delicious food", "Friendly service", "Fresh meat", "Clean environment", "Family-friendly"], "dislike": []}
{"place_id": "1922522944", "place_name": "꿀삼겹전부침", "like": [], "dislike": []}
{"place_id": "15151640", "place_name": "대원당", "like": ["Delicious taste", "Generous portions", "Pleasant atmosphere", "Affordable prices", "Family-friendly"], "dislike": ["Limited parking"]}
{"place_id": "1547836970", "place_name": "끼리", "like": ["Local charm", "Delicious food", "Friendly service"], "dislike": ["Poor service"]}
{"place_id": "15303970", "place_name": "나그네식당", "like": [], "dislike": []}
{"place_id": "1623103473", "place_name": "나능이버섯백숙", "like": ["Delicious food", "Rich flavor", "Tender meat", "Generous portions", "Friendly service"], "dislike": ["Unfriendly service", "Unfriendly cashier"]}
{"place_id": "33556999", "place_name": "나린면옥", "like": ["Delicious food", "Generous portions", "Friendly service", "Unique presentation", "Convenient parking"], "dislike": ["Cold noodles", "Menu restrictions", "Bland taste", "Lukewarm broth", "Solo dining restriction"]}
{"place_id": "1704605277", "place_name": "나모야 강릉점", "like": ["Delicious food", "Comfortable environment", "Generous portions", "Quick service", "Fresh ingredients"], "dislike": []}
{"place_id": "1415619635", "place_name": "나상명강릉초당순두부", "like": ["Delicious food", "Generous portions", "Clean environment", "Friendly service", "Unique dishes"], "dislike": ["Noisy atmosphere", "Pet restrictions"]}
{"place_id": "1392543507", "place_name": "나온", "like": ["Clean environment", "Family-friendly", "Delicious food", "Generous portions", "High-quality ingredients"], "dislike": ["Strong smell", "Salty stew", "Gender-biased service"]}
{"place_id": "15310761", "place_name": "나운칼국수 강릉나운장칼국수 본점", "like": ["Delicious food", "Generous portions", "Friendly service", "Convenient ordering", "Rich flavors"], "dislike": ["Lack of appeal", "Uncomfortable temperature", "Overpowering sweetness"]}
{"place_id": "37056132", "place_name": "나폴리선생in교동", "like": ["Delicious food", "Cozy atmosphere", "Fresh ingredients", "Friendly owner", "Spacious interior"], "dislike": ["Incomplete menu information"]}
{"place_id": "38636188", "place_name": "낙지대장", "like": ["Tasty food", "High value"], "dislike": ["Poor service", "Expensive prices", "Low food quality", "Rude staff", "Slow service"]}
{"place_id": "1693850894", "place_name": "낙천식당", "like": ["Tasty food", "Friendly service", "Popular with locals", "Generous portions", "Good value"], "dislike": ["Old facilities"]}
{"place_id": "37640620", "place_name": "난설헌메밀촌", "like": ["Delicious flavor", "Clean environment", "Friendly service", "Refreshing noodles", "Unique presentation"], "dislike": []}
{"place_id": "1884837446", "place_name": "날라리포차", "like": [], "dislike": []}
{"place_id": "35678301", "place_name": "날밀보리뜰", "like": ["Delicious food", "Homestyle taste", "Fresh ingredients"], "dislike": []}
{"place_id": "1796441724", "place_name": "남강릉막국수", "like": ["Tasty food", "Variety", "Generous portions", "Reasonable prices", "Authentic broth"], "dislike": ["Portion size"]}
{"place_id": "1490621136", "place_name": "남경막국수 주문진", "like": ["Delicious food", "Scenic view", "Friendly service", "Unique flavors", "Clean atmosphere"], "dislike": ["Price increase", "Lack of egg", "Unremarkable dish"]}
{"place_id": "1796713036", "place_name": "매염방", "like": ["Delicious food", "Friendly service", "Generous portions", "Elegant interior", "Flavorful dishes"], "dislike": ["Spiciness"]}
{"place_id": "1152902774", "place_name": "남경카페 젤라또", "like": [], "dislike": []}
{"place_id": "1722539894", "place_name": "남도보쌈짚 강릉내곡점", "like": ["Delicious food", "Friendly service", "Unique flavors", "Clean facilities", "Spacious interior"], "dislike": ["Inconsistent service", "Poor food quality", "Misleading menu"]}
{"place_id": "15318709", "place_name": "남매식당", "like": ["Delicious food", "Generous portions", "Friendly service", "Fresh ingredients", "Good value"], "dislike": []}
{"place_id": "1341080383", "place_name": "효자동설렁탕 강릉점", "like": ["Delicious broth", "Friendly service", "Generous portions", "Free noodle refills"], "dislike": ["Tough meat", "Stale rice", "Poor service", "Unpleasant taste", "Burnt smell"]}
{"place_id": "20322986", "place_name": "우미관 강릉본점", "like": ["Delicious food", "Generous portions", "Friendly service", "Fresh ingredients", "Unique side dishes"], "dislike": ["Limited menu", "Weak broth"]}
{"place_id": "127087250", "place_name": "유광회관1호점", "like": ["Delicious food", "Generous portions", "Friendly staff", "Comfortable seating", "Child-friendly menu"], "dislike": ["Poor service", "Unclean facilities", "Incorrect billing"]}
{"place_id": "1565348057", "place_name": "솔향한우곰탕", "like": ["Delicious food", "Quality meat", "Tasty kimchi", "Friendly service", "Generous portions"], "dislike": []}
{"place_id": "15287905", "place_name": "남문칼국수", "like": ["Delicious food", "Generous portions", "Unique atmosphere", "Authentic flavor", "Friendly service"], "dislike": ["Bland taste", "Unusual dish", "Mild seasoning"]}
{"place_id": "1655301333", "place_name": "남산골", "like": [], "dislike": []}
{"place_id": "21563187", "place_name": "남애막국수", "like": ["Delicious food", "Tasty side dishes", "Comfortable dining", "Friendly service", "Generous portions"], "dislike": []}
{"place_id": "1290960811", "place_name": "남애막국수", "like": ["Delicious food", "Complementary flavors"], "dislike": []}
{"place_id": "20948060", "place_name": "남항진순대국밥", "like": ["Delicious food", "Friendly service", "Generous portions", "Kid-friendly", "Self-service"], "dislike": ["Bitter kimchi", "Diminished flavor", "Mediocre side dish"]}
{"place_id": "15349681", "place_name": "남항진어촌식당", "like": ["Delicious food", "Friendly service", "Generous portions", "Fresh ingredients", "Clean facilities"], "dislike": ["Fish bones", "Hard texture"]}
{"place_id": "15351961", "place_name": "남향막국수 본점", "like": ["Delicious food", "Clean facilities", "Friendly service", "Good value", "Comfortable environment"], "dislike": []}
{"place_id": "1141037052", "place_name": "남향막국수청량점", "like": ["Delicious food", "Reasonable prices", "Friendly service", "Clean environment", "Quick service"], "dislike": ["Average taste"]}
{"place_id": "1192593290", "place_name": "납돌추어탕", "like": ["Authentic kimchi", "Delicious food", "Freshly cooked rice", "Good value"], "dislike": []}
{"place_id": "1949307602", "place_name": "낮밥밤술", "like": [], "dislike": []}
{"place_id": "1593466816", "place_name": "내마음에찜 강릉본점", "like": ["Delicious food", "Generous portions", "Enjoyable seafood", "Fresh ingredients", "Spicy flavor"], "dislike": ["Small abalone", "Dry fish roe", "Unremarkable seasoning"]}
{"place_id": "2051586969", "place_name": "강릉얼큰이냉면 홍천점", "like": [], "dislike": []}
{"place_id": "1361647162", "place_name": "냉삼꼬세", "like": ["Delicious food", "Generous portions", "Tasty dishes", "Friendly service", "Good value"], "dislike": ["Limited seating"]}
{"place_id": "38215574", "place_name": "네스트커리", "like": ["Family-friendly", "Cozy atmosphere", "Delicious food", "Reasonable price", "High-quality ingredients"], "dislike": []}
{"place_id": "11626341", "place_name": "노래곡막국수", "like": ["Delicious food", "Thoughtful service", "Family-friendly atmosphere", "Spacious interior", "Generous portions"], "dislike": ["Warm noodles"]}
{"place_id": "1109196561", "place_name": "녹원삼겹살데이", "like": ["Delicious food", "Friendly service", "Fresh ingredients", "Refreshing flavor", "Frequent visits"], "dislike": []}
{"place_id": "1912362480", "place_name": "논가집옹심이 강릉본점", "like": ["Delicious food", "Authentic taste", "Generous portions", "Friendly service", "Unique texture"], "dislike": ["Sticky tables", "Soft noodles"]}
{"place_id": "238003529", "place_name": "논고랑추어탕", "like": ["Delicious food", "Friendly service"], "dislike": []}
{"place_id": "37716635", "place_name": "놀랄호떡", "like": ["Affordable prices", "Unique flavors", "Efficient service", "Child-friendly", "Delicious food"], "dislike": ["Hygiene concerns"]}
{"place_id": "1430509021", "place_name": "다올닭반마리칼국수", "like": ["Flavorful food", "Generous portions", "Authentic experience", "Friendly service", "Clean environment"], "dislike": []}
{"place_id": "1750586157", "place_name": "다원별채식당", "like": [], "dislike": []}
{"place_id": "1229266906", "place_name": "달구지막창 주문진점", "like": ["Generous portions", "Tasty food", "Late-night service", "Good service", "Friendly staff"], "dislike": ["High cost"]}
{"place_id": "1508958502", "place_name": "달떡볶이 강릉중앙점", "like": ["Delicious food", "Generous portions", "Friendly service", "Nostalgic atmosphere", "High-quality tteokbokki"], "dislike": ["Tasteless liver", "Leaking packaging", "Unpleasant offal"]}
{"place_id": "1259569608", "place_name": "연화 닭발과파전", "like": ["High-quality chicken feet", "Flavorful seafood pancake", "Delicious seasoning", "Generous portions", "Tasty side dish"], "dislike": ["Undercooked chicken feet", "Unavailable kimchi stew", "Greasy potato pancake", "Disappointing spicy seasoning"]}
{"place_id": "34105205", "place_name": "대게한마당주문진본점", "like": ["Delicious food", "Friendly service", "Generous portions", "Clean facilities", "Affordable pricing"], "dislike": []}
{"place_id": "1872357150", "place_name": "대관령원조감자탕", "like": ["Tasty food", "Generous portions", "Spicy flavor", "Good value", "Delicious taste"], "dislike": ["Slightly salty"]}
{"place_id": "1760318925", "place_name": "대관령주막", "like": ["Organic ingredients", "Homemade dishes", "Delicious food", "Authentic taste", "Private rooms"], "dislike": []}
{"place_id": "1969371246", "place_name": "대굴령민들레동산", "like": [], "dislike": []}
{"place_id": "1780530675", "place_name": "대기리벌말식당", "like": ["Delicious food", "Generous portions", "Buffet-style meal", "Good value", "High quality"], "dislike": ["Long wait times"]}
{"place_id": "15320570", "place_name": "대륙해물탕해물찜", "like": ["Delicious taste", "Fresh seafood", "Generous portions", "Friendly service", "Good value"], "dislike": ["Poor service", "Bland taste", "Insufficient seafood", "Mandatory ordering", "Poor value"]}
{"place_id": "15311869", "place_name": "더갈만", "like": ["Delicious food", "Authentic taste", "Friendly service", "Unique pairing", "Excellent side dishes"], "dislike": []}
{"place_id": "1453674849", "place_name": "더족발 강릉점", "like": ["Local favorite", "Tasty food", "Good meal", "Spacious seating", "Good value"], "dislike": []}
{"place_id": "1739251514", "place_name": "더더더통큰한식뷔페", "like": ["Delicious food", "Healthy options", "Cleanliness", "Variety of menu", "Friendly service"], "dislike": []}
{"place_id": "1637551545", "place_name": "더프롤로그필드 강릉 대게 본점", "like": ["Diverse menu", "Delicious food", "Beautiful view", "Pleasant atmosphere", "Friendly service"], "dislike": []}
{"place_id": "38779664", "place_name": "더하썸", "like": ["Delicious coffee", "Pleasant atmosphere", "Unique offerings", "Suitable for gifts", "Tasty snacks"], "dislike": ["Average coffee"]}
{"place_id": "36348268", "place_name": "도스마스 강릉원주대점", "like": ["Delicious food", "Satisfying portions", "Consistent taste", "Spacious interior", "Complementary sides"], "dislike": ["Cleanliness", "Small portions"]}
{"place_id": "1443450239", "place_name": "샵도쿄시장 강릉교동점", "like": ["Delicious food", "Friendly service", "Diverse menu", "Comfortable environment", "Late hours"], "dislike": []}
{"place_id": "1029274799", "place_name": "돈마루솥뚜껑", "like": ["Delicious food", "Lively atmosphere", "High-quality meat", "Generous side dishes", "Friendly service"], "dislike": []}
{"place_id": "1801909812", "place_name": "돈현이네", "like": ["Delicious food", "Friendly service", "Cleanliness", "Convenient experience", "Signature dish"], "dislike": []}
{"place_id": "1916824498", "place_name": "동궁염소탕", "like": ["Tender ribs", "Delicious food"], "dislike": []}
{"place_id": "15304751", "place_name": "동부감자옹심이", "like": ["Delicious food", "Generous portions", "Friendly service", "Local ingredients", "Unique dishes"], "dislike": ["Limited availability", "Salty taste", "Unfavorable main dish"]}
{"place_id": "37628157", "place_name": "동일장칼국수 내곡점", "like": ["Generous portions", "Delicious food", "Flavorful broth", "Clean environment", "Nutritious options"], "dislike": ["Inconvenient parking", "Long wait times"]}
{"place_id": "15368538", "place_name": "동춘해물마을", "like": ["Delicious food", "Generous portions", "Fresh ingredients", "Friendly service", "Unique texture"], "dislike": []}
{"place_id": "15377926", "place_name": "동해막국수", "like": ["Delicious food", "Generous portions", "Affordable prices", "Friendly service", "Convenient parking"], "dislike": ["Inconsistent taste", "Slow service", "Lack of impact"]}
{"place_id": "1918083346", "place_name": "동해바다진미", "like": ["Delicious food", "Fresh ingredients", "Generous portions", "Friendly service", "Good value"], "dislike": []}
{"place_id": "15288728", "place_name": "동해일미", "like": ["Delicious food", "Quality side dishes", "Generous service", "Fresh ingredients", "Family-friendly"], "dislike": ["High price", "Inadequate facilities", "Unsatisfactory taste", "Small portions", "Poor service"]}
{"place_id": "1228005515", "place_name": "두찜 강릉중앙점", "like": ["Delicious food", "Good taste", "Generous portions", "Enjoyable experience", "Suitable for children"], "dislike": ["Insufficient portion size"]}
{"place_id": "1720293609", "place_name": "등촌샤브칼국수 포남점", "like": ["Delicious food", "Variety of options", "Generous portions", "Friendly service", "Good value"], "dislike": []}
{"place_id": "1379005450", "place_name": "떡볶이는생각하지마세요", "like": ["Delicious food", "Generous portions", "Clean facilities", "Friendly service", "Good value"], "dislike": []}
{"place_id": "1552987348", "place_name": "또래오래 포남입암점", "like": ["Delicious food", "Friendly service", "Crispy chicken", "Spicy flavor", "Generous portions"], "dislike": ["Poor taste"]}
{"place_id": "1494239283", "place_name": "뜸들이다 강릉역점", "like": ["Tasty food", "Clean interior", "Generous portions", "Quick service"], "dislike": ["Unappealing taste", "Lack of appeal", "Insufficient sauce"]}
{"place_id": "1129014067", "place_name": "라라푸드 홍짬순", "like": ["Fresh seafood", "Generous portions", "Friendly service", "Delicious food", "Attentive service"], "dislike": []}
{"place_id": "1281025784", "place_name": "라온네돌판집", "like": ["High-quality meat", "Delicious side dishes", "Generous portions", "Thick pork belly", "Variety of sides"], "dislike": []}
{"place_id": "1062796225", "place_name": "로타리식당", "like": ["Delicious food", "Friendly service"], "dislike": []}
{"place_id": "1890343764", "place_name": "루사", "like": ["Cleanliness", "Delicious food", "Friendly service", "Generous portions", "Menu variety"], "dislike": []}
{"place_id": "1283316731", "place_name": "카페 리몽 선교장 다식만들기 체험", "like": ["Delicious food", "Refreshing drinks", "Pleasant atmosphere", "Comfortable setting", "Scenic views"], "dislike": ["Expensive menu", "Inaccurate information", "Lack of privacy", "Inconsistent instruction", "Staff service"]}
{"place_id": "1237585846", "place_name": "마들식당", "like": ["Delicious food", "Quality ingredients", "Friendly service", "Unique flavors", "Generous portions"], "dislike": ["Ingredient freshness", "Kitchen cleanliness"]}
{"place_id": "1239170756", "place_name": "마산미나아구찜", "like": ["Delicious food", "Friendly service", "Tasty side dishes"], "dislike": ["Salty dishes", "Disappointing stew", "Poor value"]}
{"place_id": "1175159881", "place_name": "마운틴 화덕피자", "like": ["Delicious food", "Cozy atmosphere", "Friendly service", "Fresh ingredients", "Beautiful interior"], "dislike": []}
{"place_id": "1871376352", "place_name": "마카", "like": ["Delicious food", "Crispy texture", "Friendly service", "Cozy seating", "Fresh ingredients"], "dislike": ["Slow service"]}
{"place_id": "1364322100", "place_name": "만나생선조림", "like": ["Delicious food"], "dislike": []}
{"place_id": "1679108075", "place_name": "만나옹심이손칼국수", "like": ["Delicious food", "Authentic taste", "Friendly service", "Clean facilities"], "dislike": []}
{"place_id": "32185304", "place_name": "만동면옥", "like": ["Delicious food", "Generous portions", "Authentic taste", "Friendly service", "Cleanliness"], "dislike": []}
{"place_id": "15349490", "place_name": "만선감자옹심이", "like": ["Delicious taste", "Affordable pricing", "Generous portions", "Unique flavor", "Good value"], "dislike": ["Unfriendly service", "Long wait time", "Excessively spicy"]}
{"place_id": "19900264", "place_name": "만선식당", "like": ["Tasty food", "Young radish kimchi"], "dislike": ["Insufficient squid", "Expired makgeolli"]}
{"place_id": "1201841301", "place_name": "만선포차 강릉점", "like": ["Personalized service", "Delicious food", "High-quality seafood", "Fresh ingredients", "Unique dishes"], "dislike": []}
{"place_id": "37059478", "place_name": "만양맛값", "like": ["Delicious food", "Authentic dishes", "Pleasant atmosphere", "Friendly service", "Good value"], "dislike": []}
{"place_id": "231087604", "place_name": "만억정흑염소", "like": ["Delicious food", "Pleasant atmosphere", "Fresh ingredients", "Rich broth flavor", "Friendly staff"], "dislike": ["High price", "Small portion size"]}
{"place_id": "1565454479", "place_name": "만추", "like": ["Friendly service"], "dislike": ["Ordinary experience"]}
{"place_id": "1140567098", "place_name": "맘김밥", "like": ["Authentic taste", "Generous portions", "High-quality ingredients", "Friendly service", "Affordable pricing"], "dislike": []}
{"place_id": "1605560000", "place_name": "맛가득", "like": ["Generous portions", "Delicious food", "Authentic experience", "Friendly service", "Good value"], "dislike": ["Limited flavor variety"]}
{"place_id": "1416506512", "place_name": "맛나칼국수", "like": ["Delicious food", "Cozy atmosphere", "Friendly service", "Good value", "Clean environment"], "dislike": ["Lack of crispiness", "Undercooked dish", "Salty noodles", "Incomplete flavor", "No rice"]}
{"place_id": "1947256113", "place_name": "맛드렁 집밥", "like": ["Generous portions", "Tasty food", "Affordable prices", "Clean food", "Homely atmosphere"], "dislike": []}
{"place_id": "15287430", "place_name": "맛따라길따라", "like": ["Tasty food", "Food combination", "Delicious breakfast"], "dislike": ["Hygiene issues"]}
{"place_id": "1817783356", "place_name": "맛마루부대찌개", "like": ["Delicious food", "Unique dishes", "Generous portions", "Friendly service", "Scenic view"], "dislike": []}
{"place_id": "1284297711", "place_name": "맛사랑장칼국수", "like": ["Delicious food", "Homemade dishes", "Generous portions", "Friendly service", "Authentic experience"], "dislike": []}
{"place_id": "19442037", "place_name": "맛애정", "like": ["Flavorful food", "Generous portions", "Unique cuisine", "Rich broth", "Fresh ingredients"], "dislike": []}
{"place_id": "15696942", "place_name": "맛있는엄마밥상", "like": ["Delicious food", "Generous portions", "Good value", "Variety of dishes", "Popular spot"], "dislike": []}
{"place_id": "37911034", "place_name": "맛있는초밥집", "like": ["Delicious sushi", "Friendly staff", "Pleasant atmosphere", "Fresh ingredients", "Generous portions"], "dislike": ["Weak flavor"]}
{"place_id": "1956257025", "place_name": "맛있는하루", "like": ["Delicious food", "Friendly service", "Generous portions", "Fresh ingredients", "Great music"], "dislike": ["High cost"]}
{"place_id": "1938239395", "place_name": "맛조이", "like": ["Flexible dining", "Delicious food", "Unique flavor", "Friendly service", "Clean interior"], "dislike": []}
{"place_id": "1476340193", "place_name": "매일국수", "like": ["Affordable pricing", "Tasty side dishes", "Delicious food", "Home-style meals", "Good value"], "dislike": []}
{"place_id": "1085897691", "place_name": "매콤이", "like": ["Delicious food", "Grilled chicken wings", "Friendly service"], "dislike": ["Overpriced", "Poor food quality", "Unprofessional service", "Crowded atmosphere", "Separate charge for rice"]}
{"place_id": "1671909230", "place_name": "매콤이 본점", "like": ["Delicious food", "Generous portions", "Fresh ingredients", "Clean facilities"], "dislike": []}
{"place_id": "1801089531", "place_name": "메기와우렁이", "like": [], "dislike": []}
{"place_id": "15365261", "place_name": "버당말메기촌", "like": ["Delicious food", "Chewy noodles", "Generous portions", "Friendly service", "Relaxed atmosphere"], "dislike": []}
{"place_id": "19325932", "place_name": "메밀능이촌 강릉역본점", "like": ["Delicious food", "Generous portions", "Clean environment", "Friendly service", "Variety of dishes"], "dislike": ["Noisy atmosphere"]}
{"place_id": "1167311952", "place_name": "메밀애감자", "like": ["Delicious food", "Unique flavors", "Generous portions", "Cozy atmosphere", "Friendly service"], "dislike": ["Small portions"]}
{"place_id": "15304020", "place_name": "메밀집", "like": ["Good value", "Delicious food"], "dislike": ["Expensive prices"]}
{"place_id": "37698425", "place_name": "메밀향기", "like": ["Delicious food", "Authentic flavors", "Buckwheat pancakes", "Rich broth", "High-quality ingredients"], "dislike": []}
{"place_id": "1632217656", "place_name": "메시56", "like": ["Delicious food", "Pleasant atmosphere", "Spacious interior", "Fresh ingredients", "Attentive service"], "dislike": ["High price", "Long wait", "Average taste"]}
{"place_id": "12899212", "place_name": "고향횟집", "like": ["Delicious food", "Fresh seafood", "Pleasant view", "Generous portions", "Clean environment"], "dislike": ["Expensive prices", "Ordinary taste", "Unclear pricing"]}
{"place_id": "20771733", "place_name": "면사랑우동가", "like": ["Friendly service"], "dislike": []}
{"place_id": "1149735926", "place_name": "명가네FOOD", "like": ["Affordable pricing", "Delicious food", "Tender pork", "Fresh vegetables", "Variety of options"], "dislike": []}
{"place_id": "37112546", "place_name": "명가찜", "like": ["Delicious taste", "Generous portions", "Fresh seafood", "Friendly service", "Unique dishes"], "dislike": []}
{"place_id": "1657903037", "place_name": "명경막국수", "like": ["Delicious food", "Generous portions", "Friendly service", "Unique noodles", "Flavorful broth"], "dislike": []}
{"place_id": "1613946855", "place_name": "명문", "like": ["Fresh seafood", "Delicious food", "Generous portions", "Friendly service", "Good value"], "dislike": []}
{"place_id": "945406332", "place_name": "명산숯불구이", "like": ["Delicious food", "Affordable prices", "Friendly service", "High-quality ingredients", "Variety of side dishes"], "dislike": ["Poor hygiene", "Unfriendly service", "Insufficient portion size", "Negative atmosphere", "Poor food quality"]}
{"place_id": "1448729546", "place_name": "명성부침", "like": ["Tasty food", "Friendly service", "Neat packaging"], "dislike": ["Poor hygiene"]}
{"place_id": "1689605274", "place_name": "명성식당", "like": [], "dislike": []}
{"place_id": "1377680421", "place_name": "명성오징어순대", "like": ["Delicious food", "Friendly service", "Efficient ordering", "Variety of restaurants", "Reasonable value"], "dislike": ["Inconsistent flavors", "Small portion size", "Inferior taste"]}
{"place_id": "1639593114", "place_name": "명성옥", "like": ["Clean space", "Delicious food", "Friendly service", "Rich flavor", "Generous portions"], "dislike": ["Insufficient rice", "Limited hours"]}
{"place_id": "15304031", "place_name": "명신식당", "like": ["Home-cooked taste", "Delicious food", "Local cuisine"], "dislike": []}
{"place_id": "1890450106", "place_name": "명주뜰", "like": ["Delicious food", "Clean environment", "High quality", "Friendly service", "Spacious parking"], "dislike": []}
{"place_id": "21739662", "place_name": "명진옥", "like": ["Delicious food", "Tasty dishes", "Friendly service", "Homely atmosphere", "Generous portions"], "dislike": []}
{"place_id": "35384805", "place_name": "명희네", "like": ["Affordable", "Generous portions", "Nice atmosphere", "Friendly service"], "dislike": []}
{"place_id": "15291375", "place_name": "모두랑식당", "like": ["Traditional experience", "Cozy atmosphere", "Delicious food", "Friendly service", "Handmade dumplings"], "dislike": []}
{"place_id": "1122991660", "place_name": "모두와우동", "like": ["Tasty food", "Reasonable pricing", "Generous service", "Consistent taste", "Variety of menu"], "dislike": ["Limited availability", "Misleading description"]}
{"place_id": "38005185", "place_name": "모래내메밀촌", "like": ["Good taste", "Affordable prices", "Healthy dishes", "Friendly staff", "Cleanliness"], "dislike": ["No high chairs"]}
{"place_id": "15368476", "place_name": "모래시계 식당", "like": ["Delicious food", "Clean environment", "Family-friendly", "Friendly service", "Diverse dishes"], "dislike": []}
{"place_id": "15291386", "place_name": "모래틈식당", "like": ["Pork ribs"], "dislike": []}
{"place_id": "1394821073", "place_name": "몬우골", "like": [], "dislike": []}
{"place_id": "1732446351", "place_name": "못난이맛집", "like": [], "dislike": ["Unpleasant taste"]}
{"place_id": "1684801488", "place_name": "못잊어분식", "like": ["Delicious food", "Signature dish", "Friendly service"], "dislike": []}
{"place_id": "15304990", "place_name": "못잊어집", "like": ["Flavorful food", "Friendly service", "Generous portions", "Clean establishment", "Good with alcohol"], "dislike": ["Limited alcohol order"]}
{"place_id": "1522477742", "place_name": "몽실네밥집", "like": ["Delicious food", "Authentic flavors", "Friendly service", "Clean facilities", "Affordable pricing"], "dislike": ["Limited options", "Salty taste"]}
{"place_id": "37486590", "place_name": "몽실이", "like": ["Delicious food", "Friendly staff", "Authentic flavors", "Quality ingredients"], "dislike": []}
{"place_id": "939233594", "place_name": "몽유", "like": ["Diverse menu", "Delicious food", "Cozy atmosphere", "Friendly service", "Unique flavors"], "dislike": []}
{"place_id": "15293053", "place_name": "묘정", "like": ["Delicious food", "Spicy flavor", "Local authenticity", "Friendly service"], "dislike": ["Small portions"]}
{"place_id": "1243193207", "place_name": "무국적식탁", "like": ["Delicious food", "Attentive service", "Pleasant atmosphere", "Unique menu", "Generous portions"], "dislike": ["Limited portions"]}
{"place_id": "1387895891", "place_name": "무진장 돼지순대국밥", "like": ["Delicious food", "Generous portions", "Clean facilities", "Spicy flavor", "Friendly service"], "dislike": ["Poor value", "Reduced portions"]}
{"place_id": "1649429068", "place_name": "문푸드", "like": [], "dislike": []}
{"place_id": "15295834", "place_name": "문화식당", "like": ["Delicious food", "Cozy atmosphere", "Friendly service", "Generous portions", "Traditional dishes"], "dislike": ["High price", "Bland dumplings", "Spicy for some"]}
{"place_id": "1698706278", "place_name": "미래먹거리", "like": ["Handmade food", "Artistic shrimp tempura", "Delicious taste"], "dislike": ["Order management issues"]}
{"place_id": "12808769", "place_name": "미림식당", "like": ["Delicious food", "Friendly service", "Authentic atmosphere", "Skilled cooking", "Hidden gem"], "dislike": ["Large portions", "Unattractive exterior", "Expensive prices"]}
{"place_id": "54650219", "place_name": "미림헌", "like": ["Delicious food", "Flavorful broth", "Fresh ingredients", "Generous portions", "Signature dishes"], "dislike": ["Limited menu", "Average taste", "Not inexpensive"]}
{"place_id": "1195200384", "place_name": "미면소 강릉", "like": ["Delicious food", "Generous portions", "Affordable prices", "Clean environment", "Quick service"], "dislike": []}
{"place_id": "30949194", "place_name": "미선이네감자옹심이", "like": ["Delicious food", "Generous portions", "Authentic taste", "Friendly service", "Unique dishes"], "dislike": ["Unfriendly service", "Bland taste", "Limited facilities"]}
{"place_id": "1550961346", "place_name": "미스터쭈삼 강릉본점", "like": ["Delicious food", "Friendly service", "Fresh ingredients", "Good flavors", "Generous portions"], "dislike": ["Small portions"]}
{"place_id": "1140539859", "place_name": "Miss한우", "like": ["Delicious food", "High-quality meat", "Friendly service", "Good value", "Clean environment"], "dislike": ["Limited menu options"]}
{"place_id": "1320953209", "place_name": "미자네밥포차", "like": ["Taste", "Friendly service"], "dislike": []}
{"place_id": "15364381", "place_name": "미향식당", "like": ["Unique ingredients", "Satisfying taste", "Food quality", "Friendly service", "Generous portions"], "dislike": ["Limited seafood variety", "Unpleasant smell", "Price discrepancy", "Unfavorable taste"]}
{"place_id": "1706696364", "place_name": "미화식당", "like": ["Delicious food", "Friendly service", "Fresh ingredients", "Good value", "Unique pancake"], "dislike": []}
{"place_id": "1579470704", "place_name": "민쉐프의푸드스토리", "like": [], "dislike": []}
{"place_id": "1881777746", "place_name": "민지네", "like": ["Friendly service", "Delicious food"], "dislike": []}
{"place_id": "1316825170", "place_name": "믿음식당", "like": ["Taste", "Friendly service"], "dislike": []}
{"place_id": "1864892993", "place_name": "바깥 강릉", "like": ["Tasty food", "Pleasant atmosphere", "Friendly service", "Generous portions", "Good value"], "dislike": ["Crowded atmosphere"]}
{"place_id": "278084827", "place_name": "바다굴모듬찜", "like": ["Delicious food", "Generous portions", "Friendly service", "Excellent cooking", "Generous hospitality"], "dislike": ["Missing items"]}
{"place_id": "1024202971", "place_name": "바다를 담다", "like": ["Delicious food", "Generous portions", "Fresh seafood", "Scenic view", "Friendly service"], "dislike": []}
{"place_id": "31508723", "place_name": "바다사랑", "like": ["Delicious food", "Friendly service", "Homestyle cooking"], "dislike": []}
{"place_id": "15354357", "place_name": "바다식당", "like": ["Homemade taste", "Vegetable supply", "Group gatherings", "Generous portions", "Grilled fish variety"], "dislike": ["Insufficient seasoning"]}
{"place_id": "1562025223", "place_name": "바다양푼이동태탕 강릉교동점", "like": ["Good taste", "Clean broth", "Delicious food", "Good value", "Fresh ingredients"], "dislike": []}
{"place_id": "15298341", "place_name": "바다풍경", "like": [], "dislike": []}
{"place_id": "1056043215", "place_name": "바다향기가", "like": ["Delicious food", "Generous portions", "Flavorful dishes", "Friendly service", "Customizable spiciness"], "dislike": ["Separate charge for rice"]}
{"place_id": "1319180683", "place_name": "바닮참치&연어", "like": ["Delicious taste", "Good value", "Memorable experience", "High-quality tuna", "Suitable for solo dining"], "dislike": ["Lack of corkage", "Small portions", "Short hours"]}
{"place_id": "1946538455", "place_name": "강릉사임당오징어순대", "like": ["Delicious food", "Generous portions", "Quick service", "Fresh ingredients", "Unique dish"], "dislike": ["High price", "Long waiting time", "Slow service"]}
{"place_id": "38422902", "place_name": "박대감화로구이 강릉교동택지점", "like": ["Delicious pork ribs", "Convenient pre-grilled service", "High-quality ingredients", "Family-friendly", "Clean environment"], "dislike": []}
{"place_id": "19949637", "place_name": "반구정참숯민물장어", "like": ["Delicious food", "Friendly service", "Clean facilities", "Private rooms", "Fresh ingredients"], "dislike": ["Poor hygiene", "Disappointing eel", "Unsatisfactory taste", "Mediocre side dishes", "Poor food quality"]}
{"place_id": "15338377", "place_name": "반상먹거리", "like": ["Tasty food", "Friendly service", "Generous portions"], "dislike": []}
{"place_id": "1289106171", "place_name": "반주", "like": ["Personalized service", "Delicious food", "Pleasant atmosphere", "Generous portions", "Good value"], "dislike": []}
{"place_id": "1605276330", "place_name": "밤하늘포차", "like": ["Good value", "Well-prepared food", "Friendly service", "Delicious food"], "dislike": []}
{"place_id": "1449087303", "place_name": "밥&술", "like": ["Delicious food", "Clean environment", "Friendly service", "Generous portions", "Affordable prices"], "dislike": []}
{"place_id": "15329662", "place_name": "밥먹는마을", "like": ["Delicious food", "Homestyle atmosphere", "Generous portions", "Friendly service", "Variety of side dishes"], "dislike": ["Bland taste", "Poor value", "Lack of ingredients"]}
{"place_id": "1337210252", "place_name": "밥잘하는누나", "like": [], "dislike": ["Bland taste", "Expensive prices"]}
{"place_id": "615540229", "place_name": "밥톨", "like": ["Delicious food", "Affordable pricing", "Generous portions", "Friendly staff", "Quick service"], "dislike": ["Home-cooked taste"]}
{"place_id": "1048957955", "place_name": "밥한그릇", "like": ["Delicious food", "Affordable pricing", "Friendly service", "Tasty side dishes", "Good presentation"], "dislike": []}
{"place_id": "1458809246", "place_name": "방일해장국 옥천점", "like": ["Convenient location"], "dislike": ["Bland flavor", "Unpleasant taste", "Poor value"]}
{"place_id": "1243659687", "place_name": "방학골추어탕", "like": ["Delicious food", "Friendly service", "Generous portions", "Traditional atmosphere", "Rich flavor"], "dislike": ["Unfriendly service", "Self-service water", "Lack of attentiveness"]}
{"place_id": "15351782", "place_name": "배다리막국수", "like": ["Affordable prices", "Authentic flavors", "Quick service", "Friendly service", "Spacious interior"], "dislike": ["Bland seasoning", "Unpleasant smell", "Hygiene issues", "Poor service", "Soft noodles"]}
{"place_id": "1229297638", "place_name": "배불뚝이", "like": ["Delicious food", "Friendly service", "Generous portions", "High-quality ingredients", "Excellent side dish"], "dislike": []}
{"place_id": "1255404157", "place_name": "백사장", "like": ["Delicious food", "Unique dishes", "Friendly service", "Generous portions", "Fresh ingredients"], "dislike": []}
{"place_id": "1056666978", "place_name": "백암순대국", "like": ["Tasty food", "Friendly service", "Clean environment", "Generous portions", "Spicy options"], "dislike": ["Spicy soup"]}
{"place_id": "1334298702", "place_name": "백암왕순대", "like": ["Delicious food", "Excellent kimchi", "Flavorful broth", "Generous portions", "Friendly service"], "dislike": ["Expensive options", "Small portions", "Salty broth", "Changed quality"]}
{"place_id": "15290632", "place_name": "백제삼계탕", "like": ["Delicious food", "Generous portions", "Affordable Samgyetang", "Attentive service", "Comfortable atmosphere"], "dislike": ["Increased prices"]}
{"place_id": "38268032", "place_name": "버거웍스", "like": ["Tasty burgers", "Generous portions", "Scenic view", "Friendly service", "High-quality atmosphere"], "dislike": ["Pricey burgers", "Inferior soda", "Inconvenient to eat", "Limited sea view", "Average burgers"]}
{"place_id": "15292474", "place_name": "벌집", "like": ["Delicious food", "Unique atmosphere", "Clean broth", "Excellent noodles", "Reasonable pricing"], "dislike": ["Less flavorful broth", "Long wait times", "Stronger gochujang flavor"]}
{"place_id": "1294584035", "place_name": "법원구내식당", "like": ["Delicious food", "Affordable price", "Friendly service", "Diverse side dishes", "Fresh ingredients"], "dislike": ["Uncomfortable for solo diners"]}
{"place_id": "1360913554", "place_name": "별내리는산북", "like": ["Scenic view", "Variety of dishes", "High-quality meat", "Relaxing atmosphere", "Friendly service"], "dislike": []}
{"place_id": "1503837624", "place_name": "별들의고향", "like": ["Delicious food", "Generous portions", "Variety of dishes", "Friendly service", "High-quality meat"], "dislike": []}
{"place_id": "20739491", "place_name": "별미순대국", "like": ["Unique taste", "Delicious food", "Friendly service"], "dislike": []}
{"place_id": "31147073", "place_name": "별미식당", "like": [], "dislike": []}
{"place_id": "15318769", "place_name": "별미정", "like": ["Tasty food", "Home-cooked taste", "Good value", "Variety of dishes"], "dislike": []}
{"place_id": "15382768", "place_name": "별미해물찜", "like": ["Home-cooked taste", "High-quality food", "Well-presented meal", "Menu variety"], "dislike": []}
{"place_id": "1316667577", "place_name": "별빛포차", "like": ["Value for money", "Generous portions", "Friendly service"], "dislike": []}
{"place_id": "1914101005", "place_name": "별이네", "like": [], "dislike": []}
{"place_id": "15349399", "place_name": "병산감자옹심이", "like": ["Healthy taste", "Authentic flavor", "Fresh ingredients", "Affordable prices", "Unique texture"], "dislike": ["Poor service", "Limited menu", "Average portions", "Unfriendly staff", "Slow service"]}
{"place_id": "31799277", "place_name": "병산닭발과부침개", "like": ["Flavorful food", "Discounted pricing", "Delicious chicken feet", "Spicy food options", "Tasty pancakes"], "dislike": []}
{"place_id": "1366265272", "place_name": "병천순대 내곡점", "like": ["Delicious food", "Generous portions", "Friendly service", "Clean environment", "Reasonable pricing"], "dislike": ["Spiciness level", "Self-service side dishes"]}
{"place_id": "1117927212", "place_name": "병천순대모래내", "like": ["Delicious kimchi", "Generous meat portions", "Minced garlic provision"], "dislike": []}
{"place_id": "38231583", "place_name": "병천황토방순대 사천점", "like": [], "dislike": []}
{"place_id": "12926077", "place_name": "병천황토방순대 초당점", "like": ["Delicious food", "Authentic taste", "Generous portions", "Friendly service", "Cleanliness"], "dislike": []}
{"place_id": "36677629", "place_name": "보광가든", "like": ["Delicious food", "Generous portions", "Friendly service", "Scenic view", "Clean environment"], "dislike": ["High price"]}
{"place_id": "333675733", "place_name": "보글이식당", "like": ["Affordable", "Delicious food", "Generous portions", "Friendly service"], "dislike": []}
{"place_id": "1240841981", "place_name": "보래미즉석추어탕", "like": ["Delicious food", "High-quality rice", "Generous portions"], "dislike": []}
{"place_id": "1154907883", "place_name": "보리향기", "like": ["Delicious food", "Fresh ingredients", "Variety of dishes", "Cozy atmosphere", "Friendly service"], "dislike": []}
{"place_id": "15338997", "place_name": "보배골", "like": ["Delicious food", "Friendly service", "Generous portions", "Fresh ingredients", "Interesting atmosphere"], "dislike": []}
{"place_id": "15316330", "place_name": "보쌈천하", "like": ["Delicious taste", "Generous portions", "Friendly service"], "dislike": []}
{"place_id": "20956496", "place_name": "보영이네해물칼국수 강릉점", "like": ["Delicious food", "Flavorful broth", "Generous portions", "Fresh seafood", "Homemade kimchi"], "dislike": ["Salty broth", "Undercooked noodles"]}
{"place_id": "1880529076", "place_name": "보현가든", "like": ["Delicious food", "Relaxing atmosphere", "Scenic view", "Friendly service", "Clean facilities"], "dislike": ["Thick potato pancake"]}
{"place_id": "1191539809", "place_name": "복뚱이식당", "like": [], "dislike": []}
{"place_id": "21741555", "place_name": "복마니찐빵집", "like": ["Delicious food", "Friendly service", "Unique dumplings", "Good value", "Cleanliness"], "dislike": ["Dumpling skin"]}
{"place_id": "1356899772", "place_name": "복순네식당", "like": [], "dislike": []}
{"place_id": "1505593793", "place_name": "복순네포차", "like": ["Delicious fish"], "dislike": []}
{"place_id": "15389360", "place_name": "복짬", "like": ["Delicious food", "Generous portions", "Friendly service", "Tasty noodles", "Good value"], "dislike": ["Small space"]}
{"place_id": "21746204", "place_name": "복촌식당", "like": ["Home-cooked taste"], "dislike": ["Bland taste", "Slight odor"]}
{"place_id": "15372721", "place_name": "본가동해막국수", "like": ["Delicious food", "Generous portions", "Pleasant atmosphere", "Friendly service", "Unique dishes"], "dislike": ["Food hygiene"]}
{"place_id": "20358529", "place_name": "본가마산아구찜", "like": ["Delicious food", "Flavorful dishes", "Friendly service", "Generous portions", "Affordable prices"], "dislike": ["Long wait time"]}
{"place_id": "1126917861", "place_name": "본도시락 강릉교동점", "like": ["Good taste", "Convenient meal", "Friendly service", "Tasty food", "Varied menu"], "dislike": ["Lack of counterbalance", "Insufficient kimchi", "Missing soup", "Insufficient side dishes", "Disappointing kimchi"]}
{"place_id": "1053416085", "place_name": "본래순대 교동택지점", "like": ["Delicious food", "Generous portions", "High-quality meat", "Friendly service", "Rich broth"], "dislike": []}
{"place_id": "1337808429", "place_name": "본스치킨 입암더샵점", "like": ["Delicious food", "Tasty barbecue", "Enjoyable chicken"], "dislike": []}
{"place_id": "1363542650", "place_name": "본전집 교동점", "like": ["Diverse menu", "Delicious food", "Friendly service", "Spacious atmosphere", "Good value"], "dislike": ["Limited drink options"]}
{"place_id": "15305498", "place_name": "본전해물전문", "like": ["Delicious food", "Friendly service", "Generous portions", "Fresh ingredients", "Good value"], "dislike": []}
{"place_id": "1274361921", "place_name": "본죽&비빔밥cafe 강릉입암점", "like": ["Diverse menu", "Nutritious food", "Delicious food", "Friendly service", "Pleasant atmosphere"], "dislike": []}
{"place_id": "1836672984", "place_name": "본죽 강릉유천점", "like": ["Tasty food", "Generous portions", "Rich flavor", "Friendly service", "Clean facilities"], "dislike": ["Unpleasant smell", "Unsatisfactory taste", "Overly sweet porridge"]}
{"place_id": "11590101", "place_name": "봉평메밀미가연", "like": ["Tasty food", "Unique dishes", "Thoughtful service", "Fresh ingredients", "Clean facilities"], "dislike": []}
{"place_id": "1901843013", "place_name": "봉화산설렁탕 교동점", "like": ["Delicious food", "Spicy customization", "Generous portions", "Friendly service", "Convenient parking"], "dislike": ["Poor taste", "Lack of meat", "Unpleasant smell"]}
{"place_id": "1466519050", "place_name": "부기촌국밥", "like": [], "dislike": []}
{"place_id": "1679691479", "place_name": "부돈산", "like": ["Delicious meat", "Generous portions", "Friendly staff", "Fresh ingredients", "Skilled cooking"], "dislike": ["Noisy atmosphere", "Tough meat", "Limited menu"]}
{"place_id": "12052285", "place_name": "부부보쌈", "like": ["Delicious taste", "High-quality ingredients", "Friendly service", "Comfortable atmosphere", "Clean presentation"], "dislike": ["Changed taste"]}
{"place_id": "15701837", "place_name": "부성가든", "like": ["Traditional meal", "Personalized service", "Delicious food"], "dislike": []}
{"place_id": "1934397587", "place_name": "부엉이회포차", "like": [], "dislike": []}
{"place_id": "37779067", "place_name": "부연동백숙", "like": ["Kid-friendly food", "Delicious food", "Flavorful broth", "Excellent quality"], "dislike": ["Small portions"]}
{"place_id": "15372694", "place_name": "부영식당", "like": ["Delicious food", "Quality dishes", "Family-friendly", "Generous portions", "Friendly service"], "dislike": ["Strong seasoning"]}
{"place_id": "1587875423", "place_name": "부자대게", "like": ["Delicious food", "Generous portions", "Fresh seafood", "Friendly service", "Reasonable pricing"], "dislike": []}
{"place_id": "1497296016", "place_name": "북강릉진국설렁탕", "like": ["Delicious food", "Generous portions", "Comfortable environment", "Rich flavors", "Cleanliness"], "dislike": []}
{"place_id": "1581649293", "place_name": "북청해장국", "like": ["Delicious food", "Fresh seafood", "Rich flavor", "Friendly service", "Good value"], "dislike": ["Repetitive dishes", "High costs"]}
{"place_id": "1430081795", "place_name": "분식1번지", "like": ["Generous portions", "Delicious food", "Fresh ingredients", "Cozy atmosphere", "Complimentary service"], "dislike": ["Higher price", "Kimchi reuse", "Hygiene concerns"]}
{"place_id": "1622671621", "place_name": "불개미식당", "like": ["Delicious food", "Generous portions", "Fresh ingredients", "Friendly service", "Traditional flavors"], "dislike": ["High prices", "Inconsistent service", "Low-quality ingredients", "Poor food taste", "Overpriced"]}
{"place_id": "35495117", "place_name": "동대문엽기떡볶이 강릉옥천점", "like": ["Family-friendly", "Tasty food", "Unique dishes", "Generous portions", "Appealing presentation"], "dislike": ["Unfriendly staff", "Spicy food"]}
{"place_id": "32443745", "place_name": "불향쭈꾸미볶음", "like": ["Delicious flavor", "Grilled aroma", "Shrimp tempura", "Friendly service", "Perfect spice"], "dislike": ["Reduced portion size", "Increased prices", "Limited service"]}
{"place_id": "1582249955", "place_name": "브라보칼국수 강릉본점", "like": ["Delicious food", "Scenic atmosphere", "Generous portions", "High-quality ingredients", "Friendly staff"], "dislike": ["Uneven cooking", "Bland taste"]}
{"place_id": "1880324643", "place_name": "비노에올리바", "like": ["Friendly service", "Comfortable setting", "Quality wine", "Knowledgeable staff", "Pleasant atmosphere"], "dislike": ["Lack of menu", "Uninformed pricing", "Distracted service"]}
{"place_id": "1491441649", "place_name": "BHC치킨 스카이베이경포호텔점", "like": ["Delicious food", "Crispy chicken", "Friendly service", "Clean facilities", "Outdoor seating"], "dislike": ["Expensive drinks", "Slow service"]}
{"place_id": "1598566285", "place_name": "BHC치킨 강릉초당점", "like": ["Delicious food", "Good taste", "Cleanliness", "Crispy chicken"], "dislike": []}
{"place_id": "1145141946", "place_name": "빈이네 김밥", "like": ["Unique atmosphere", "Delicious food", "Value for money", "Friendly service", "Generous portions"], "dislike": []}
{"place_id": "1182668393", "place_name": "빈이네김밥", "like": [], "dislike": []}
{"place_id": "15338842", "place_name": "빙고주막", "like": ["Delicious food", "Tasty side dishes", "Warm soup"], "dislike": []}
{"place_id": "15328404", "place_name": "빛고을식당", "like": ["Delicious food", "Cozy atmosphere", "Friendly service", "Generous side dishes", "Traditional dishes"], "dislike": ["Unfriendly service", "Salty broth", "Unhygienic practices"]}
{"place_id": "1936217141", "place_name": "빡가네갈비후라이 강릉점", "like": ["Good value", "Delicious food", "Friendly service"], "dislike": []}
{"place_id": "1408112993", "place_name": "빨간보자기밥집", "like": ["Solo dining", "Tasty food", "Affordable", "Generous portions", "Home-cooked"], "dislike": ["Limited hours"]}
{"place_id": "32736679", "place_name": "뼈장군", "like": ["Delicious food", "Generous portions", "Good value", "Variety of sides", "Unlimited rice"], "dislike": []}
{"place_id": "37253078", "place_name": "뿅가곱창 강릉점", "like": ["Delicious food", "Generous portions", "Affordable prices", "Clean environment", "Friendly service"], "dislike": []}
{"place_id": "1287201222", "place_name": "사거리맛집", "like": [], "dislike": []}
{"place_id": "15333270", "place_name": "사계절탕수육", "like": ["Delicious food", "Generous portions", "Variety of sauces", "Friendly service", "High-quality meat"], "dislike": ["Hygiene issues", "Mediocre taste"]}
{"place_id": "15354056", "place_name": "사랑왕순대집", "like": ["Delicious food", "High-quality meat", "Friendly service", "Flavorful dishes", "Popular spot"], "dislike": ["Unfriendly service", "Order errors", "Lukewarm rice", "Rude staff"]}
{"place_id": "1103832672", "place_name": "사주카페싱글앤커플", "like": [], "dislike": []}
{"place_id": "1866632720", "place_name": "사천닭내장탕", "like": ["Unique flavors", "Delicious food", "Hidden gem", "Generous portions", "Good value"], "dislike": ["Bland taste", "Lacking cleanliness", "Poor air conditioning", "Missing ingredients"]}
{"place_id": "15372194", "place_name": "사천면옥", "like": ["Delicious food", "Affordable prices", "Nostalgic atmosphere", "Friendly owner", "Authentic naengmyeon"], "dislike": ["Overly tangy", "Long wait", "Portion inconsistency"]}
{"place_id": "1015624214", "place_name": "사천샘골식당", "like": ["Delicious food", "Thoughtful service", "Generous portions", "Clean environment", "Comfortable atmosphere"], "dislike": []}
{"place_id": "15372123", "place_name": "사천소머리국밥", "like": ["Delicious food", "Friendly service", "Generous portions", "Cleanliness", "Good value"], "dislike": ["High prices", "Poor service", "Unsatisfactory quality"]}
{"place_id": "15371788", "place_name": "전주식당", "like": ["Delicious food", "Friendly service", "Adequate portions", "Variety of dishes", "Well-seasoned sides"], "dislike": ["Poor service", "Inadequate portions", "Poor food quality", "Unpleasant atmosphere", "Overpriced food"]}
{"place_id": "15354630", "place_name": "사천집", "like": [], "dislike": []}
{"place_id": "1806917841", "place_name": "산골아저씨", "like": ["Delicious food", "Memorable atmosphere", "Good value", "Healthy taste", "Clean dessert"], "dislike": ["Poor reservation", "Insufficient availability", "Lack of communication"]}
{"place_id": "1322358260", "place_name": "산내음식당", "like": ["Homemade taste", "Clean presentation", "Delicious food", "Healthy options", "Friendly service"], "dislike": []}
{"place_id": "15321466", "place_name": "산두꺼비", "like": ["Comforting atmosphere", "Delicious food", "Friendly service", "Affordable prices", "Good for drinks"], "dislike": ["Ordinary side dishes", "Inaccurate pricing", "Unremarkable taste"]}
{"place_id": "1051463715", "place_name": "산마루쌈밥", "like": ["Delicious food", "Generous portions", "Reasonable pricing", "Attentive service"], "dislike": []}
{"place_id": "1395972978", "place_name": "산마루황태촌", "like": ["Delicious food", "Flavorful dishes", "Generous side dishes", "Friendly service", "Satisfying meal"], "dislike": []}
{"place_id": "1453209507", "place_name": "산마루황태촌 초당직영점", "like": ["Flavorful food", "Generous portions", "Clean environment", "Friendly service", "High-quality ingredients"], "dislike": []}
{"place_id": "15376068", "place_name": "산마을", "like": ["Delicious food", "Generous portions", "Local cuisine", "Healthy menu", "Variety of fish"], "dislike": []}
{"place_id": "1239178298", "place_name": "수향수산횟집", "like": ["Delicious food", "Fresh sashimi", "Generous portions", "Friendly service", "Spacious environment"], "dislike": ["Payment issues"]}
{"place_id": "15700038", "place_name": "산악식당", "like": [], "dislike": []}
{"place_id": "1054193385", "place_name": "산우리", "like": [], "dislike": []}
{"place_id": "38521522", "place_name": "산이장칼국수 포남동1호점", "like": ["Delicious food", "Rich broth", "Generous portions", "Tasty dumplings", "Chewy noodles"], "dislike": ["Unclean apron", "Distracting staff", "Slow service"]}
{"place_id": "15345849", "place_name": "산전수전", "like": ["Delicious food", "Friendly service", "Generous portions", "Good value", "Variety of dishes"], "dislike": ["Smoking at entrance"]}
{"place_id": "15364392", "place_name": "산촌", "like": ["Flavorful food", "Generous portions", "Friendly service", "Traditional drink", "Clean presentation"], "dislike": []}
{"place_id": "945583235", "place_name": "산호막국수", "like": ["Delicious food", "Homely atmosphere", "Generous portions", "Good value"], "dislike": []}
{"place_id": "1547280580", "place_name": "삼겹식당 강릉송정점", "like": ["Delicious food", "Friendly service", "Clean environment", "High-quality meat", "Unique experience"], "dislike": []}
{"place_id": "11554046", "place_name": "삼교리동치미막국수 교동점", "like": ["Delicious food", "Generous portions", "Authentic buckwheat", "Friendly service", "Spacious interior"], "dislike": ["Noodle texture", "Value for money", "Strong seasoning", "Broth flavor"]}
{"place_id": "1440249555", "place_name": "삼교리동치미막국수 강릉포남점", "like": ["Delicious food", "Cleanliness", "Authentic taste", "Generous portions", "Family-friendly"], "dislike": ["Bland taste"]}
{"place_id": "37800217", "place_name": "삼교리동치미막국수 강릉본점", "like": ["Delicious food", "Flavorful broth", "Crispy pancakes", "Refreshing taste", "Friendly staff"], "dislike": ["Unfriendly owner", "Inconsistent taste", "Intrusive service"]}
{"place_id": "11727313", "place_name": "삼교리원조동치미막국수", "like": ["Delicious food", "Generous portions", "Friendly service", "Memorable taste", "Variety of dishes"], "dislike": ["Difficult customers", "Lack of waiting system", "Small portions"]}
{"place_id": "20357470", "place_name": "삼미식당", "like": ["Delicious food", "Cleanliness", "Flavorful seasoning", "Friendly service", "Pleasant atmosphere"], "dislike": ["Strong seasoning", "Limited menu", "Less flavorful main dish", "Unsatisfactory quality"]}
{"place_id": "15299161", "place_name": "삼삼해물찜", "like": ["Delicious food", "Seafood flavor", "Friendly service"], "dislike": ["High price", "Inconsistent side dishes", "Small portions"]}
{"place_id": "1026602629", "place_name": "삼성식당", "like": ["Traditional flavors", "Delicious food"], "dislike": []}
{"place_id": "1034314848", "place_name": "삼성식당오또", "like": ["Wine expertise", "Pleasant atmosphere", "Unique experience", "Quality ingredients", "Good music"], "dislike": []}
{"place_id": "15318802", "place_name": "미향이네삼수갑산", "like": ["Delicious food", "Generous portions", "Authentic taste", "Friendly service", "Spacious and comfortable"], "dislike": []}
{"place_id": "1054137817", "place_name": "삼시세끼", "like": ["Delicious food", "Edible side dishes"], "dislike": ["Unfriendly service", "Poor ventilation", "Limited side options", "Unsatisfying stew", "Small portions"]}
{"place_id": "15349253", "place_name": "삼우옹심이", "like": ["Delicious food", "Friendly service", "Relaxed atmosphere", "Unique menu", "Good value"], "dislike": ["Bland taste", "Unimpressive taste"]}
{"place_id": "15315326", "place_name": "삼원손칼국수", "like": ["Crispy texture", "Delicious food", "Tasty kimchi", "Complimentary rice"], "dislike": []}
{"place_id": "1103963861", "place_name": "삼척집", "like": ["Efficient service", "Cozy atmosphere", "Delicious food", "Convenient location", "Good value"], "dislike": []}
{"place_id": "1136211401", "place_name": "삼첩분식 주문진점", "like": ["Complimentary drink", "Delicious food", "Friendly service", "Quick service", "Warm food"], "dislike": []}
{"place_id": "1916677194", "place_name": "삼첩분식 강릉점", "like": ["Flavorful food", "Unique flavor", "Friendly service", "Generous portions", "Fast delivery"], "dislike": ["Missing ingredients"]}
{"place_id": "11570995", "place_name": "삼포암쉼터", "like": ["Delicious food", "Friendly service"], "dislike": ["Limited hours"]}
{"place_id": "15333087", "place_name": "상부추어탕", "like": ["Delicious food", "Taste"], "dislike": ["Mediocre experience"]}
{"place_id": "15696326", "place_name": "상호네횟집", "like": ["Fresh seafood", "Friendly service", "Delicious food"], "dislike": ["Poor service", "Slow service"]}
{"place_id": "1714842320", "place_name": "샘골보리밥", "like": ["Delicious food", "Attentive service", "Healthy options", "Tasty side dishes", "Friendly staff"], "dislike": []}
{"place_id": "15365136", "place_name": "샘골식당", "like": [], "dislike": []}
{"place_id": "15699787", "place_name": "샘터휴게실식당", "like": [], "dislike": []}
{"place_id": "12027411", "place_name": "샘터흑염소", "like": ["Delicious food", "Friendly service", "Clean presentation"], "dislike": []}
{"place_id": "1774158643", "place_name": "샘터흑염소", "like": [], "dislike": []}
{"place_id": "1739432424", "place_name": "생바지락칼제비", "like": ["Rich seafood flavor", "Fresh ingredients", "Spicy noodles", "Friendly service", "Good value"], "dislike": ["Greasy pancake"]}
{"place_id": "15374161", "place_name": "생수쉼터식당", "like": ["Good value", "Complimentary dish", "Tasty food", "Generous portions", "Fresh ingredients"], "dislike": ["Unfriendly service"]}
{"place_id": "1310944050", "place_name": "샤브향 강릉입암점", "like": ["Variety of dishes", "Delicious food", "Clean environment", "Friendly service", "Good value"], "dislike": []}
{"place_id": "1103356219", "place_name": "서당골산채", "like": ["Delicious food", "Generous portions", "Friendly service", "Traditional atmosphere", "Good value"], "dislike": ["Unfriendly service", "Limited menu", "Lack of variety"]}
{"place_id": "1283618889", "place_name": "서부시장냉삼", "like": ["Delicious food", "Tasty side dishes", "Friendly service", "Pleasant atmosphere", "Generous portions"], "dislike": []}
{"place_id": "1914381494", "place_name": "서지가마솥설렁탕전문점", "like": ["Family-friendly", "Tasty food", "Traditional building", "Friendly service", "Clean environment"], "dislike": ["Small portion size"]}
{"place_id": "1439249340", "place_name": "서지초가뜰", "like": ["Scenic atmosphere", "Delicious desserts", "Traditional architecture", "Refreshing drinks", "Variety of tea"], "dislike": []}
{"place_id": "15686636", "place_name": "선경식당", "like": [], "dislike": []}
{"place_id": "15303183", "place_name": "선열해장국", "like": ["Delicious food", "Flavorful broth", "Generous portion", "Convenient breakfast", "Comfortable experience"], "dislike": []}
{"place_id": "1799014321", "place_name": "선우기사식당", "like": ["Delicious food", "Friendly service", "Good value", "Clean environment", "Effective air conditioning"], "dislike": ["Shared utensils", "Spicy flavor", "Salty food", "Unfriendly staff", "Old meat smell"]}
{"place_id": "21338790", "place_name": "오리본가선자령", "like": ["Delicious food", "Clean food", "Friendly service"], "dislike": []}
{"place_id": "1117655474", "place_name": "선채향", "like": ["Delicious food", "Rich abalone porridge", "Friendly service", "Generous portions", "Comfortable dining"], "dislike": ["Small portions"]}
{"place_id": "35363966", "place_name": "선풍", "like": ["Fresh seafood", "Delicious food", "Generous portions", "Variety of dishes", "Good value"], "dislike": ["Noisy atmosphere", "Value for money"]}
{"place_id": "1416755080", "place_name": "선호라면", "like": ["Delicious food", "Generous portions", "Fresh seafood", "Unique concept", "Friendly staff"], "dislike": ["Non-spicy ramen", "Sweet taste"]}
{"place_id": "1391626004", "place_name": "설렘덩크", "like": ["Delicious food", "Friendly service", "Inviting atmosphere", "Stylish interior", "Family-friendly"], "dislike": ["Slow service", "Small portions", "Salty food", "Poor value", "Mandatory ordering"]}
{"place_id": "15302452", "place_name": "섭과물망치", "like": ["Delicious food", "Unique taste", "Refreshing broth", "Fresh ingredients", "Spicy broth"], "dislike": ["High price", "Unsatisfactory taste", "Inadequate service", "Insufficient portion size", "Poor food quality"]}
{"place_id": "1603154990", "place_name": "성남대운식당", "like": ["Delicious food", "Affordable price", "Good side dishes", "Home-cooked taste", "Korean buffet"], "dislike": ["Insufficient portion", "Poor value"]}
{"place_id": "1175212803", "place_name": "성남장터", "like": ["Good taste", "Tasty seaweed soup", "Delicious side dishes", "Nostalgic atmosphere", "Not too salty"], "dislike": ["Overly salty", "Burnt taste", "Lack of transparency", "Poor service", "Poor value"]}
{"place_id": "19828562", "place_name": "성남칼국수", "like": ["Delicious food", "Affordable prices", "Generous portions", "Quick service", "Friendly staff"], "dislike": ["Long wait", "Cash-only payment", "Poor noodle quality"]}
{"place_id": "15389140", "place_name": "성산대구머리찜", "like": ["Delicious food", "Generous portions", "Flavorful dishes", "Enjoyable atmosphere", "Spicy flavor"], "dislike": ["Insufficient fish", "Slow service", "Poor value"]}
{"place_id": "11857534", "place_name": "옛카나리아", "like": ["Delicious food", "Nostalgic atmosphere", "Flavorful seasoning", "Welcoming atmosphere", "Consistent taste"], "dislike": ["Unfriendly service", "Poor hygiene", "Overpriced", "Inconsistent staff", "Mediocre taste"]}
{"place_id": "13051175", "place_name": "성산옛집", "like": ["Delicious food", "Friendly service", "Generous portions", "Variety of side dishes", "Consistent taste"], "dislike": ["Poor meat quality", "Insufficient meat quantity", "Unpleasant atmosphere", "Unsatisfactory service", "Lack of value"]}
{"place_id": "11860452", "place_name": "청기와", "like": ["Delicious food", "Spicy taste", "Authentic taste", "Preferred dish", "Long-term patronage"], "dislike": []}
{"place_id": "15349585", "place_name": "성산면옥", "like": ["Delicious food", "Tasty noodles", "Tender boiled pork", "Flavorful sauce", "Friendly service"], "dislike": []}
{"place_id": "1194649037", "place_name": "성산밥집", "like": ["Tasty food", "Generous portions", "Affordable price", "Friendly service", "Breakfast availability"], "dislike": ["Strong seasoning", "Unpleasant atmosphere", "Food hygiene concerns"]}
{"place_id": "1925143603", "place_name": "성산설렁탕", "like": [], "dislike": ["Unfriendly service", "Unpleasant taste", "Poor food quality", "Overcooked preparation", "Stale peanuts"]}
{"place_id": "15306959", "place_name": "성산토속가든", "like": ["Delicious food", "Spicy flavor", "Friendly service", "Popular dishes"], "dislike": ["Unpleasant taste", "Poor food quality"]}
{"place_id": "1221051877", "place_name": "성수족발", "like": ["Delicious food", "Superior taste", "Friendly service", "Fresh ingredients", "Menu variety"], "dislike": ["Slow service", "Poor service"]}
{"place_id": "32185195", "place_name": "성원닭내장", "like": ["Spicy flavor", "Homemade food", "Value for money", "Friendly service", "Fresh ingredients"], "dislike": ["Lack of cleanliness"]}
{"place_id": "32037933", "place_name": "성원대박집", "like": ["Delicious food", "Attentive service", "Family-friendly", "Generous portions", "Skilled chef"], "dislike": ["Salty stew"]}
{"place_id": "37008842", "place_name": "성화천", "like": [], "dislike": []}
{"place_id": "1661351403", "place_name": "세미맛닭갈비", "like": ["Complimentary dishes", "Attentive service", "Delicious food", "Creative presentation", "Cleanliness"], "dislike": []}
{"place_id": "15387283", "place_name": "세화식당", "like": [], "dislike": []}
{"place_id": "1545781198", "place_name": "소금강가는길목", "like": ["Delicious side dishes", "Generous portions", "Friendly service", "Quality ingredients", "Flavorful chicken"], "dislike": ["Limited portions", "Unaccommodating service"]}
{"place_id": "1547353286", "place_name": "소금강맛집", "like": ["Delicious food", "High-quality side dishes", "Friendly service", "Fresh ingredients", "Clean environment"], "dislike": []}
{"place_id": "585999501", "place_name": "소금강막국수", "like": ["Delicious food", "Personalized service", "Value for money", "Generous portions", "Affordable prices"], "dislike": []}
{"place_id": "1050598409", "place_name": "소금강메밀막국수", "like": ["Healthy food", "Pleasant scenery", "Refreshing atmosphere", "Clean environment"], "dislike": []}
{"place_id": "1300556799", "place_name": "소금강산과친구", "like": ["Homemade kimchi", "Variety", "Friendly service", "Pleasant music"], "dislike": []}
{"place_id": "1232579386", "place_name": "소금강추어탕", "like": ["Satisfying portions", "Unique taste", "Delicious food", "Friendly service"], "dislike": []}
{"place_id": "1219260382", "place_name": "소나무가든", "like": ["Delicious food", "Clean facilities", "Spacious dining", "Friendly service", "Diverse menu"], "dislike": ["Unfriendly service", "Ordinary taste", "Sweet food"]}
{"place_id": "1190165195", "place_name": "소담낙지 강릉경포", "like": ["Delicious food", "Family-friendly service", "Generous portions", "Tender octopus", "Fresh ingredients"], "dislike": []}
{"place_id": "15325727", "place_name": "소담흑염소", "like": ["Delicious food", "Fresh ingredients", "Friendly service", "Spacious interior", "Positive reception"], "dislike": ["Unpleasant odor"]}
{"place_id": "1436289883", "place_name": "소락", "like": ["Delicious food", "Generous portions", "Affordable prices", "Friendly service", "Pleasant atmosphere"], "dislike": ["Slow service"]}
{"place_id": "1517085264", "place_name": "소문난밥상", "like": ["Delicious food", "Variety of side dishes", "Friendly service", "Quick service", "Healthy meals"], "dislike": ["Unwanted ingredients", "Greasy main dish", "Store-bought kimchi"]}
{"place_id": "37300459", "place_name": "소문난식당", "like": ["Delicious food", "Generous portions", "Fresh ingredients", "Flavorful broth"], "dislike": ["Price inconsistency"]}
{"place_id": "1517411654", "place_name": "소소한식탁", "like": [], "dislike": []}
{"place_id": "1368624258", "place_name": "소원을말해봐", "like": ["Delicious desserts", "Generous portions", "Freshly prepared food", "Friendly service", "Pleasant atmosphere"], "dislike": ["Average taste"]}
{"place_id": "1151531006", "place_name": "강냉이소쿠리", "like": ["Unique flavors", "Delicious desserts", "Cozy atmosphere", "Appealing owner", "Relaxing seating"], "dislike": ["Unfriendly service", "Limited space", "Weak coffee", "Small portions", "Insect issue"]}
{"place_id": "1867686044", "place_name": "소확행", "like": ["Delicious food", "Friendly service", "Generous portions", "Quality ingredients", "Char-grilled flavor"], "dislike": []}
{"place_id": "1570395296", "place_name": "손맛을담다", "like": ["Delicious food", "Generous portions", "Unique flavors", "Attentive staff", "Good value"], "dislike": ["Limited menu options"]}
{"place_id": "35700874", "place_name": "솔담한정식 강릉본점", "like": ["Unique aroma", "Delicious food", "Cleanliness", "Friendly service", "Good value"], "dislike": ["Overly salty", "Strong aroma"]}
{"place_id": "21061573", "place_name": "솔바람감자적", "like": ["Delicious food", "Generous portions", "Spicy flavor", "Affordable prices", "Quiet atmosphere"], "dislike": []}
{"place_id": "36892469", "place_name": "솔바람텃골", "like": ["Delicious food", "Generous portions", "Tasty side dishes", "Attentive service", "Variety in menu"], "dislike": ["Limited stew options", "Salty seaweed soup"]}
{"place_id": "35743969", "place_name": "솔밭추어탕", "like": ["Tasty food", "Rich flavor", "Friendly service", "Fresh ingredients", "Good value"], "dislike": []}
{"place_id": "1560658401", "place_name": "솔옥", "like": ["Delicious food", "Unique dishes", "Friendly service", "Pleasant atmosphere", "Generous portions"], "dislike": []}
{"place_id": "15310589", "place_name": "솔올부대찌개", "like": ["Delicious food", "Generous portions", "Variety of side dishes", "Friendly service", "Good value"], "dislike": ["Long wait time", "Salty soup"]}
{"place_id": "15315713", "place_name": "솔이네쌈밥집", "like": ["Delicious food", "Varied menu", "Friendly service", "Home-style meals", "Cleanliness"], "dislike": []}
{"place_id": "1427607632", "place_name": "솔잎향기", "like": ["Delicious food", "Generous portions", "Affordable prices"], "dislike": ["Unfriendly service"]}
{"place_id": "1096696224", "place_name": "솔지네 관동대점", "like": ["Good value", "Affordable drinks", "Unlimited servings", "Delicious food"], "dislike": []}
{"place_id": "1823998778", "place_name": "솔향기", "like": ["Fresh seafood", "Delicious food", "Family-friendly", "Friendly service", "Group dining"], "dislike": ["High price", "Poor quality", "Unprofessional service", "Break time"]}
{"place_id": "1385390950", "place_name": "솔향대게 강릉본점", "like": ["Delicious food", "Clean environment", "Generous portions", "Pet-friendly", "Attentive service"], "dislike": ["High price", "Oily food"]}
{"place_id": "66334268", "place_name": "솔향미니식당", "like": ["Delicious food", "Positive recommendation", "Taste"], "dislike": []}
{"place_id": "1165823672", "place_name": "안목해변 술집 문문", "like": ["Delicious food", "Variety of drinks", "Pleasant atmosphere", "Friendly service", "Reasonable prices"], "dislike": ["High prices", "Lack of elevator"]}
{"place_id": "15349625", "place_name": "아라담횟집", "like": ["Delicious seafood", "Clean environment", "Friendly service", "Pleasant atmosphere", "Good value"], "dislike": []}
{"place_id": "1991602969", "place_name": "솔향", "like": ["Fresh seafood", "Affordable pricing", "Delicious food", "Friendly service", "Clean environment"], "dislike": []}
{"place_id": "404484119", "place_name": "솔향축산셀프식당", "like": ["Delicious food", "High-quality meat", "Generous portions", "Great value", "Self-cooking experience"], "dislike": ["Limited seating", "Lack of friendliness"]}
{"place_id": "2077873969", "place_name": "솔향돈우촌", "like": ["Delicious food", "Spacious facilities", "Quality side dishes", "Friendly service", "Clean environment"], "dislike": []}
{"place_id": "1219529326", "place_name": "강릉솔향식육식당", "like": ["Friendly service", "Delicious food"], "dislike": []}
{"place_id": "21513703", "place_name": "솔향육개장", "like": ["Delicious food", "Spicy flavor", "Friendly service", "Simple menu", "Perfect seasoning"], "dislike": ["Missing ingredients", "Reduced portion size"]}
{"place_id": "1653763172", "place_name": "뉴솔향초당순두부", "like": ["Flavorful dishes", "Delicious food", "Friendly environment", "Pet-friendly", "Cleanliness"], "dislike": ["Lack of smoky flavor", "Strong sauce flavor"]}
{"place_id": "15689028", "place_name": "송가소머리국밥", "like": [], "dislike": []}
{"place_id": "1167569582", "place_name": "송가촌", "like": ["Delicious food", "Tasty side dishes", "Enjoyable experience", "Good quality", "Consistent quality"], "dislike": ["Slow service", "Self-service required"]}
{"place_id": "449523007", "place_name": "송강식당", "like": ["Seasonal specialty", "Delicious food", "Excellent appetizer"], "dislike": []}
{"place_id": "35828643", "place_name": "초당송도불향쭈꾸미 본점", "like": ["Delicious food", "Healthy taste", "Friendly service", "Generous portions", "Spicy flavor"], "dislike": []}
{"place_id": "1960151360", "place_name": "소금강 송이랑능이랑", "like": ["Delicious food", "Generous portions", "Friendly service", "Pleasant atmosphere", "Family-friendly"], "dislike": ["Unremarkable taste", "Limited variety", "Poor value"]}
{"place_id": "38571130", "place_name": "송정가든", "like": ["Delicious food", "Friendly service", "Cleanliness", "Child-friendly", "Fresh ingredients"], "dislike": ["Limited seating"]}
{"place_id": "15388186", "place_name": "송정추어탕칼국수", "like": ["Nutritious food", "Delicious food", "Authentic taste", "Friendly service", "Excellent quality"], "dislike": []}
{"place_id": "12018893", "place_name": "송정해변막국수", "like": ["Delicious food", "Tender meat", "Generous portions", "Flavorful dishes", "Consistent taste"], "dislike": ["Bland taste", "Artificial broth", "Poor quality", "Overpriced food"]}
{"place_id": "15318226", "place_name": "송죽원추어탕", "like": ["Delicious food", "Authentic taste", "Clean environment", "Healthy options", "Friendly service"], "dislike": []}
{"place_id": "1288844710", "place_name": "송참숯갈비", "like": ["Local recommendation", "Good taste", "Tasty side dishes", "Delicious food", "Friendly service"], "dislike": []}
{"place_id": "15374085", "place_name": "송천식당", "like": ["Delicious food", "Generous portions", "Friendly service", "Comfortable atmosphere", "Variety of dishes"], "dislike": ["Long waiting time", "Limited options"]}
{"place_id": "15374062", "place_name": "송천휴게소", "like": ["Delicious food", "Cleanliness", "Friendly service", "Generous portions", "Healthy ingredients"], "dislike": []}
{"place_id": "15311728", "place_name": "수미골", "like": ["Delicious food", "Fresh seafood", "Flavorful dishes", "Attentive service", "Local favorite"], "dislike": ["Slow service", "Dirty microwave"]}
{"place_id": "1367787468", "place_name": "수상한식당", "like": ["Delicious food", "Friendly service", "Generous portions", "Diverse side dishes", "Stylish interior"], "dislike": ["Sticky utensils", "Overcooked fish", "Poor side dish quality"]}
{"place_id": "1940521213", "place_name": "호박식당", "like": ["Flavorful dumplings", "Clean environment", "Generous portions", "Handmade noodles", "Friendly service"], "dislike": ["Spicy noodle soup"]}
{"place_id": "1489310166", "place_name": "짬뽕 순두부 초당애", "like": ["Delicious food", "Generous portions", "Varied side dishes", "Rich flavor", "Friendly service"], "dislike": ["Salty food", "Sweet cockle dish"]}
{"place_id": "1147644788", "place_name": "숨긴뒷고기", "like": ["Delicious food", "Generous portions", "Attentive service", "Fresh ingredients", "Good value"], "dislike": ["Tough meat", "Limited menu", "Unwelcoming reception", "Inconsistent lighting"]}
{"place_id": "1298829672", "place_name": "스왓띠", "like": ["Authentic Thai cuisine", "Delicious food", "Diverse menu", "Generous portions", "Interior design"], "dislike": ["Sweet taste"]}
{"place_id": "1088145777", "place_name": "스텔라떡볶이 강원강릉역점", "like": ["Good taste", "Customer service", "Cleanliness", "Family-friendly", "Pleasant atmosphere"], "dislike": ["Spicy taste not suitable for children"]}
{"place_id": "1762091362", "place_name": "스텔라떡볶이 강원강릉입암점", "like": ["Delicious food", "Variety of options", "Generous portions", "Quick service", "Friendly service"], "dislike": []}
{"place_id": "11859909", "place_name": "시골할머니추어탕", "like": ["Delicious food", "Homemade taste", "Authentic cuisine", "Rich broth", "Variety of seating"], "dislike": ["Unpleasant service", "Salty food", "Preferential treatment"]}
{"place_id": "1888786624", "place_name": "시나미83", "like": ["Delicious food", "Relaxing atmosphere", "Generous portions", "Friendly service", "Scenic view"], "dislike": []}
{"place_id": "1368387404", "place_name": "시나미왕갈비탕", "like": ["Generous portions", "Flavorful broth", "Tender meat", "Friendly service", "Clean interior"], "dislike": []}
{"place_id": "12788417", "place_name": "신리면옥 강릉점", "like": ["Delicious noodles", "Friendly service", "Generous portions", "Tender meat", "Complementary dishes"], "dislike": ["Unusual broth", "Thick sauce"]}
{"place_id": "15365202", "place_name": "신선그린가든", "like": [], "dislike": []}
{"place_id": "1913138880", "place_name": "신아우라지식당", "like": [], "dislike": []}
{"place_id": "31925410", "place_name": "신촌장칼국수", "like": ["Rich flavors", "Delicious food", "Generous portions", "High-quality ingredients", "Friendly staff"], "dislike": ["Strong seasoning", "Limited space", "Crowded atmosphere", "Mixed jangkal opinions"]}
{"place_id": "15322337", "place_name": "신행복식당", "like": ["Delicious food", "Homely atmosphere", "Friendly service", "Generous portions", "Affordable prices"], "dislike": []}
{"place_id": "15368789", "place_name": "정동진심곡쉼터", "like": ["Delicious food", "Homemade dishes", "Pleasant atmosphere", "Affordable prices", "Friendly service"], "dislike": []}
{"place_id": "1832769863", "place_name": "심곡 오미막국수", "like": ["Generous portions", "Authentic taste", "Cleanliness", "Pleasant atmosphere", "Unique presentation"], "dislike": []}
{"place_id": "37799505", "place_name": "심곡홍가네식당", "like": ["Delicious food", "Generous portions", "Clean environment", "Flavorful dishes", "Friendly service"], "dislike": []}
{"place_id": "1605479970", "place_name": "십이월육일", "like": ["Complimentary dishes", "Delicious food", "Generous service", "Tasty snacks", "Flavorful broth"], "dislike": []}
{"place_id": "1664122091", "place_name": "싱글벙글찜", "like": ["Good taste", "Generous portions", "Friendly service", "Fresh ingredients", "Homemade beverages"], "dislike": ["Poor texture", "Mismatched seasoning", "Greasy meat", "Excessive spiciness"]}
{"place_id": "1541303714", "place_name": "싸다아구찜&탕", "like": ["Fresh food", "Delicious taste", "Friendly service"], "dislike": []}
{"place_id": "13135583", "place_name": "쌈채강릉점", "like": ["Delicious food", "Flavorful sauces", "Generous portions", "Excellent service", "Fresh ingredients"], "dislike": []}
{"place_id": "15687560", "place_name": "쌈촌 강릉점", "like": ["Attentive staff", "Delicious food", "Friendly service"], "dislike": ["Poor service", "Limited portions", "High cost", "Hygiene issues", "Misleading information"]}
{"place_id": "36997320", "place_name": "summ'er", "like": ["Delicious food", "Pleasant atmosphere", "Friendly service"], "dislike": ["Weak coffee"]}
{"place_id": "1286333563", "place_name": "쏙만두 강릉점", "like": ["Delicious food"], "dislike": []}
{"place_id": "1965445853", "place_name": "쑥고개토종닭", "like": [], "dislike": []}
{"place_id": "1007919986", "place_name": "쓰이네", "like": ["Delicious food", "Generous portions", "Unique options", "Good value", "Warm hospitality"], "dislike": ["Crowded atmosphere"]}
{"place_id": "1841284780", "place_name": "아저씨네닭도리탕", "like": ["Delicious food", "Unique taste", "Friendly service", "Generous portions", "Fresh ingredients"], "dislike": ["No dine-in", "Takeout only"]}
{"place_id": "15337939", "place_name": "안땔골식당", "like": ["Taste", "Side dishes"], "dislike": ["Main dish quality"]}
{"place_id": "1084805019", "place_name": "미역국 전문점 안목애", "like": ["Tasty food", "Variety of side dishes", "Generous portions", "Pleasant aroma", "Tender fish"], "dislike": ["High prices", "Poor service", "Unpleasant taste", "Limited side dishes", "Strict ordering rules"]}
{"place_id": "1261122567", "place_name": "안목항물회", "like": ["Delicious food", "Generous portions", "Fresh seafood", "Friendly service", "Unique flavors"], "dislike": ["Small portions"]}
{"place_id": "1312891030", "place_name": "안인우리밥상", "like": ["Good value", "Tasty food", "Generous portions", "Friendly service", "Fresh fish"], "dislike": []}
{"place_id": "1236764160", "place_name": "안주가 강릉교동점", "like": ["Delicious food", "Friendly service", "Generous portions", "Clean interior", "Affordable prices"], "dislike": ["Misleading presentation"]}
{"place_id": "1511206408", "place_name": "안현가", "like": ["Delicious food", "Family-friendly", "Affordable pricing", "Attentive service", "Spacious interior"], "dislike": ["Bland food", "Inattentive staff", "Overpriced", "Hygiene issues", "Limited portions"]}
{"place_id": "1587239044", "place_name": "암사직화쪽갈비 강릉점", "like": ["Delicious food", "Flavorful seasoning", "Generous portions", "Friendly service", "Comfortable atmosphere"], "dislike": []}
{"place_id": "1129595331", "place_name": "애경부침", "like": ["Tasty food", "Affordable pricing", "Authentic flavors", "Traditional atmosphere", "Good value"], "dislike": ["Unfermented kimchi", "Hygiene concerns"]}
{"place_id": "1190822494", "place_name": "야식의 정석", "like": ["Delicious food", "Cleanliness", "Friendly service", "Menu variety"], "dislike": ["High delivery fee", "Small portion size"]}
{"place_id": "12025780", "place_name": "야식철가방", "like": ["Great taste", "Friendly service", "Delicious food"], "dislike": []}
{"place_id": "1463097899", "place_name": "얌샘김밥 강릉유천점", "like": ["Tasty food", "Generous portions", "Cleanliness", "Friendly service", "Good value"], "dislike": []}
{"place_id": "1380888385", "place_name": "얌샘김밥 강릉내곡점", "like": ["Delicious food", "Cleanliness", "Generous portions", "Comfortable interior", "Convenience"], "dislike": ["Unfriendly service", "Inconsistent quality"]}
{"place_id": "1947436708", "place_name": "얌샘김밥 주문진점", "like": ["Delicious food", "Good food quality", "Convenient dining", "Pleasant texture", "Signature dish"], "dislike": ["Overpriced", "Salty food", "Unhygienic practices", "Spicy taste"]}
{"place_id": "1598957286", "place_name": "양마니명동찌개마을 강릉포남점", "like": ["Delicious food", "Varied side dishes", "Generous portions", "Clean environment", "Friendly service"], "dislike": ["Worn-out dishware"]}
{"place_id": "1757070641", "place_name": "양마니명동찌개마을 내곡점", "like": ["Delicious food", "Spicy flavor", "Friendly service", "Lively atmosphere", "Generous portions"], "dislike": ["Unfriendly service", "Limited portions", "Uncomfortable atmosphere", "No rice included", "Crowded atmosphere"]}
{"place_id": "1254874929", "place_name": "양마니명동찌개마을 입암점", "like": ["Delicious food", "Friendly service", "Generous portions"], "dislike": []}
{"place_id": "21669386", "place_name": "양지가마솥쌈밥", "like": ["Delicious food", "Generous portions", "Fresh ingredients", "Complimentary rice", "Tasty stew"], "dislike": ["Poor service", "Limited menu", "Unsatisfactory side dish"]}
{"place_id": "31735975", "place_name": "어메야", "like": ["Delicious food", "Friendly service", "Generous portions", "Home-cooked taste"], "dislike": ["Poor taste", "Insect presence"]}
{"place_id": "1982635458", "place_name": "어부네코다리조림 강릉내곡점", "like": ["Delicious food", "Generous portions", "Friendly service", "High-quality ingredients", "Clean environment"], "dislike": ["Salty taste"]}
{"place_id": "1313480235", "place_name": "어성골실내마차", "like": [], "dislike": []}
{"place_id": "21734984", "place_name": "어야네", "like": ["Delicious food"], "dislike": ["Not worth money", "Poor food quality", "Lack of taste"]}
{"place_id": "15316318", "place_name": "언덕위에일번지", "like": ["Delicious food", "Friendly service", "Affordable prices", "Home-cooked taste", "Clean side dishes"], "dislike": ["High price", "Poor service", "Misleading description"]}
{"place_id": "1783159988", "place_name": "엘사의아지트", "like": [], "dislike": []}
{"place_id": "1270547426", "place_name": "여왕숯불갈비", "like": ["Delicious food", "Tender meat", "Generous portions", "Affordable prices", "Friendly service"], "dislike": ["Language barrier", "Lack of water", "Overcooked noodles"]}
{"place_id": "1524056023", "place_name": "여우애김밥 강릉송정점", "like": ["Good taste", "Efficient service", "Cleanliness", "Spicy flavor", "Menu variety"], "dislike": ["Inconsistent taste", "High prices"]}
{"place_id": "11716683", "place_name": "연곡꾹저구탕", "like": ["Delicious food", "Tasty pancakes", "Friendly service", "Unique menu", "Reasonable pricing"], "dislike": []}
{"place_id": "15373710", "place_name": "연곡면옥", "like": ["Delicious food", "Friendly service", "Unique presentation", "Variety of noodles", "Flavorful broth"], "dislike": ["Uncomfortable seating", "Average taste", "Expensive price", "Insufficient staff", "Fatty meat"]}
{"place_id": "1108423897", "place_name": "연곡유정오리", "like": ["Delicious food", "Friendly service", "Family-friendly", "Generous portions", "Fresh ingredients"], "dislike": ["Long wait times"]}
{"place_id": "15372688", "place_name": "연곡이모네", "like": ["Delicious food", "Generous portions", "Friendly service", "Nostalgic atmosphere", "Fresh ingredients"], "dislike": []}
{"place_id": "1543028097", "place_name": "염가네 꼬막무침 강릉본점", "like": ["Delicious taste"], "dislike": []}
{"place_id": "733311439", "place_name": "영동의정부부대찌개", "like": ["Tasty food", "Friendly service", "Clean dishes", "Warm dishes"], "dislike": ["Poor taste"]}
{"place_id": "15378791", "place_name": "영세감자탕", "like": ["Delicious food", "Friendly service", "Good value", "Customizable spice", "Generous sides"], "dislike": ["Mediocre quality", "Unpleasant taste", "Ordinary experience", "Incorrect billing", "Poor service"]}
{"place_id": "1843519259", "place_name": "영진보리밥쌈밥", "like": ["Delicious food", "Generous portions", "Friendly service", "Cleanliness", "Fresh ingredients"], "dislike": ["Inattentive service"]}
{"place_id": "1627067179", "place_name": "영흥야식", "like": [], "dislike": []}
{"place_id": "1646467642", "place_name": "옛길가든 화정", "like": ["Delicious food", "Scenic location", "Friendly service", "Generous portions", "Clean environment"], "dislike": ["Incorrect pricing", "Unpleasant odor", "Small portions", "Order issues", "Long wait"]}
{"place_id": "15365140", "place_name": "옛길만나가든", "like": ["Generous portions", "Unique experience", "Friendly service"], "dislike": ["Tough texture", "Expensive", "Overpriced"]}
{"place_id": "35371344", "place_name": "옛진고개식당", "like": ["Delicious food", "Friendly service", "Japanese cuisine", "Fresh ingredients", "Solo dining"], "dislike": ["Slow service", "Small portions", "Hygiene concerns"]}
{"place_id": "15327200", "place_name": "초당만두식당", "like": ["Delicious food", "Generous portions", "Friendly service", "Good value", "Skilled cooking"], "dislike": ["Poor hygiene", "Bland taste", "Uncomfortable temperature"]}
{"place_id": "15364541", "place_name": "옛카네이션집", "like": ["Flavorful food", "Friendly service", "Generous portions", "Delicious taste", "Ample fish meat"], "dislike": ["Decline in quality", "Additional charge", "Insufficient meat", "Poor value", "Reduced portions"]}
{"place_id": "1157704605", "place_name": "오떡후 강릉교동점", "like": ["Tasty food", "Cleanliness", "Good service", "Friendly service"], "dislike": ["Inconsistent taste", "Soggy food"]}
{"place_id": "1255753636", "place_name": "오로지김밥카페", "like": ["Tasty food", "Friendly service", "Generous portions", "Welcoming atmosphere"], "dislike": []}
{"place_id": "1886569100", "place_name": "오봉능이백숙", "like": [], "dislike": []}
{"place_id": "1847740796", "place_name": "오봉집 강릉점", "like": ["Delicious food", "Friendly service", "Cleanliness", "Tender meat", "Spicy octopus"], "dislike": ["Small portions", "Missing ingredients"]}
{"place_id": "13474596", "place_name": "오색자연산민물장어민물매운탕", "like": [], "dislike": []}
{"place_id": "36952290", "place_name": "오월에초당", "like": ["Delicious food", "Noodles", "Generous portions", "Consistent quality", "Menu variety"], "dislike": ["Slow service", "Overrated taste", "Poor communication", "Expensive menu"]}
{"place_id": "1449236862", "place_name": "오채연", "like": ["Delicious food", "Scenic view", "Friendly service", "Tender meat", "Generous portions"], "dislike": []}
{"place_id": "1642973454", "place_name": "옥계두메산골", "like": ["Delicious food", "Refreshing soup", "Seasonal menu", "Good value"], "dislike": []}
{"place_id": "1095838597", "place_name": "옥래식당", "like": ["Nostalgic taste", "Local atmosphere", "Recommended dish", "Delicious food", "Good value"], "dislike": ["Ordinary food"]}
{"place_id": "1147672088", "place_name": "옹심이중국집", "like": ["Good taste", "Reasonable price", "Family-friendly", "Friendly service", "Unique sauce"], "dislike": ["Insufficient portion size"]}
{"place_id": "35123527", "place_name": "완선섭국", "like": ["Tasty food", "Friendly service", "Authentic flavor", "Good value", "Fresh ingredients"], "dislike": ["Insufficient quality"]}
{"place_id": "15706950", "place_name": "왕바우식당", "like": [], "dislike": []}
{"place_id": "1417252039", "place_name": "왕바우아구찜", "like": ["Delicious food", "Cozy atmosphere", "Friendly service", "Generous portions"], "dislike": []}
{"place_id": "21736411", "place_name": "왕솔밭칼국수", "like": ["Generous portions", "Side dishes", "Delicious food"], "dislike": []}
{"place_id": "32268248", "place_name": "왕초신불닭", "like": ["Reliable service", "Delicious food", "Generous portions", "Spicy options", "Friendly staff"], "dislike": ["Sweet seasoning"]}
{"place_id": "1947299729", "place_name": "용삼이네", "like": ["Crispiness", "Clean taste", "Chewy texture"], "dislike": []}
{"place_id": "1322950937", "place_name": "용우동 강릉역점", "like": ["Tasty food", "Quick service", "Crispy pork cutlet", "Simple meal", "Revisit likely"], "dislike": ["Lack of cleanliness", "Overpriced orders", "Salty food", "Limited sides", "Unclean utensils"]}
{"place_id": "1921109419", "place_name": "용우동 유천점", "like": ["Affordable pricing", "Delicious food", "Child-friendly", "Friendly service", "Good value"], "dislike": []}
{"place_id": "1209433896", "place_name": "우리한우상회 강릉유천점", "like": ["Delicious food", "Fresh ingredients", "Friendly service", "Affordable prices", "Family-friendly"], "dislike": []}
{"place_id": "1062358382", "place_name": "원영생선구이", "like": ["Delicious food", "Generous portions", "Friendly service", "Fresh ingredients", "Child-friendly"], "dislike": ["Dry fish", "Unfamiliar squid taste"]}
{"place_id": "1539087797", "place_name": "월성식당 2호점", "like": ["Delicious food", "Friendly service", "Unique fish dish", "Generous portions", "Good value"], "dislike": ["Salty dishes", "Pricey", "Fish odor"]}
{"place_id": "1804629499", "place_name": "유가네닭갈비 강릉유천점", "like": ["Delicious food", "Family-friendly", "Generous portions", "Odor-free environment", "Friendly service"], "dislike": ["Slow service"]}
{"place_id": "15341731", "place_name": "유산민물장어", "like": ["Quality rice dish", "Delicious food"], "dislike": ["Unfriendly service", "Overly salty food", "Lack of service"]}
{"place_id": "1333635362", "place_name": "육달 막국수", "like": ["Delicious food", "Generous portions", "Clean environment", "Friendly staff", "Affordable pricing"], "dislike": []}
{"place_id": "36911308", "place_name": "육반장 주문진점", "like": ["Delicious food", "Friendly service", "Variety of options", "Rich broth", "Fresh ingredients"], "dislike": []}
{"place_id": "1698491446", "place_name": "육장원", "like": ["Delicious food", "Spicy soup", "Friendly service"], "dislike": ["Reduced portion size"]}
{"place_id": "1312042209", "place_name": "윤이네순대국밥", "like": ["Delicious food", "Generous portions", "Flavorful broth", "Friendly service", "Variety of dishes"], "dislike": []}
{"place_id": "1628822395", "place_name": "은서네밥상", "like": ["Affordable pricing", "Variety of menu", "Friendly service", "Home-cooked taste", "Generous side dishes"], "dislike": []}
{"place_id": "1131992941", "place_name": "은하수구락부", "like": ["Diverse menu", "Delicious food", "Friendly service", "Generous portions", "Good value"], "dislike": ["Unprofessional staff", "Small portions", "Bland food", "Cigarette odor", "Slow service"]}
{"place_id": "1997272116", "place_name": "이가네면옥", "like": ["Delicious food", "Friendly service", "Rich flavor", "Clean environment", "Fresh ingredients"], "dislike": ["Inattentive service", "Overly sweet seasoning", "Unpleasant texture"]}
{"place_id": "33886859", "place_name": "이미정의걸작교동점", "like": ["Customizable music", "Private seating", "Delicious food", "Affordable prices"], "dislike": []}
{"place_id": "1951084871", "place_name": "이밤동먹거리", "like": ["Delicious food", "Varied menu", "Friendly service", "Local authenticity", "High-quality ingredients"], "dislike": []}
{"place_id": "31442589", "place_name": "이삭토스트 강릉교동점", "like": ["Tasty food", "Cleanliness", "Quick service", "Generous sauce", "Friendly service"], "dislike": ["Slow service", "Incorrect order", "Unfriendly service"]}
{"place_id": "1406475436", "place_name": "이쉐프의돈까스", "like": ["Delicious taste", "Crispy texture", "Affordable pricing", "Generous portions", "Comfortable atmosphere"], "dislike": []}
{"place_id": "1242231665", "place_name": "이정희차돌박이김치두루치기", "like": ["Delicious food", "Generous portions", "Friendly service", "Flavorful broth", "Efficient management"], "dislike": ["Insufficient meat", "Overly spicy", "Poor service", "Unimpressive broth"]}
{"place_id": "34266306", "place_name": "인사동손칼국시", "like": ["Delicious food", "Authentic taste", "Friendly service", "Spicy broth", "Flavorful dumplings"], "dislike": ["Poor taste", "Soybean noodles"]}
{"place_id": "1382988357", "place_name": "인연밥집", "like": ["Self-service dishes", "Nutritious food", "Delicious food", "Attentive service", "Generous portions"], "dislike": []}
{"place_id": "1065465081", "place_name": "찜사랑 생선찜전문점", "like": ["Delicious food", "Friendly service", "Authentic cuisine", "Generous portions", "Cozy atmosphere"], "dislike": ["Slow service"]}
{"place_id": "1325291875", "place_name": "일미리금계찜닭 교동점", "like": ["Flavorful dishes", "Quick preparation", "Friendly service", "Generous portions", "Clean facilities"], "dislike": []}
{"place_id": "33732587", "place_name": "일미소문난생선구이", "like": ["Delicious fish", "Tasty food", "Spacious environment", "Friendly service", "Good value"], "dislike": []}
{"place_id": "1167544058", "place_name": "일송손칼국수", "like": ["Delicious food", "Clean facilities", "Unique side dishes", "Friendly service", "Variety of menu options"], "dislike": ["Long wait times", "Undercooked noodles"]}
{"place_id": "11596944", "place_name": "일조일석감자탕", "like": ["Friendly service", "Tasty food", "Hearty soup", "Hidden gem"], "dislike": ["Rude service", "Salty broth", "Overcooked sprouts", "Poor service"]}
{"place_id": "1515512501", "place_name": "임계메밀부치기", "like": ["Tasty food", "Nostalgic taste", "Authentic flavors", "Friendly service", "Consistent quality"], "dislike": ["Expensive prices", "Small portions", "Bland soup", "Salty taste", "Lack of labeling"]}
{"place_id": "1199090198", "place_name": "임당골 감자탕", "like": ["Delicious food", "Cleanliness", "Friendly service", "Generous portions", "Effective hangover cure"], "dislike": []}
{"place_id": "224093513", "place_name": "임호염소전문점", "like": ["Delicious food", "Friendly service", "Spacious interior", "Fresh ingredients", "Clean environment"], "dislike": ["Weak broth", "Increasing prices"]}
{"place_id": "1262380542", "place_name": "작은다리호떡집", "like": ["Delicious food", "Friendly service"], "dislike": []}
{"place_id": "37293982", "place_name": "잔치마당능이백숙", "like": ["Delicious food", "Generous portions", "Friendly service", "High-quality side dishes", "Rich broth"], "dislike": ["Limited payment options"]}
{"place_id": "1410871338", "place_name": "잠수교수제갈비", "like": ["Delicious food", "Friendly service", "Family-friendly", "Generous portions", "Quality ingredients"], "dislike": []}
{"place_id": "1324180172", "place_name": "장덕리방목토종닭", "like": ["Delicious food", "Friendly service", "Clean dishes", "Healthful ingredients"], "dislike": []}
{"place_id": "15378617", "place_name": "장면옥", "like": ["Delicious food", "Diverse menu", "Friendly service", "Generous portions", "Memorable dumplings"], "dislike": []}
{"place_id": "1311691306", "place_name": "장어정각", "like": ["Delicious food", "Generous portions", "Friendly service", "Pleasant interior", "Affordable prices"], "dislike": ["Unpleasant taste", "Poor service", "Unpleasant odor", "Food quality", "Poor value"]}
{"place_id": "1948739713", "place_name": "전곱 주문진점", "like": [], "dislike": []}
{"place_id": "2038507525", "place_name": "전이랑구이랑", "like": [], "dislike": []}
{"place_id": "15327169", "place_name": "점봉산산채산나물천국", "like": ["Delicious food", "Healthy options", "Unique dishes", "Friendly service", "Good value"], "dislike": ["Heavy aftertaste"]}
{"place_id": "15368880", "place_name": "정동만남의광장", "like": ["Delicious food"], "dislike": []}
{"place_id": "13318163", "place_name": "아줌마순메밀부치기", "like": ["Delicious food", "Friendly service", "Good value", "Clean environment"], "dislike": []}
{"place_id": "32037906", "place_name": "정윤이네먹거리", "like": ["Nostalgic taste", "Traditional preparation", "Delicious food"], "dislike": []}
{"place_id": "13052149", "place_name": "정은숙초당순두부", "like": ["Delicious tofu", "Authentic cuisine", "Friendly staff", "Spacious seating", "No wait time"], "dislike": []}
{"place_id": "1472679296", "place_name": "제비리장칼국수", "like": ["Delicious food", "Tender meat", "Generous portions", "Affordable prices", "Friendly service"], "dislike": ["Bland taste"]}
{"place_id": "1661704740", "place_name": "제왕산순대국밥", "like": ["Delicious food", "Generous portions", "Fresh ingredients"], "dislike": []}
{"place_id": "1036955196", "place_name": "제주해인물회", "like": ["Delicious food", "Fresh ingredients", "Generous portions", "Friendly service", "Memorable experience"], "dislike": ["Limited menu"]}
{"place_id": "1948284531", "place_name": "조부동막국수", "like": ["Tasty chicken", "Delicious food", "Complimentary dish", "Friendly service", "Good value"], "dislike": ["Unsatisfactory seasoning", "Average noodles", "Poor communication", "Increased prices", "Smaller portions"]}
{"place_id": "36102761", "place_name": "주막골밥상", "like": ["Delicious food", "Friendly service", "Clean presentation"], "dislike": ["Limited menu", "Poor value", "Inadequate ingredients", "Unsatisfactory service", "Low food quality"]}
{"place_id": "20264808", "place_name": "주문진가마솥설렁탕", "like": ["Delicious food", "Generous portions", "Authentic taste", "Friendly service", "Quality ingredients"], "dislike": ["High prices", "Small portions", "Ordinary taste", "Lack of seating"]}
{"place_id": "1515374261", "place_name": "주문진고기장터", "like": ["Delicious food", "Generous portions", "High-quality ingredients", "Friendly service", "Clean environment"], "dislike": ["Extra charge", "Regular pork belly"]}
{"place_id": "1598577565", "place_name": "주문진남매식당", "like": ["Delicious food", "Friendly service", "Clean environment", "Variety of dishes", "Reasonable prices"], "dislike": []}
{"place_id": "21116582", "place_name": "주문진 돈의맛", "like": ["Delicious food", "Fresh ingredients", "High-quality meat", "Friendly service", "Good value"], "dislike": []}
{"place_id": "1950305815", "place_name": "주문진 미인상회", "like": ["Tasty food", "Cleanliness", "Pleasant atmosphere", "Friendly service", "Good value"], "dislike": []}
{"place_id": "15380566", "place_name": "주문진순이네", "like": ["Delicious food", "Friendly service", "Affordable prices", "Fresh ingredients", "Unique cooking method"], "dislike": []}
{"place_id": "1999941615", "place_name": "여기어때", "like": [], "dislike": []}
{"place_id": "1215971214", "place_name": "주문진전주식당", "like": ["Tasty food", "Traditional taste", "Generous portions"], "dislike": []}
{"place_id": "20715506", "place_name": "주문진해물국수", "like": ["Delicious food", "Friendly service", "Authentic atmosphere", "Fresh ingredients", "Seafood dishes"], "dislike": ["Small space"]}
{"place_id": "36623104", "place_name": "주문진행운식당", "like": ["Delicious food", "Generous portions", "Affordable prices", "Friendly service", "Fresh ingredients"], "dislike": ["Frozen fish", "Unfriendly service", "Salty seasoning", "Limited parking"]}
{"place_id": "15344738", "place_name": "주희네의정부부대찌개", "like": ["Delicious taste", "Rich broth", "Friendly service", "Generous portions", "Good value"], "dislike": []}
{"place_id": "1307856893", "place_name": "준호네 정원", "like": ["Delicious food", "Friendly service", "Clean environment", "Generous portions", "Child-friendly amenities"], "dislike": []}
{"place_id": "1951006286", "place_name": "흑진주", "like": ["Delicious food", "Rich flavors", "Friendly service", "Fresh ingredients", "Satisfying portion"], "dislike": ["Insufficient sauce"]}
{"place_id": "15373932", "place_name": "진고개냉면", "like": ["Delicious food", "Friendly staff", "Rich broth", "Generous portions", "Healthy options"], "dislike": []}
{"place_id": "15336190", "place_name": "진재골", "like": ["Great taste", "Homemade ingredients", "Delicious food", "Friendly service", "Generous portions"], "dislike": ["Unremarkable interior"]}
{"place_id": "1642640928", "place_name": "질가집", "like": ["Delicious food", "Variety of options", "Generous portions", "Friendly service", "Pleasant atmosphere"], "dislike": []}
{"place_id": "1650933512", "place_name": "짱신", "like": ["Good value", "Unique taste", "Delicious food", "Friendly chef", "Generous portions"], "dislike": ["Unfriendly service", "Bland taste", "Long wait", "Expensive dish", "Small portions"]}
{"place_id": "1691801657", "place_name": "참고맙소", "like": ["Flavorful food", "Good menu selection", "Generous portions", "Friendly service", "Clean taste"], "dislike": ["Mediocre value"]}
{"place_id": "1819322549", "place_name": "참새방앗간 2호점", "like": [], "dislike": []}
{"place_id": "1302280920", "place_name": "채선당 자연한가득 강릉내곡점", "like": ["Delicious food", "Fresh ingredients", "Attentive service", "Variety of options", "Cleanliness"], "dislike": []}
{"place_id": "1468367465", "place_name": "채선당 강릉사천항점", "like": ["Delicious food", "Generous portions", "Clean environment", "Friendly service", "Good value"], "dislike": ["Small meat portions", "Inaccurate pricing"]}
{"place_id": "1317273169", "place_name": "천진동해장국", "like": ["Delicious food", "Generous portions", "Clean facilities", "Friendly service", "Good value"], "dislike": ["High price", "Unfriendly service", "Unsatisfactory food quality"]}
{"place_id": "36777124", "place_name": "철뚝소머리집", "like": ["Delicious food", "Friendly service", "Nostalgic atmosphere", "Flavorful broth", "Quick service"], "dislike": ["High price", "Small portion size"]}
{"place_id": "1775815561", "place_name": "청년고기장수 강릉주문진점", "like": ["Delicious food", "High-quality meat", "Friendly service", "Affordable prices", "Enjoyable atmosphere"], "dislike": []}
{"place_id": "15369843", "place_name": "청수그린가든", "like": ["Delicious food", "Cleanliness", "Rich taste", "Friendly service", "Unique side dish"], "dislike": []}
{"place_id": "1173284566", "place_name": "청주무심천대게", "like": ["Good taste", "High-quality seafood", "Clean environment", "Attractive presentation", "Well-prepared dishes"], "dislike": ["High price"]}
{"place_id": "37470653", "place_name": "청주본가 강릉점", "like": ["Tasty food", "Friendly service", "Family-friendly", "Clean environment"], "dislike": ["Extra charges", "Reduced food quality", "Intimidating service"]}
{"place_id": "1528730078", "place_name": "청화대뚝배기동태탕", "like": ["Delicious broth", "Cleanliness", "Spicy flavor", "Food variety", "Consistent quality"], "dislike": []}
{"place_id": "1042880745", "place_name": "초당가국수", "like": ["Delicious food", "Clean environment", "Friendly service", "Unique flavors", "Healthy ingredients"], "dislike": []}
{"place_id": "38414974", "place_name": "초당다나정원", "like": ["Nutritious food", "Tender chicken", "Traditional atmosphere", "Beautiful garden", "Scenic view"], "dislike": ["Small space", "Room condition", "Limited view"]}
{"place_id": "1318014150", "place_name": "초당미소", "like": ["Delicious food", "Tender meat", "Flavorful dishes", "Friendly service", "Good value"], "dislike": ["Limited space"]}
{"place_id": "1359335955", "place_name": "초당민들레", "like": ["Delicious food", "Generous portions", "Affordable prices", "Clean facilities", "Friendly service"], "dislike": ["Thickly sliced carrots"]}
{"place_id": "1966143636", "place_name": "초당본가짬뽕순두부", "like": ["Delicious food", "Cozy atmosphere", "Quick service", "Complimentary dishes", "Unique menu"], "dislike": ["Average taste", "Too spicy"]}
{"place_id": "32039146", "place_name": "부일손칼국수", "like": ["Delicious food", "Potato pancakes", "Tasty noodles", "Generous portions", "Friendly service"], "dislike": ["Hygiene concerns", "Strong flavors", "Limited menu"]}
{"place_id": "1582541943", "place_name": "초당화", "like": ["High-quality food", "Generous portions", "Clean environment", "Friendly service", "Beautiful architecture"], "dislike": ["Hardening side dish", "Value for money"]}
{"place_id": "1009432770", "place_name": "초당훈이순두부짬뽕", "like": ["Delicious food", "Generous portions", "Friendly service", "Clean facilities", "Quick service"], "dislike": ["Spiciness level", "Expensive squid sundae"]}
{"place_id": "11830090", "place_name": "초시막국수", "like": ["Delicious food", "Generous portions", "Comfortable atmosphere", "Authentic cuisine", "Affordable prices"], "dislike": ["Inconsistent quality", "Poor taste", "Dry meat"]}
{"place_id": "15354527", "place_name": "초시토속식당", "like": ["Tasty food", "Generous portions"], "dislike": ["Temperature"]}
{"place_id": "15332511", "place_name": "초원이모네", "like": ["Delicious food", "Friendly service", "Generous portions", "Variety of options"], "dislike": []}
{"place_id": "1947576841", "place_name": "최가네한방능이백숙", "like": ["Complimentary drink", "Delicious food", "Friendly service", "Family-friendly atmosphere", "Tasty dishes"], "dislike": ["High pricing", "Poor service", "Inadequate facilities"]}
{"place_id": "1161455816", "place_name": "최일순 짬뽕순두부", "like": ["Delicious food", "Variety of options", "Friendly service", "Spacious interior", "High-quality ingredients"], "dislike": ["Warm interior", "Insufficient cheese", "Spicy taste"]}
{"place_id": "15294097", "place_name": "춘천마신는닭갈비", "like": ["Delicious food", "Cozy atmosphere", "Friendly service", "Generous portions", "Clean environment"], "dislike": ["Limited space", "Lack of cleanliness"]}
{"place_id": "15344509", "place_name": "춘천명동닭갈비", "like": ["Delicious food", "Unique ingredients", "Flavorful combination", "Fresh ingredients", "Tasty fried rice"], "dislike": ["Poor grill quality", "Unappetizing presentation", "Limited variety", "Inadequate air conditioning", "Lack of napkins"]}
{"place_id": "37791032", "place_name": "춘천진선닭갈비", "like": ["High quality", "Delicious food", "Friendly staff", "Quick service"], "dislike": ["Small space", "Slow service"]}
{"place_id": "1937661025", "place_name": "취향마라", "like": [], "dislike": []}
{"place_id": "1129330317", "place_name": "치킨인류 내곡홍제점", "like": ["Delicious food", "Friendly service", "Unique menu", "Good value", "Family-friendly"], "dislike": []}
{"place_id": "1705520679", "place_name": "칠봉산자락", "like": ["Tasty food", "Scenic view", "Outdoor terrace", "Convenient packaging", "Effective fan usage"], "dislike": ["Outdoor seating discomfort"]}
{"place_id": "1335484878", "place_name": "카페더유월", "like": ["Good value", "Skilled coffee", "Friendly service", "Tasty beverages"], "dislike": []}
{"place_id": "1202584889", "place_name": "캠핑식당 용지각길56", "like": ["Unique atmosphere", "Varied dishes", "Fresh seafood", "Delicious food", "Friendly service"], "dislike": ["Expensive rice"]}
{"place_id": "1548474641", "place_name": "컴포즈커피 강릉중앙시장점", "like": ["Good taste", "Cool atmosphere", "Efficient service", "Convenient location", "Affordable prices"], "dislike": ["Long wait times"]}
{"place_id": "37636563", "place_name": "콩새장치찜", "like": ["Delicious food", "Flavorful seasoning", "Generous portions", "Friendly service", "Affordable prices"], "dislike": ["Unfriendly service", "Spiciness level", "Overwhelmed service"]}
{"place_id": "33251611", "place_name": "킹콩부대찌개 강릉교동점", "like": ["Delicious food", "Friendly service", "Generous portions", "Unlimited refills", "Variety of dishes"], "dislike": ["Poor food quality"]}
{"place_id": "1386348221", "place_name": "킹콩부대찌개 강릉옥천점", "like": ["Delicious food", "Spicy flavor", "Generous portions", "Friendly service", "Quick service"], "dislike": ["Unaccommodating staff", "Disposable containers", "Limited variety", "Rushed service"]}
{"place_id": "1718999270", "place_name": "킹콩부대찌개 내곡점", "like": ["Delicious food", "Unlimited refills", "Satisfying portions", "Spacious venue", "Friendly service"], "dislike": []}
{"place_id": "1317391025", "place_name": "태광나들목", "like": ["Delicious food", "Friendly service", "Fresh ingredients", "Attractive presentation", "Variety of dishes"], "dislike": []}
{"place_id": "1276604550", "place_name": "태산순대국", "like": ["Delicious food", "Generous portions", "Clean broth", "Friendly service", "Fresh ingredients"], "dislike": []}
{"place_id": "1314819965", "place_name": "태울한식뷔페", "like": ["Tasty food", "Good buffet selection", "Variety of soups", "Friendly service", "Spacious interior"], "dislike": []}
{"place_id": "1953425523", "place_name": "태인네포차", "like": ["Delicious food", "Quality ingredients", "Friendly service", "Generous portions", "Spacious interior"], "dislike": ["Limited tofu options"]}
{"place_id": "1413946030", "place_name": "태장봉능이오리닭백숙", "like": ["Seasonal atmosphere", "Tasty dishes", "Generous portions", "Friendly service", "Rich broth"], "dislike": ["Slow service"]}
{"place_id": "32036410", "place_name": "통큰왕손만두찐빵", "like": ["Delicious food", "Spicy flavor", "High-quality dumplings", "Large portions", "Variety of options"], "dislike": []}
{"place_id": "1768642786", "place_name": "통통배매운탕", "like": ["Delicious food", "Friendly service", "Fresh ingredients", "Flavorful soup", "Cleanliness"], "dislike": ["Limited fish meat"]}
{"place_id": "1485501035", "place_name": "티각태각대게고로케", "like": ["Variety of options", "Delicious food", "Friendly service", "Generous portions", "Unique beer options"], "dislike": ["Unappealing beer flavors"]}
{"place_id": "1193922269", "place_name": "팔당원조칼제비 강릉남항진점", "like": ["Delicious food", "Generous portions", "Flavorful broth", "Handmade noodles", "Friendly service"], "dislike": []}
{"place_id": "1182217392", "place_name": "페리페리버거 강릉안목해변점", "like": ["Delicious food", "High-quality burgers", "Clean interior", "Friendly service", "Good value"], "dislike": ["Average taste"]}
{"place_id": "11860152", "place_name": "평지해장국", "like": ["Delicious food", "Generous portions", "Affordable prices", "Friendly service", "Quality ingredients"], "dislike": ["Improper seasoning", "Poor hygiene", "Unpleasant service", "Bland taste", "Cold soup"]}
{"place_id": "1690518281", "place_name": "평진냉면", "like": ["Delicious food", "Generous portions", "High-quality dishes", "Friendly service", "Memorable experience"], "dislike": []}
{"place_id": "32471019", "place_name": "포남부영식당", "like": ["Delicious food", "Well-prepared fish stew"], "dislike": ["Small portions", "Insufficient sides"]}
{"place_id": "15322327", "place_name": "포남사골옹심이", "like": ["Delicious food", "Generous portions", "Authentic cuisine", "Rich flavor", "Friendly service"], "dislike": ["Bland taste", "Poor service", "Unpleasant atmosphere", "Small portions", "Outdated facilities"]}
{"place_id": "1323935877", "place_name": "푸짐이왕족발보쌈본점", "like": ["Delicious food", "Tender meat", "Generous portions", "Variety of dishes", "Attentive service"], "dislike": []}
{"place_id": "15380240", "place_name": "푸짐한밥상푸짐한포차", "like": ["Delicious food", "Tasty side dishes", "Friendly service", "Reasonable prices", "Cleanliness"], "dislike": []}
{"place_id": "1450217253", "place_name": "피비피샌드위치", "like": ["Delicious sandwiches", "Good coffee", "Friendly service", "Convenient breakfast", "Pleasant view"], "dislike": ["Limited bakery selection"]}
{"place_id": "21052978", "place_name": "하나로본 감자탕", "like": ["Delicious food", "Flavorful broth", "Cozy seating", "Complimentary dishes", "Educational drinks"], "dislike": ["Small portions"]}
{"place_id": "1792962301", "place_name": "하슬라오정포차", "like": ["Friendly service", "Delicious food"], "dislike": []}
{"place_id": "1575681079", "place_name": "학마을흑염소", "like": ["Delicious food", "Friendly service", "Clean environment", "Fresh ingredients", "Generous portions"], "dislike": []}
{"place_id": "1969057580", "place_name": "학산2리 마을부녀회", "like": ["Delicious food", "Good taste", "Friendly service", "Comfortable atmosphere", "Good value"], "dislike": []}
{"place_id": "1895569364", "place_name": "한성먹거리", "like": ["Delicious broth", "Delicious food", "Friendly service", "Local specialty"], "dislike": []}
{"place_id": "1289887162", "place_name": "한송정보리밥", "like": ["Delicious food", "Good value", "Home-style taste", "Friendly service", "Self-service portions"], "dislike": ["Lack of instructions", "Unorganized service", "Crowded atmosphere", "Sweet flavor"]}
{"place_id": "30968979", "place_name": "한솥도시락 강릉원주대점", "like": ["Delicious food", "Friendly service", "Generous portions", "Good value", "Comfortable dining"], "dislike": []}
{"place_id": "15377936", "place_name": "한양만두분식", "like": ["Delicious taste", "Generous filling", "Tasty dumplings"], "dislike": []}
{"place_id": "584356476", "place_name": "할매곰치국해물", "like": ["Delicious food", "Authentic taste", "Friendly service", "Generous portions", "Skilled cooking"], "dislike": ["Hygiene issues", "Uncomfortable facilities", "Cash-only payment", "Inconsistent taste", "Limited space"]}
{"place_id": "1375694513", "place_name": "함지네먹거리", "like": ["Delicious food", "Friendly service", "Generous portions", "Good value", "Homely atmosphere"], "dislike": ["Broth flavor"]}
{"place_id": "21378059", "place_name": "해동막국수", "like": ["Unique taste", "Delicious broth", "Tasty food", "Popular lunch spot", "Highly recommended"], "dislike": ["Fishy taste", "Overpowering soy sauce"]}
{"place_id": "37191640", "place_name": "해물파는삼촌", "like": ["Rich broth", "Generous portions", "Clean facilities", "Friendly service", "Tasty food"], "dislike": ["Bland seasoning", "Missing ingredient"]}
{"place_id": "1372768506", "place_name": "해주오가전통육개장", "like": ["Rich flavors", "Tasty food", "Cleanliness", "Friendly staff", "Quick service"], "dislike": ["Missing ingredient"]}
{"place_id": "15386399", "place_name": "해촌해물삼계탕", "like": ["Delicious food", "Generous portions", "Affordable price", "Fresh ingredients", "Good value"], "dislike": ["Limited chicken"]}
{"place_id": "1224130101", "place_name": "핵밥 강릉교동점", "like": ["Delicious food", "Diverse menu", "Friendly service", "Clean facilities", "Quick service"], "dislike": ["Excessive sweetness", "Confusing menu"]}
{"place_id": "1381045567", "place_name": "향이네 꼬마김밥", "like": ["Delicious food", "Friendly service", "Cute design", "Convenient portions", "Flavorful rice rolls"], "dislike": []}
{"place_id": "1964715195", "place_name": "현대장칼국수 2호점", "like": ["Flavorful food", "Friendly service", "Generous portions", "Unique flavor", "No waiting"], "dislike": ["Unfriendly service", "Overly salty", "Undercooked noodles", "Small portions", "Poor quality"]}
{"place_id": "12038496", "place_name": "형분식한식", "like": ["Good taste", "Generous portions", "Consistent taste", "Tasty shrimp fried rice", "Menu variety"], "dislike": ["Declining taste", "Increasing prices", "Foreign objects", "Hygiene"]}
{"place_id": "12912326", "place_name": "형제매운양푼갈비", "like": ["Delicious food", "Spacious interior", "Generous portions", "Friendly staff", "Flavorful seasoning"], "dislike": ["High spiciness", "Low-quality ingredients", "Unsatisfactory taste", "Unappealing presentation", "Overpriced food"]}
{"place_id": "1279285512", "place_name": "혜진식당1호점", "like": ["Delicious food", "Affordable pricing", "Generous portions", "Friendly service", "Fresh ingredients"], "dislike": ["Poor value", "Inadequate preparation", "Unfriendly staff", "Poor service", "Lack of utensils"]}
{"place_id": "1751324799", "place_name": "홍제동언덕길그집", "like": ["Delicious food", "Generous portions", "Unique taste", "Refreshing noodles", "Flavorful broth"], "dislike": ["Unconventional location"]}
{"place_id": "15705872", "place_name": "홍질목", "like": ["Delicious food", "Flavorful broth", "Friendly service", "Authentic cuisine", "Tasty side dishes"], "dislike": ["Unconventional taste", "Shared serving style", "Spicy for children"]}
{"place_id": "1849872224", "place_name": "화부산막국수", "like": ["Tasty gondre rice", "Delicious seasoning", "Variety of side dishes", "Generous portions", "Friendly service"], "dislike": ["Hot atmosphere", "Pet odors"]}
{"place_id": "1295036356", "place_name": "황가네막국수냉면", "like": ["Delicious food", "Authentic taste", "Spacious venue", "Friendly service", "Clean environment"], "dislike": ["Average taste"]}
{"place_id": "1774094145", "place_name": "황란 식당", "like": ["Delicious food", "High-quality ingredients", "Friendly service", "Homely atmosphere", "Generous portions"], "dislike": ["High price", "Poor food quality"]}
{"place_id": "1567062059", "place_name": "회산막국수 강릉점", "like": ["Delicious food", "Friendly service", "Clean environment", "High-quality meat", "Comfortable dining"], "dislike": []}
{"place_id": "1359013774", "place_name": "회산보리밥뷔페", "like": ["Good value", "Food variety"], "dislike": []}
{"place_id": "36505019", "place_name": "회산솔식당", "like": ["Affordable price", "Friendly service", "Quick service", "Delicious taste", "Good value"], "dislike": []}
